SLIC,Fac_Name,Region,District,State,Country,Operations_Type,Long_Restriction,XLong_Restriction
,AMFTX,,,,,,0,0
,CABUT,,,,,,0,0
0119,06HCY,07,36,MA,US,BTL,0,0
0119,GUAMA,07,36,MA,US,CPX,0,0
0119,SPRMA,07,36,MA,US,HUB,0,0
0120,PITMA,07,36,MA,US,PKG,0,0
0130,SDEMA,07,36,MA,US,PKG,0,0
0131,MHTAP,07,36,NH,US,APT,0,0
0140,LEOMA,07,36,MA,US,PKG,1,1
0169,DONMA,07,36,MA,US,CPX,0,0
0169,JEFMA,07,36,MA,US,CPX,0,0
0169,LHOMA,07,36,MA,US,CPX,0,0
0169,MASMA,07,36,MA,US,CPX,0,0
0169,REDMA,07,36,MA,US,CPX,0,0
0169,WORMA,07,36,MA,US,HUB,0,0
0169,WORRR,07,36,MA,US,RRY,0,0
0170,ASHMA,07,36,MA,US,PKG,0,0
0189,C0189,07,36,MA,US,BTL,0,0
0189,CHEMA,07,36,MA,US,HUB,0,0
0189,CHSMA,07,36,MA,US,CPX,0,0
0189,EWFMA,07,36,MA,US,CPX,0,0
0189,GMLMA,07,36,MA,US,CPX,0,0
0189,QLOMA,07,36,MA,US,CPX,0,0
0189,TAMMA,07,36,MA,US,CPX,0,0
0189,VAGMA,07,36,MA,US,CPX,0,0
0189,X60MA,07,36,MA,US,XPT,0,0
0199,CBOMA,07,36,MA,US,CPX,0,0
0199,INTMA,07,36,MA,US,CPX,0,0
0199,LYNMA,07,36,MA,US,HUB,0,0
0209,BWFMA,07,36,MA,US,CPX,0,0
0209,CDYMA,07,36,MA,US,CPX,0,0
0209,CMAMA,07,36,MA,US,CPX,0,0
0209,EQUMA,07,36,MA,US,CPX,0,0
0209,HDEMA,07,36,MA,US,CPX,0,0
0209,HUBMA,07,36,MA,US,CPX,0,0
0209,JOFMA,07,36,MA,US,CPX,0,0
0209,LRAMA,07,36,MA,US,CPX,0,0
0209,NORMA,07,36,MA,US,HUB,0,0
0209,ROEMA,07,36,MA,US,CPX,0,0
0209,SECMA,07,36,MA,US,CPX,0,0
0209,TARMA,07,36,MA,US,CPX,0,0
0209,WJCMA,07,36,MA,US,CPX,0,0
0212,SOMMA,07,36,MA,US,PKG,1,1
0219,WATMA,07,36,MA,US,HUB,0,0
0219,WOOMA,07,36,MA,US,XPT,0,0
0231,SBOMA,07,36,MA,US,PKG,0,0
0249,BROMA,07,36,MA,US,HUB,0,0
0249,HARMA,07,36,MA,US,CPX,0,0
0249,JAJMA,07,36,MA,US,CPX,0,0
0249,LHAMA,07,36,MA,US,CPX,0,0
0249,NSPMA,07,36,MA,US,CPX,0,0
0249,SMAMA,07,36,MA,US,CPX,0,0
0249,TWIMA,07,36,MA,US,CPX,0,0
0250,MVYMA,07,36,MA,US,PKG,0,0
0251,NNTMA,07,36,MA,US,PKG,1,1
0259,DEEMA,07,36,MA,US,CPX,0,0
0259,SAMMA,07,36,MA,US,HUB,1,1
0269,HBYMA,07,36,MA,US,XPT,1,1
0269,MBYMA,07,36,MA,US,XPT,0,0
0269,NBYMA,07,36,MA,US,XPT,1,1
0269,YAMMA,07,36,MA,US,HUB,1,1
0270,AHEMA,07,36,MA,US,CPX,0,0
0270,DARMA,07,36,MA,US,PKG,1,1
0270,RINMA,07,36,MA,US,CPX,0,0
0270,UPPMA,07,36,MA,US,CPX,0,0
0274,KNGMA,07,36,MA,US,PKG,0,0
027AM,BOS7 ,07,36,MA,US,CSL,0,0
027R,FREMA,07,36,MA,US,HUB,0,0
0299,PRORI,07,36,RI,US,HUB,0,0
0299,WTRRI,07,36,RI,US,CPX,0,0
0300,FXSNH,07,36,NH,US,CPX,0,0
0300,GMENH,07,36,NH,US,CPX,0,0
0300,NSHNH,07,36,NH,US,HUB,0,0
0319,ECCNH,07,36,NH,US,CPX,0,0
0319,MANNH,07,36,NH,US,HUB,0,0
0320,LACNH,07,36,NH,US,PKG,0,0
0320,WATNH,07,36,NH,US,CPX,0,0
0340,KEENH,07,36,NH,US,PKG,0,0
0340,WENNH,07,36,NH,US,CPX,0,0
0350,TMONH,07,36,NH,US,PKG,0,0
0380,DOVNH,07,36,NH,US,PKG,1,1
0400,WELME,07,36,ME,US,PKG,0,0
0419,BRUME,07,36,ME,US,CPX,0,0
0419,PORME,07,36,ME,US,HUB,0,0
0422,LEWME,07,36,ME,US,PKG,0,0
0432,BEAME,07,36,ME,US,PKG,0,0
0432,FREME,07,36,ME,US,CSL,0,0
0436,PPCME,07,36,ME,US,CSL,0,0
0449,ADIME,07,36,ME,US,CPX,0,0
0449,BANME,07,36,ME,US,HUB,0,0
0449,DSHME,07,36,ME,US,CPX,0,0
0449,NMOME,07,36,ME,US,CPX,0,0
0460,CALME,07,36,ME,US,PKG,0,0
0470,PISME,07,36,ME,US,PKG,0,0
0471,HOLME,07,36,ME,US,PKG,1,1
0480,ROCME,07,36,ME,US,PKG,0,0
0490,WATME,07,36,ME,US,PKG,0,0
0500,KARVT,07,36,VT,US,CPX,0,0
0500,WHIVT,07,36,VT,US,PKG,0,0
0530,BRAVT,07,36,VT,US,PKG,0,0
0540,BURVT,07,36,VT,US,PKG,0,0
0540,CHPVT,07,36,VT,US,CPX,0,0
0560,BARVT,07,36,VT,US,PKG,0,0
0570,HUBVT,07,36,VT,US,CPX,0,0
0570,RUTVT,07,36,VT,US,PKG,0,0
0580,STJVT,07,36,VT,US,PKG,0,0
0609,BDLAP,07,36,CT,US,HUB,0,0
0609,C05DT,07,36,CT,US,BTL,0,0
0609,TRCCT,07,36,CT,US,CPX,0,0
060AM,BDL2 ,07,36,CT,US,CSL,0,0
0619,DTRCT,07,36,CT,US,CPX,0,0
0619,EAMCT,07,36,CT,US,CPX,0,0
0619,EGRCT,07,36,CT,US,CPX,0,0
0619,HARCT,07,36,CT,US,HUB,0,0
0619,HTICT,07,36,CT,US,CPX,0,0
0619,MUSCT,07,36,CT,US,CPX,0,0
0619,NSSCT,07,36,CT,US,CPX,0,0
0630,NOWCT,07,36,CT,US,HUB,0,0
0630,STACT,07,36,CT,US,CPX,0,0
0630,STLCT,07,36,CT,US,CPX,0,0
0635,NIACT,07,36,CT,US,PKG,1,1
0647,ORACT,07,36,CT,US,PKG,1,1
0652,FIRCT,07,36,CT,US,CPX,0,0
0652,FOSCT,07,36,CT,US,CPX,0,0
0652,FPRCT,07,36,CT,US,CPX,0,0
0652,NHACT,07,36,CT,US,PKG,0,0
0652,RUGAN,07,36,CT,US,CPX,0,0
0652,ZANCT,07,36,CT,US,CPX,0,0
0669,PRICT,07,36,CT,US,CPX,0,1
0669,STRCT,07,36,CT,US,HUB,1,1
0679,BLMCT,07,36,CT,US,CPX,0,0
0679,BLOCT,07,36,CT,US,CPX,0,0
0679,COSCT,07,36,CT,US,CPX,0,0
0679,WATCT,07,36,CT,US,HUB,0,0
0680,DANCT,07,36,CT,US,PKG,0,0
0680,WEACT,07,36,CT,US,CPX,0,0
0689,CRHCT,07,36,CT,US,HUB,0,0
0699,NORCT,07,36,CT,US,HUB,0,0
0703,0703,07,20,NJ,US,PKG,0,0
0709,02CCY,07,20,NJ,US,BTL,0,0
0709,ATCNJ,07,20,NJ,US,CPX,0,0
0709,BBBNJ,07,20,NJ,US,CPX,0,0
0709,C03JE,07,20,NJ,US,BTL,0,0
0709,C05EA,07,20,NJ,US,BTL,0,0
0709,CRONJ,07,20,NJ,US,RRY,0,0
0709,CSPNJ,07,20,NJ,US,CPX,0,0
0709,DSINJ,07,20,NJ,US,CPX,0,0
0709,EWR8 ,07,20,NJ,US,CPX,0,0
0709,EWR9 ,07,20,NJ,US,CPX,0,0
0709,FASNJ,07,20,NJ,US,CPX,0,0
0709,HBLNJ,07,20,NJ,US,CPX,0,0
0709,KEYNJ,07,20,NJ,US,CPX,0,0
0709,LFENJ,07,20,NJ,US,RRY,0,0
0709,MEANJ,07,20,NJ,US,HUB,0,0
0709,MKSNJ,07,20,NJ,US,XPT,0,0
0709,NOBG ,07,20,NJ,US,RRY,0,0
0709,NRTNJ,07,20,NJ,US,XPT,0,0
0709,RTRNJ,07,20,NJ,US,CPX,0,0
0709,WRGNJ,07,20,NJ,US,CPX,0,0
070AM,EWR7 ,07,20,NJ,US,CSL,0,0
0710,ORANJ,07,20,NJ,US,HUB,1,1
0729,EWR55,07,20,NJ,US,APT,0,0
072AM,EWR9Z,07,20,NJ,US,CSL,0,0
072AZ,LGA7 ,07,20,NJ,US,CSL,0,0
0759,HVLNY,07,20,NY,US,CPX,0,0
0759,NETNJ,07,20,NJ,US,CPX,0,0
0759,SADNJ,07,20,NJ,US,HUB,0,0
0759,STANY,07,20,NY,US,CPX,0,0
0770,TFANJ,07,20,NJ,US,HUB,1,1
0784,MOLNJ,07,20,NJ,US,HUB,0,0
0789,BBRNJ,07,20,NJ,US,HUB,0,0
0789,BTANJ,07,20,NJ,US,CPX,0,0
0789,MKANJ,07,20,NJ,US,CPX,0,0
0799,AMCNY,07,20,NY,US,CPX,0,0
0799,BAXNY,07,20,NY,US,CPX,0,0
0799,BOYNJ,07,20,NJ,US,CPX,0,0
0799,EASNJ,07,20,NJ,US,XPT,0,0
0799,PARNJ,07,20,NJ,US,HUB,0,0
0799,UPHNJ,07,20,NJ,US,CPX,0,0
0819,AHONJ,07,33,NJ,US,CPX,0,0
0819,C04VW,07,33,NJ,US,BTL,0,0
0819,JETNJ,07,33,NJ,US,CPX,0,0
0819,LAWNJ,07,33,NJ,US,HUB,0,0
0819,MTRNJ,07,33,NJ,US,CPX,0,0
0819,MTWNJ,07,33,NJ,US,CPX,0,0
0819,OSSNJ,07,33,NJ,US,CPX,0,0
0819,RASNJ,07,33,NJ,US,CPX,0,0
0819,RELNJ,07,33,NJ,US,CPX,0,0
0819,RLENJ,07,33,NJ,US,CPX,0,0
0819,SMSNJ,07,33,NJ,US,CPX,0,0
0819,VCSNJ,07,33,NJ,US,CPX,0,0
0829,PLENJ,07,33,NJ,US,HUB,1,1
0839,VINNJ,07,33,NJ,US,HUB,1,1
083AM,TEB3 ,07,33,NJ,US,CSL,0,0
0854,WILNJ,07,20,NJ,US,CSL,0,0
0860,ABE8 ,07,20,NJ,US,CPX,0,0
0860,BNHNJ,07,20,NJ,US,CPX,0,0
0860,TRENJ,07,20,NJ,US,HUB,1,1
086A,EWR4 ,07,20,NJ,US,CSL,0,0
086AM,TEB6 ,07,20,NJ,US,CSL,0,0
0871,LAKNJ,07,20,NJ,US,PKG,1,1
0889,CRBNJ,07,20,NJ,US,HUB,0,0
0899,07HCY,07,20,NJ,US,BTL,0,0
0899,0BCCY,07,20,NJ,US,BTL,0,0
0899,ANNNJ,07,20,NJ,US,CPX,0,0
0899,BARNJ,07,20,NJ,US,CPX,0,0
0899,BXENJ,07,20,NJ,US,CPX,0,0
0899,C07AR,07,20,NJ,US,BTL,0,0
0899,CLVNJ,07,20,NJ,US,XPT,0,0
0899,EDINJ,07,20,NJ,US,HUB,1,1
0899,ELZNJ,07,20,NJ,US,CPX,0,0
0899,GERNJ,07,20,NJ,US,CPX,0,0
0899,JDSNJ,07,20,NJ,US,CPX,0,0
0899,LOLNJ,07,20,NJ,US,CPX,0,0
0899,MCMNJ,07,20,NJ,US,CPX,0,0
0899,MERNJ,07,20,NJ,US,CPX,0,0
0899,PETNJ,07,20,NJ,US,CPX,0,0
0899,SANNJ,07,20,NJ,US,CPX,0,0
0899,SUHNJ,07,20,NJ,US,CPX,0,0
0899,USTNJ,07,20,NJ,US,CPX,0,0
0899,WAYNJ,07,20,NJ,US,CPX,0,0
089AM,LGA9 ,07,20,NJ,US,CSL,0,0
1009,M43NY,07,20,NY,US,HUB,1,1
1014,MANNO,07,20,NY,US,PKG,1,1
1029,MANNY,07,20,NY,US,HUB,1,1
1030,STATN,07,20,NY,US,PKG,1,1
1049,BRUNY,07,20,NY,US,HUB,1,1
1049,GRYNY,07,20,NY,US,CPX,0,0
1049,TGBNY,07,20,NY,US,CPX,0,0
1050,YORNY,07,20,NY,US,PKG,1,1
1069,ELMNY,07,20,NY,US,HUB,0,0
1069,ELPNY,07,20,NY,US,CPX,0,0
1069,GSPNY,07,20,NY,US,CPX,0,0
1089,C12DS,07,20,NY,US,BTL,0,0
1089,MOUNY,07,20,NY,US,HUB,1,1
1090,SVANY,07,20,NY,US,PKG,1,1
1090,UNENY,07,20,NY,US,CPX,0,0
1110,1110,07,20,NY,US,PKG,1,1
1119,BSPNY,07,20,NY,US,CPX,0,0
1119,ISLNY,07,20,NY,US,HUB,1,1
1119,QSPNY,07,20,NY,US,CPX,0,0
1119,YALNY,07,20,NY,US,CPX,0,0
1123,1123,07,20,NY,US,PKG,0,0
1129,FOSNY,07,20,NY,US,HUB,1,1
1149,JFKAS,07,20,NY,US,APT,1,1
1159,CA1NY,07,20,NY,US,CPX,0,0
1159,NASNY,07,20,NY,US,HUB,0,0
1159,POPNY,07,20,NY,US,CPX,0,0
1164,1164,07,20,NY,US,PKG,1,1
1170,1170,07,20,NY,US,PKG,0,0
1170,MAHNY,07,20,NY,US,CPX,0,0
1189,MELNY,07,20,NY,US,HUB,0,0
1200,AMSNY,07,36,NY,US,PKG,0,0
1223,1223,07,36,NY,US,PKG,0,0
1229,ADINY,07,36,NY,US,CPX,0,0
1229,ALBNY,07,36,NY,US,HUB,0,0
1229,ANGEY,07,36,NY,US,CPX,0,0
1229,C13AB,07,36,NY,US,BTL,0,0
1229,CCUNY,07,36,NY,US,XPT,0,0
1229,GCHNY,07,36,NY,US,CPX,0,0
1229,GLSNY,07,36,NY,US,CPX,0,0
1229,UFRNY,07,36,NY,US,XPT,0,0
1239,ALBAS,07,36,NY,US,APT,0,0
1249,KIGNY,07,20,NY,US,HUB,0,0
1250,HUDNY,07,20,NY,US,PKG,1,1
1250,TEFNY,07,20,NY,US,CPX,0,0
1250,USTNY,07,20,NY,US,CPX,0,0
1251,CHENY,07,20,NY,US,PKG,1,1
1255,KGHNY,07,20,NJ,US,CPX,0,0
1255,NWINY,07,20,NY,US,HUB,1,1
1255,SONNY,07,20,NY,US,CPX,0,0
1260,GAPNY,07,20,NY,US,CPX,0,0
1260,POUNY,07,20,NY,US,PKG,0,0
1270,LIBNY,07,20,NY,US,PKG,0,0
1280,GFANY,07,36,NY,US,PKG,0,0
1290,DIANY,07,36,NY,US,CPX,0,0
1290,FFONY,07,36,NY,US,CPX,0,0
1290,MDINY,07,36,NY,US,CPX,0,0
1290,PLANY,07,36,NY,US,HUB,0,0
1290,SCPNY,07,36,NY,US,CPX,0,0
1302,CRTNY,07,36,NY,US,PKG,0,0
1319,SYRAP,07,36,NY,US,APT,0,0
1329,CASNY,07,36,NY,US,CPX,0,0
1329,CSUNY,07,36,NY,US,CPX,0,0
1329,DEWNY,07,36,NY,US,RRY,0,0
1329,DUPNY,07,36,NY,US,CPX,0,0
1329,E25NY,07,36,NY,US,XPT,0,0
1329,MAKNY,07,36,NY,US,CPX,0,0
1329,SYRNY,07,36,NY,US,HUB,0,0
1329,TIRNY,07,36,NY,US,CPX,0,0
1329,URANY,07,36,NY,US,CPX,0,0
1329,VALNY,07,36,NY,US,CPX,0,0
1329,X19NY,07,36,NY,US,XPT,0,0
1329,X24NY,07,36,NY,US,XPT,0,0
1329,X27NY,07,36,NY,US,XPT,0,0
1329,X28NY,07,36,NY,US,XPT,0,0
1329,X29NY,07,36,NY,US,XPT,0,0
1329,X32NY,07,36,NY,US,XPT,0,0
1329,X34NY,07,36,NY,US,XPT,0,0
1329,X35NY,07,36,NY,US,XPT,0,0
1340,ROMNY,07,36,NY,US,PKG,0,0
1350,UTINY,07,36,NY,US,PKG,0,0
1360,BRINY,07,36,NY,US,PKG,0,0
1361,POTNY,07,36,NY,US,PKG,0,0
1380,ONENY,07,36,NY,US,PKG,0,0
1399,BIGNY,07,36,NY,US,XPT,0,0
1399,BINNY,07,36,NY,US,HUB,0,0
1399,SNCNY,07,36,NY,US,CPX,0,0
1400,BATNY,07,36,NY,US,PKG,0,0
1401,DUNNY,07,36,NY,US,PKG,0,0
1410,LOCNY,07,36,NY,US,PKG,0,0
1429,A48NY,07,36,NY,US,XPT,0,0
1429,ACUNY,07,36,NY,US,CPX,0,0
1429,BUFNY,07,36,NY,US,HUB,0,0
1429,DVINY,07,36,NY,US,CPX,0,0
1429,LOUNY,07,36,NY,US,XPT,0,0
1429,MAXNY,07,36,NY,US,CPX,0,0
1429,NSRNY,07,36,NY,US,RRY,0,0
1429,SCSNY,07,36,NY,US,CPX,0,0
1429,X46NY,07,36,NY,US,XPT,0,0
1430,NFANY,07,36,NY,US,PKG,0,0
1439,BUFAP,07,36,NY,US,APT,0,0
1440,GENNY,07,36,NY,US,PKG,0,0
1449,BUNNY,07,36,NY,US,CPX,0,0
1449,HENNY,07,36,NY,US,HUB,0,0
1449,LATNY,07,36,NY,US,CPX,0,0
1449,MKSNY,07,36,NY,US,CPX,0,0
1449,NALNY,07,36,NY,US,CPX,0,0
1460,ROCNY,07,36,NY,US,HUB,0,0
1470,JAMNY,07,36,NY,US,PKG,0,0
1471,OLENY,07,36,NY,US,PKG,0,0
1480,HORNY,07,36,NY,US,PKG,0,0
1481,ITHNY,07,36,NY,US,PKG,0,0
1482,PPONY,07,36,NY,US,PKG,0,0
1490,BBENY,07,36,NY,US,CPX,0,0
1490,ELRNY,07,36,NY,US,PKG,0,0
1500,NKEPA,07,32,PA,US,PKG,1,1
1501,ALIPA,07,32,PA,US,PKG,0,0
1501,MSAPA,07,32,PA,US,CPX,0,0
1509,PITAP,07,32,PA,US,APT,0,0
1519,DAVWV,07,32,WV,US,CPX,0,0
1519,THOPA,07,32,PA,US,HUB,0,0
1529,PGHRR,07,32,PA,US,RRY,0,0
1529,PITPA,07,32,PA,US,HUB,1,1
1530,WASPA,07,32,PA,US,PKG,1,1
1540,DICPA,07,32,PA,US,CPX,0,0
1540,OPPPA,07,32,PA,US,CPX,0,0
1540,UNIPA,07,32,PA,US,PKG,0,0
1559,JOHPA,07,32,PA,US,HUB,0,0
1559,JTSPA,07,32,PA,US,XPT,0,0
1559,KTSPA,07,32,PA,US,XPT,0,0
1569,12SCY,07,32,PA,US,BTL,0,0
1569,BEDPA,07,32,PA,US,XPT,0,0
1569,CVSPA,07,32,PA,US,CPX,0,0
1569,GCOPA,07,32,PA,US,CPX,0,0
1569,MTSPA,07,32,PA,US,XPT,0,0
1569,NEWPA,07,32,PA,US,HUB,0,0
1569,NPIPA,07,32,PA,US,CPX,0,0
1569,NPRPA,07,32,PA,US,CPX,0,0
1569,SWMPA,07,32,PA,US,CPX,0,0
1589,DUBPA,07,32,PA,US,HUB,0,0
1589,DUXPA,07,32,PA,US,XPT,0,0
1600,ZELPA,07,32,PA,US,PKG,0,0
1610,ADAPA,07,32,PA,US,CPX,0,0
1610,NCAPA,07,32,PA,US,PKG,0,0
1630,FRAPA,07,32,PA,US,PKG,0,0
1631,MEAPA,07,32,PA,US,PKG,0,0
1632,KANPA,07,32,PA,US,PKG,1,1
1649,BSHPA,07,32,PA,US,CPX,0,0
1649,ERIPA,07,32,PA,US,HUB,0,0
1649,TPTPA,07,32,PA,US,XPT,0,0
1669,ALTPA,07,32,PA,US,HUB,0,0
1669,NPPPA,07,32,PA,US,CPX,0,0
1680,STAPA,07,32,PA,US,PKG,0,0
1689,APGPA,07,32,PA,US,CPX,0,0
1689,CRLPA,07,32,PA,US,HUB,0,0
1689,PEPPA,07,32,PA,US,CPX,0,0
1689,TASPA,07,32,PA,US,CPX,0,0
1696,ODEPA,07,32,PA,US,CSL,0,0
1700,LEWPA,07,32,PA,US,PKG,0,0
1709,MDTAS,07,32,PA,US,APT,0,0
170A,XUSC ,07,32,PA,US,CSL,0,0
1719,APHPA,07,32,PA,US,CPX,0,0
1719,ASBPA,07,32,PA,US,CPX,0,0
1719,BE2PA,07,32,PA,US,XPT,0,0
1719,BOWPA,07,32,PA,US,CPX,0,0
1719,BREPA,07,32,PA,US,XPT,0,0
1719,C11CN,07,32,PA,US,BTL,0,0
1719,C1719,07,32,PA,US,BTL,0,0
1719,C17UN,07,32,PA,US,BTL,0,0
1719,CSPPA,07,32,PA,US,CPX,0,0
1719,CTSPA,07,32,PA,US,XPT,0,0
1719,DDXPA,07,32,PA,US,CPX,0,0
1719,EXCPA,07,32,PA,US,CPX,0,0
1719,HARPA,07,32,PA,US,HUB,0,0
1719,IMJPA,07,32,PA,US,CPX,0,0
1719,LOGPA,07,32,PA,US,CPX,0,0
1719,MSCPA,07,32,PA,US,CPX,0,0
1719,NESPA,07,32,PA,US,CPX,0,0
1719,OSTPA,07,32,PA,US,CPX,0,0
1719,PALPA,07,32,PA,US,CPX,0,0
1719,PTRPA,07,32,PA,US,XPT,0,0
1719,QDRPA,07,32,PA,US,CPX,0,0
1719,QVAPA,07,32,PA,US,CPX,0,0
1719,RDNPA,07,32,PA,US,CPX,0,0
1719,RUTPA,07,32,PA,US,RRY,0,0
1719,SMHPA,07,32,PA,US,CPX,0,0
1719,SSTPA,07,32,PA,US,XPT,0,0
1719,SYDPA,07,32,PA,US,CPX,0,0
1719,TAPPA,07,32,PA,US,CPX,0,0
1719,TBRPA,07,32,PA,US,CPX,0,0
1719,WALPA,07,32,PA,US,CPX,0,0
1719,WSDPA,07,32,PA,US,CPX,0,0
171AM,MDT1 ,07,32,PA,US,CSL,0,0
1720,CHAPA,07,32,PA,US,PKG,0,0
1720,RNMPA,07,32,PA,US,XPT,0,0
1720,ULTPA,07,32,PA,US,CPX,0,0
1721,STPPA,07,32,PA,US,CSL,0,0
1730,MSTPA,07,32,PA,US,PKG,0,0
1731,GETPA,07,32,PA,US,PKG,0,0
1743,ALFPA,07,32,PA,US,CSL,0,0
1749,C12ES,07,32,PA,US,BTL,0,0
1749,CWRPA,07,32,PA,US,CPX,0,0
1749,TARPA,07,32,PA,US,CPX,0,0
1749,YRKPA,07,32,PA,US,HUB,0,0
1753,MSXPA,07,32,PA,US,CSL,0,0
1759,CLAPA,07,32,PA,US,CPX,0,0
1759,GOSPA,07,32,PA,US,CPX,0,0
1759,LANPA,07,32,PA,US,HUB,0,0
1759,LQBPA,07,32,PA,US,CPX,0,0
1759,NORPA,07,32,PA,US,CPX,0,0
1762,HSCPA,07,32,PA,US,CSL,0,0
1764,PADPA,07,32,PA,US,CSL,0,0
1769,MTLPA,07,32,PA,US,HUB,0,0
1770,WMSPA,07,32,PA,US,PKG,0,0
1773,PHL5 ,07,32,PA,US,CSL,0,0
1784,PHL4 ,07,32,PA,US,CSL,0,0
1789,SUNPA,07,32,PA,US,HUB,0,0
1790,POTPA,07,32,PA,US,PKG,0,0
1794,PHL6 ,07,32,PA,US,CSL,0,0
180AM,ABE4 ,07,32,PA,US,CSL,0,0
180ZU,180ZU,07,32,PA,US,CSL,0,0
1813,ULNPA,07,32,PA,US,CSL,0,0
1816,ABE2 ,07,32,PA,US,CSL,0,0
1819,ABRPA,07,32,PA,US,CPX,0,0
1819,ACHPA,07,32,PA,US,CPX,0,0
1819,ALLPA,07,32,PA,US,HUB,0,0
1819,AMOPA,07,32,PA,US,CPX,0,0
1819,BRUPA,07,32,PA,US,CPX,0,0
1819,C12CC,07,32,PA,US,BTL,0,0
1819,CCIPA,07,32,PA,US,CPX,0,0
1819,FIRPA,07,32,PA,US,CPX,0,0
1819,HBGRR,07,32,PA,US,RRY,0,0
1819,HONPA,07,32,PA,US,CPX,0,0
1819,HOVPA,07,32,PA,US,CPX,0,0
1819,LUTPA,07,32,PA,US,CPX,0,0
1819,MAJPA,07,32,PA,US,CPX,0,0
1819,RICPA,07,32,PA,US,CPX,0,0
1819,SAVPA,07,32,PA,US,CPX,0,0
1819,SMOPA,07,32,PA,US,CPX,0,0
1819,THEPA,07,32,PA,US,CPX,0,0
1819,VRIPA,07,32,PA,US,CPX,0,0
1819,WMNPA,07,32,PA,US,CPX,0,0
1819,WMTPA,07,32,PA,US,CPX,0,0
1819,ZARPA,07,32,PA,US,CPX,0,0
1820,HAZPA,07,32,PA,US,XPT,0,0
1820,HOMPA,07,32,PA,US,PKG,0,0
1820,KISPA,07,32,PA,US,XPT,0,0
1826,AVP1 ,07,32,PA,US,CSL,0,0
1829,18CA ,07,32,PA,US,CPX,0,0
1829,EASPA,07,32,PA,US,HUB,0,0
1829,ETSPA,07,32,PA,US,XPT,0,0
1829,TWIPA,07,32,PA,US,CPX,0,0
182AE,AEHPA,07,32,PA,US,CSL,0,0
1830,STRPA,07,32,PA,US,PKG,0,0
1830,WBRPA,07,32,PA,US,CPX,0,0
1853,AVP3 ,07,32,PA,US,CSL,0,0
1859,C31RM,07,44,TN,US,BTL,0,0
1859,CALPA,07,32,PA,US,CPX,0,0
1859,SCRPA,07,32,PA,US,HUB,0,0
1859,TROPA,07,32,PA,US,CSL,0,0
1869,10CCY,07,32,PA,US,BTL,0,1
1869,BENPA,07,32,PA,US,CPX,0,1
1869,COSPA,07,32,PA,US,CPX,0,1
1869,KIMPA,07,32,PA,US,CPX,0,1
1869,KOAPA,07,32,PA,US,CPX,0,1
1869,SAAPA,07,32,PA,US,CPX,0,1
1869,WBAPA,07,32,PA,US,HUB,0,1
1869,WTSPA,07,32,PA,US,XPT,0,1
1909,C14CC,07,33,PA,US,BTL,0,0
1909,C16ST,07,33,PA,US,BTL,0,0
1909,LINPA,07,33,PA,US,CPX,0,0
1909,MORRR,07,33,PA,US,RRY,0,0
1909,NAGPA,07,33,PA,US,CPX,0,0
1909,TURPA,07,33,PA,US,CPX,0,0
1909,WILPA,07,33,PA,US,HUB,0,0
1909,WOTPA,07,33,PA,US,CPX,0,0
1909,ZNPDE,07,33,DE,US,CPX,0,0
1919,OREPA,07,33,PA,US,HUB,0,0
1919,REVPA,07,33,PA,US,CPX,0,0
1939,CTIPA,07,33,PA,US,CPX,0,0
1939,OXIPA,07,33,PA,US,CPX,0,0
1939,SEAPA,07,33,PA,US,CPX,0,0
1939,VCCPA,07,33,PA,US,CPX,0,0
1939,WCHPA,07,33,PA,US,HUB,0,0
1949,14HCY,07,33,PA,US,BTL,0,0
1949,C14CB,07,33,PA,US,BTL,0,0
1949,ELEPA,07,33,PA,US,CPX,0,0
1949,LACPA,07,33,PA,US,CPX,0,0
1949,PHLPA,07,33,PA,US,HUB,0,0
1949,TRGPA,07,33,PA,US,CPX,0,0
1969,ASHPA,07,32,PA,US,CPX,0,0
1969,RBSPA,07,32,PA,US,CPX,0,0
1969,REAPA,07,32,PA,US,HUB,0,0
1974,1974,07,33,DE,US,PKG,0,0
1974,MEGDE,07,33,DE,US,CPX,0,0
1979,AM7DE,07,33,DE,US,CPX,0,1
1979,AMADE,07,33,DE,US,CPX,0,1
1979,CHRDE,07,33,DE,US,HUB,0,1
1979,CURDE,07,33,DE,US,CPX,0,1
1979,RHWMD,07,33,MD,US,CPX,0,1
1979,SHEDE,07,33,DE,US,CPX,0,1
1979,TRCDE,07,33,DE,US,CPX,0,1
1979,TRRDE,07,33,DE,US,CSL,0,1
1999,HARDE,07,33,DE,US,HUB,0,0
1999,TFTDE,07,33,DE,US,CPX,0,0
2019,SPRMD,07,33,MD,US,CPX,0,0
2019,WASDC,07,33,MD,US,HUB,0,0
202AM,MDT2 ,07,33,MD,US,CSL,0,0
2039,LANMD,07,33,MD,US,HUB,1,1
2049,ALUMD,07,33,MD,US,CPX,0,0
2049,GAIMD,07,33,MD,US,HUB,0,0
2049,MSRMD,07,33,MD,US,CPX,0,0
2059,WALMD,07,33,MD,US,HUB,0,0
2079,23GCY,07,33,MD,US,BTL,0,0
2079,BURMD,07,33,MD,US,HUB,0,0
2079,CLAMD,07,33,MD,US,CPX,0,0
2079,DISMD,07,33,MD,US,CPX,0,0
2079,GPOMD,07,33,MD,US,CPX,0,0
2079,IVIMD,07,33,MD,US,CPX,0,0
2079,QMTVA,07,33,VA,US,CPX,0,0
2079,TRIMD,07,33,MD,US,CPX,0,0
2079,TSHMD,07,33,MD,US,275,0,0
2079,USTMD,07,33,MD,US,CPX,0,0
2079,WBMMD,07,33,MD,US,CPX,0,0
207CO,207CO,07,33,MD,US,CSL,0,0
210AM,XUSM ,07,33,MD,US,CSL,0,0
210SP,210SP,07,33,MD,US,CSL,0,0
2119,AAGMD,07,33,MD,US,CPX,0,0
2119,BNDMD,07,33,MD,US,CPX,0,0
2119,HVAMD,07,33,MD,US,HUB,0,0
2119,PGWMD,07,33,MD,US,CPX,0,0
2123,KOHMD,07,33,MD,US,CSL,0,0
2123,MCYMD,07,33,MD,US,CPX,0,0
2123,QAVMD,07,33,MD,US,HUB,1,1
2129,BADMD,07,33,MD,US,CPX,0,0
2129,BALMD,07,33,MD,US,HUB,0,0
2129,C25AB,07,33,VA,US,BTL,0,0
2129,ELKMD,07,33,MD,US,XPT,0,0
2129,MSLMD,07,33,MD,US,CPX,0,0
2129,NSRMD,07,33,MD,US,RRY,0,0
2129,PCPMD,07,33,MD,US,CPX,0,0
2129,PR1MD,07,33,MD,US,CPX,0,0
2129,RANMD,07,33,MD,US,CPX,0,0
2129,RHHMD,07,33,MD,US,CPX,0,0
2129,RIPMD,07,33,MD,US,XPT,0,0
2129,STPMD,07,33,MD,US,CPX,0,0
2129,TESMD,07,33,MD,US,CPX,0,0
2129,XLHMD,07,33,MD,US,CPX,0,0
212AM,BWI2 ,07,33,MD,US,CSL,0,0
2139,BWIAP,07,33,MD,US,APT,0,0
2159,CUMMD,07,32,MD,US,HUB,0,0
2160,DIXMD,07,33,MD,US,CPX,0,0
2160,EASMD,07,33,MD,US,PKG,0,0
2160,MDIMD,07,33,MD,US,CPX,0,0
2160,USAMD,07,33,MD,US,CPX,0,0
2171,FREMD,07,33,MD,US,HUB,0,0
2174,HDEMD,07,33,MD,US,CSL,0,0
2179,HAGMD,07,33,MD,US,HUB,0,0
2179,LENMD,07,33,MD,US,CPX,0,0
2179,STLMD,07,33,MD,US,CPX,0,0
2189,BENMD,07,33,MD,US,CPX,0,0
2189,SALMD,07,33,MD,US,HUB,0,0
2209,ACCVA,07,33,VA,US,CPX,0,0
2209,DULVA,07,33,VA,US,HUB,0,0
2209,FLNVA,07,33,VA,US,CPX,0,0
2209,TFXVA,07,33,VA,US,CPX,0,0
2229,ALEVA,07,33,VA,US,HUB,0,0
2229,SEAVA,07,33,VA,US,CPX,0,0
2240,FREVA,07,32,VA,US,PKG,0,0
2241,LIVVA,07,32,VA,US,PKG,1,1
2249,NWTVA,07,33,VA,US,HUB,0,0
2249,TFAVA,07,33,MD,US,CPX,0,0
224AM,BWI4 ,07,32,VA,US,CSL,0,0
2260,ELFVA,07,32,VA,US,TLY,0,0
2260,FALVA,07,32,VA,US,XPT,0,0
2260,FRRVA,07,32,VA,US,PKG,1,1
2260,MKDVA,07,32,VA,US,CSL,0,0
2260,QDGVA,07,32,VA,US,CPX,0,0
2260,STCVA,07,32,VA,US,XPT,0,0
2290,CHAVA,07,32,VA,US,HUB,0,0
2290,CRUVA,07,32,VA,US,CPX,0,0
2290,PHEVA,07,32,VA,US,CPX,0,0
2302,RCMVA,07,32,VA,US,PKG,0,0
2309,RICAS,07,32,VA,US,APT,0,0
2329,ADIVA,07,32,VA,US,CPX,0,0
2329,BRAVA,07,32,VA,US,XPT,0,0
2329,C24CE,07,32,VA,US,BTL,0,0
2329,CHRVA,07,32,VA,US,XPT,0,0
2329,DTRVA,07,32,VA,US,CPX,0,0
2329,EMEVA,07,32,VA,US,CPX,0,0
2329,GRBVA,07,32,VA,US,CPX,0,0
2329,GRCVA,07,32,VA,US,CPX,0,0
2329,GWEVA,07,32,VA,US,CPX,0,0
2329,LUTVA,07,32,VA,US,CPX,0,0
2329,MCKVA,07,32,VA,US,XPT,0,0
2329,MOSVA,07,32,VA,US,CPX,0,0
2329,NDSVA,07,32,VA,US,CPX,0,0
2329,PTSVA,07,32,VA,US,XPT,0,0
2329,RICVA,07,32,VA,US,HUB,0,0
2329,RTGVA,07,32,VA,US,XPT,0,0
2329,RTRVA,07,32,VA,US,CPX,0,0
2329,SERVA,07,32,VA,US,XPT,0,0
2329,VABVA,07,32,VA,US,CPX,0,0
2329,VITVA,07,32,VA,US,CPX,0,0
2329,VLOVA,07,32,VA,US,CPX,0,0
2329,WDMVA,07,32,VA,US,CPX,0,0
2340,SUFVA,07,32,VA,US,PKG,0,0
2349,QVCVA,07,32,VA,US,CPX,0,0
2349,SAFVA,07,32,VA,US,CPX,0,0
2349,SRYVA,07,32,VA,US,RRY,0,0
2349,VIRVA,07,32,VA,US,HUB,0,0
2350,NORVA,07,32,VA,US,PKG,1,1
2369,NNEVA,07,32,VA,US,HUB,0,0
2369,RBGVA,07,32,VA,US,CPX,0,0
2384,RIC2 ,07,32,VA,US,CSL,0,0
2385,RIC1 ,07,32,VA,US,CSL,0,0
2394,KEYVA,07,32,VA,US,PKG,1,1
2409,BCCVA,07,32,VA,US,CPX,0,0
2409,BROVA,07,32,VA,US,XPT,0,0
2409,GDIVA,07,32,VA,US,CPX,0,0
2409,GSIVA,07,32,VA,US,CPX,0,0
2409,ICRVA,07,32,VA,US,CPX,0,0
2409,LTPVA,07,32,VA,US,XPT,0,0
2409,OCPVA,07,32,VA,US,CPX,0,0
2409,ROAVA,07,32,VA,US,HUB,0,0
2419,ROAAS,07,32,VA,US,APT,0,0
2429,BRIVA,07,44,VA,US,HUB,0,1
2429,DBOTN,07,44,TN,US,XPT,0,1
2429,DCRTN,07,44,TN,US,XPT,0,1
2430,DUBVA,07,32,VA,US,PKG,1,1
2430,GIVVA,07,32,VA,US,CPX,0,0
2434,GSCVA,07,32,VA,US,CSL,0,0
243EB,243EB,07,32,VA,US,CSL,0,0
2449,STUVA,07,32,VA,US,HUB,0,0
2450,LYNVA,07,32,VA,US,PKG,0,1
2451,DANVA,07,32,VA,US,PKG,0,0
2460,RCLVA,07,32,VA,US,PKG,0,0
2470,BLUWV,07,32,WV,US,PKG,1,1
2499,LEWWV,07,32,WV,US,HUB,1,1
2519,CRWAS,07,32,WV,US,APT,0,0
2539,CHAWV,07,32,WV,US,HUB,0,1
2539,CPKWV,07,32,WV,US,XPT,0,1
2539,GMFWV,07,32,WV,US,XPT,0,1
2539,GOMWV,07,32,WV,US,XPT,0,1
2539,HPAWV,07,32,WV,US,XPT,0,1
2543,MCYWV,07,33,WV,US,CSL,0,0
2560,LOGWV,07,32,WV,US,PKG,1,1
2570,25HC ,07,32,WV,US,XPT,0,0
2570,HUNWV,07,32,WV,US,PKG,0,0
2580,BECWV,07,32,WV,US,PKG,1,1
2580,REDWV,07,32,WV,US,XPT,0,0
2589,BKWAS,07,32,WV,US,APT,0,0
2600,CAPWV,07,32,WV,US,XPT,0,0
2600,WHEWV,07,32,WV,US,PKG,1,1
2610,PARWV,07,32,WV,US,PKG,1,1
2620,ELKWV,07,32,WV,US,PKG,1,1
2632,CLAWV,07,32,WV,US,PKG,1,1
2632,MERWV,07,32,WV,US,CPX,0,0
2650,FAIWV,07,32,WV,US,PKG,1,1
2650,JLEWV,07,32,WV,US,XPT,0,1
2650,KTTWV,07,32,WV,US,XPT,0,1
2711,2712 ,07,45,NC,US,CSL,0,0
2711,BBTNC,07,45,NC,US,CPX,0,0
2711,LHANC,07,45,NC,US,CPX,0,0
2711,WSANC,07,45,NC,US,HUB,0,0
2719,GSOAS,07,45,NC,US,APT,0,0
2721,HPONC,07,45,NC,US,PKG,1,1
2721,RLHNC,07,45,NC,US,CPX,0,0
2721,WFTNC,07,45,NC,US,CPX,0,0
2749,ADVNC,07,45,NC,US,CPX,0,0
2749,AMPNC,07,45,NC,US,CPX,0,0
2749,C26BL,07,45,NC,US,BTL,0,0
2749,C2749,07,45,NC,US,BTL,0,0
2749,CCHNC,07,45,NC,US,CPX,0,0
2749,CDENC,07,45,NC,US,CPX,0,0
2749,CEMNC,07,45,NC,US,CPX,0,0
2749,COLNC,07,45,NC,US,CPX,0,0
2749,FLANC,07,45,NC,US,CPX,0,0
2749,FRENC,07,45,NC,US,CPX,0,0
2749,GIENC,07,45,NC,US,CPX,0,0
2749,GRCNC,07,45,NC,US,CPX,0,0
2749,GRENC,07,45,NC,US,HUB,0,0
2749,HMLNC,07,45,NC,US,CPX,0,0
2749,JRTNC,07,45,NC,US,CPX,0,0
2749,LNONC,07,45,NC,US,CPX,0,0
2749,LPONC,07,45,NC,US,CPX,0,0
2749,MOTNC,07,45,NC,US,CPX,0,0
2749,SRYNC,07,45,NC,US,RRY,0,0
2749,SSONC,07,45,NC,US,CPX,0,0
2749,TOVNC,07,45,NC,US,CPX,0,0
2749,TRINC,07,45,NC,US,CPX,0,0
2749,WFUNC,07,45,NC,US,CPX,0,0
2751,MORNC,07,45,NC,US,PKG,1,1
2754,CHINC,07,45,NC,US,PKG,0,0
2754,EVENC,07,45,NC,US,CPX,0,0
2754,PERNC,07,45,NC,US,CPX,0,0
2760,2760,07,45,NC,US,PKG,0,0
2769,RALNC,07,45,NC,US,HUB,0,0
2769,RNTNC,07,45,NC,US,XPT,0,0
2769,SCGNC,07,45,NC,US,CPX,0,0
2770,DURNC,07,45,NC,US,PKG,0,0
2779,RDUAS,07,45,NC,US,APT,0,0
2780,PHMNC,07,45,NC,US,XPT,0,0
2780,ROCNC,07,45,NC,US,PKG,0,0
2781,GRNNC,07,45,NC,US,PKG,1,1
2782,BECNC,07,45,NC,US,CPX,0,0
2782,GOLNC,07,45,NC,US,PKG,1,1
2790,EDENC,07,45,NC,US,PKG,1,1
2797,MANNC,07,45,NC,US,PKG,1,1
2801,2808 ,07,45,NC,US,CSL,0,0
2801,C25BM,07,45,NC,US,BTL,0,0
2801,KANNC,07,45,NC,US,PKG,1,1
2801,PTCNC,07,45,NC,US,XPT,0,0
2802,GASNC,07,45,NC,US,PKG,0,0
2810,SHLNC,07,45,NC,US,PKG,0,0
2811,MONNC,07,45,NC,US,PKG,1,1
2814,BTSNC,07,45,NC,US,XPT,0,0
2814,SALNC,07,45,NC,US,PKG,1,1
2825,ONENC,07,45,NC,US,PKG,0,0
2829,AMZNC,07,45,NC,US,CPX,0,0
2829,CAUNC,07,45,NC,US,CPX,0,0
2829,CAWNC,07,45,NC,US,CPX,0,0
2829,CHANC,07,45,NC,US,HUB,0,0
2829,CTSNC,07,45,NC,US,CPX,0,0
2829,ERPNC,07,45,NC,US,CPX,0,0
2829,MCONC,07,45,NC,US,CPX,0,0
2829,NCNTO,07,45,NC,US,CSL,0,0
2829,NHYNC,07,45,NC,US,CPX,0,0
2829,NPANC,07,45,NC,US,CPX,0,0
2829,PPONC,07,45,NC,US,CPX,0,0
2829,RPLNC,07,45,NC,US,CSL,0,0
2829,STPNC,07,45,NC,US,CPX,0,0
2830,CAPNC,07,45,NC,US,CPX,0,0
2830,FAYNC,07,45,NC,US,PKG,1,1
2832,283HT,07,45,NC,US,CSL,0,0
2832,SOUNC,07,45,NC,US,PKG,0,0
2834,LUMNC,07,45,NC,US,PKG,1,1
2839,CLTAS,07,45,NC,US,APT,0,0
283AM,CLT3 ,07,45,NC,US,CSL,0,0
2840,WILNC,07,45,NC,US,PKG,0,0
2850,KINNC,07,45,NC,US,PKG,1,1
2850,WARNC,07,45,NC,US,XPT,0,0
2851,JACNC,07,45,NC,US,PKG,1,1
2855,BOSNC,07,45,NC,US,CPX,0,0
2855,HAVNC,07,45,NC,US,PKG,1,1
2860,HICNC,07,45,NC,US,PKG,0,0
2861,WLKNC,07,45,NC,US,PKG,1,1
2862,BSPNC,07,45,NC,US,CPX,0,0
2862,PILNC,07,45,NC,US,XPT,0,0
2862,STVNC,07,45,NC,US,PKG,0,0
2864,LENNC,07,45,NC,US,PKG,1,1
2864,MALNC,07,45,NC,US,CPX,0,0
2870,ASHEV,07,45,NC,US,PKG,0,0
2870,ELENC,07,45,NC,US,CPX,0,0
2870,PUNNC,07,45,NC,US,CPX,0,0
2874,HENNC,07,45,NC,US,PKG,1,1
2890,SYLNC,07,45,NC,US,PKG,1,1
2891,FRANC,07,45,NC,US,PKG,1,1
290AM,XUSU ,07,45,SC,US,CSL,0,0
2910,ORANG,07,45,SC,US,PKG,1,1
2911,SUMTE,07,45,SC,US,PKG,1,1
2911,TARSC,07,45,SC,US,CPX,0,0
2919,BOWSC,07,45,SC,US,XPT,0,0
2919,CAHSC,07,45,SC,US,HUB,0,0
2919,DORNC,07,45,NC,US,XPT,0,0
2919,PALSC,07,45,SC,US,CPX,0,0
2919,PDCSC,07,45,SC,US,CPX,0,0
2919,TIMSC,07,45,SC,US,XPT,0,0
2919,WALSC,07,45,SC,US,XPT,0,0
2929,COLSC,07,45,SC,US,HUB,0,0
2939,EATSC,07,45,SC,US,CPX,0,0
2939,NWKSC,07,45,SC,US,CSL,0,0
2939,SPART,07,45,SC,US,HUB,0,0
2940,CHASC,07,45,SC,US,PKG,1,1
2940,CMOSC,07,45,SC,US,CPX,0,0
2941,SHISC,07,45,SC,US,CPX,0,0
2941,SUMSC,07,45,SC,US,PKG,0,0
2941,ZINSC,07,45,SC,US,CPX,0,0
2943,PMESC,07,45,SC,US,PKG,0,0
2944,CAE1 ,07,45,SC,US,CSL,0,0
2950,FLOSC,07,45,SC,US,PKG,0,0
2951,MYRB,07,45,SC,US,PKG,0,0
2960,GRNSC,07,45,SC,US,PKG,0,0
2961,ANDSC,07,45,SC,US,PKG,1,1
2963,GRESC,07,45,SC,US,PKG,1,1
2963,SHUSC,07,45,SC,US,CPX,0,0
2967,GRRSC,07,45,SC,US,CSL,0,0
2969,GSPAS,07,45,SC,US,APT,0,0
2970,ROCSC,07,45,SC,US,PKG,1,1
2970,UQLSC,07,45,NC,US,CPX,0,0
2971,LANSC,07,45,SC,US,PKG,1,1
2979,CAEAS,07,45,SC,US,APT,0,0
297MK,297MK,07,45,SC,US,CSL,0,0
2980,AIKEN,07,45,SC,US,PKG,1,1
2980,ARGSC,07,45,SC,US,CPX,0,0
2990,PARSC,07,45,SC,US,PKG,1,1
2992,HHESC,07,45,SC,US,PKG,1,1
2998,GSP1 ,07,45,SC,US,CSL,0,0
3009,30CCY,07,45,GA,US,BTL,0,0
3009,36CCY,07,45,GA,US,BTL,0,0
3009,ADEGA,07,45,GA,US,CPX,0,0
3009,AMEGA,07,45,GA,US,CPX,0,0
3009,ANTGA,07,45,GA,US,CPX,0,0
3009,ETSGA,07,45,GA,US,XPT,0,0
3009,INMRR,07,45,GA,US,RRY,0,0
3009,MCKGA,07,45,GA,US,CPX,0,0
3009,MESGA,07,45,GA,US,CPX,0,0
3009,MKAGA,07,45,GA,US,CPX,0,0
3009,MUSGA,07,45,GA,US,CPX,0,0
3009,NVIGA,07,45,GA,US,CPX,0,0
3009,PLEGA,07,45,GA,US,HUB,0,0
3009,RTCGA,07,45,GA,US,CPX,0,0
3009,WGIGA,07,45,GA,US,CPX,0,0
3009,YOPGA,07,45,GA,US,CPX,0,0
3010,ROMGA,07,45,GA,US,PKG,1,1
3010,SHOGA,07,45,GA,US,CPX,0,0
3012,ACWGA,07,45,GA,US,PKG,0,0
3012,ERBGA,07,45,GA,US,CPX,0,0
3019,ROSGA,07,45,GA,US,HUB,0,0
3020,GRIGA,07,45,GA,US,PKG,1,1
3022,CARGA,07,45,GA,US,PKG,1,1
3025,LGRGA,07,45,GA,US,PKG,0,0
3026,ACSGA,07,45,GA,US,CPX,0,0
3026,FAYGA,07,45,GA,US,PKG,0,0
3029,ATLAP,07,45,GA,US,HUB,0,0
3036,ARIGA,07,45,GA,US,HUB,0,0
3039,39CCY,07,45,GA,US,BTL,0,0
3039,ATLGA,07,45,GA,US,HUB,0,0
3039,AUSGA,07,45,GA,US,RRY,0,0
3039,C31GW,07,45,GA,US,BTL,0,0
3039,C32QO,07,45,GA,US,BTL,0,0
3039,GRBGA,07,45,GA,US,CPX,0,0
3039,RROGA,07,45,GA,US,XPT,0,0
3039,SUBGA,07,45,GA,US,CPX,0,0
3040,BBYGA,07,45,GA,US,CPX,0,0
3040,SWNGA,07,45,GA,US,PKG,0,0
3040,TUMGA,07,45,GA,US,CPX,0,0
3045,ROTGA,07,45,GA,US,CPX,0,0
3045,STAGA,07,45,GA,US,PKG,0,0
3050,GAIGA,07,45,GA,US,PKG,0,0
3050,OFFGA,07,45,GA,US,CSL,0,0
3052,CRNGA,07,45,GA,US,PKG,1,1
3059,C34CC,07,45,GA,US,BTL,0,0
3059,C39DE,07,45,GA,US,BTL,0,0
3059,FPAGA,07,45,GA,US,HUB,0,0
3059,LUXGA,07,45,GA,US,CPX,0,0
3059,LXMGA,07,45,GA,US,CPX,0,0
305H,HDEGA,07,45,GA,US,CSL,0,0
3060,ATHGA,07,45,GA,US,PKG,0,0
3060,FBIGA,07,45,GA,US,CPX,0,0
3070,BALGA,07,45,GA,US,CPX,0,0
3070,DALGA,07,45,GA,US,PKG,0,0
3082,WARGA,07,45,GA,US,PKG,0,0
3090,ASPGA,07,45,GA,US,CPX,0,0
3090,AUGGA,07,45,GA,US,PKG,0,0
3090,ECLGA,07,45,GA,US,CPX,0,0
3090,EVEGA,07,45,GA,US,CPX,0,0
3090,NURGA,07,45,GA,US,CPX,0,0
3100,UNAGA,07,45,GA,US,PKG,0,0
3120,HESGA,07,45,GA,US,XPT,0,0
3120,KOHGA,07,45,GA,US,CPX,0,0
3120,MACGA,07,45,GA,US,PKG,0,0
3140,DORGA,07,45,GA,US,CPX,0,0
3140,SAFGA,07,45,GA,US,CPX,0,0
3140,SAHGA,07,45,GA,US,CPX,0,0
3140,SAVGA,07,45,GA,US,PKG,0,0
3140,TRAGA,07,45,GA,US,CPX,0,0
3148,SPDGA,07,45,GA,US,HUB,0,0
3150,MSLGA,07,45,GA,US,CPX,0,0
3150,WAYGA,07,45,GA,US,PKG,0,0
3151,BRUGA,07,45,GA,US,PKG,0,0
3151,BTSGA,07,45,GA,US,XPT,0,0
3160,FCTGA,07,45,GA,US,XPT,0,0
3160,VALGA,07,45,GA,US,PKG,0,0
3172,CAIGA,07,45,GA,US,PKG,0,0
3176,ALBGA,07,45,GA,US,PKG,0,0
3176,C36MC,07,45,GA,US,BTL,0,0
3176,WBSGA,07,45,GA,US,CPX,0,0
3179,TIFGA,07,45,GA,US,HUB,0,0
3189,ABYAS,07,45,GA,US,APT,0,0
3190,CLMGA,07,45,GA,US,PKG,0,0
3200,338WM,07,40,FL,US,CSL,0,0
3200,LCIFL,07,40,FL,US,PKG,0,0
3200,LOAFL,07,40,FL,US,XPT,0,0
3200,SR6FL,07,40,FL,US,XPT,0,0
3202,DAYFL,07,40,FL,US,PKG,0,0
3202,PACFL,07,40,FL,US,XPT,0,0
3203,SAUFL,07,40,FL,US,PKG,1,1
3209,LANFL,07,40,FL,US,HUB,0,0
3219,JAXAS,07,40,FL,US,APT,0,0
3228,RCHFL,07,40,FL,US,HUB,0,0
3229,ATLFL,07,40,FL,US,CPX,0,0
3229,BDEFL,07,40,FL,US,CPX,0,0
3229,BGBFL,07,40,FL,US,XPT,0,0
3229,BRFFL,07,40,FL,US,CPX,0,0
3229,BRNFL,07,40,FL,US,CPX,0,0
3229,C3229,07,40,FL,US,BTL,0,0
3229,C33GD,07,40,FL,US,BTL,0,0
3229,C3BCC,07,40,FL,US,BTL,0,0
3229,CRDGA,07,45,GA,US,XPT,0,0
3229,CSXFL,07,40,FL,US,RRY,0,0
3229,FECFL,07,40,FL,US,RRY,0,0
3229,FLJFL,07,40,FL,US,XPT,0,0
3229,FSOFL,07,40,FL,US,CPX,0,0
3229,FTJFL,07,40,FL,US,CPX,0,0
3229,GARFL,07,40,FL,US,CPX,0,0
3229,HSHFL,07,40,FL,US,CPX,0,0
3229,JACFL,07,40,FL,US,HUB,0,0
3229,MYDFL,07,40,FL,US,CPX,0,0
3229,NPMFL,07,40,FL,US,CPX,0,0
3229,PDCFL,07,40,FL,US,CPX,0,0
3229,PPCFL,07,40,FL,US,CPX,0,0
3229,REVFL,07,40,FL,US,CPX,0,0
3229,ROCFL,07,40,FL,US,CPX,0,0
3229,SAMFL,07,40,FL,US,CPX,0,0
3229,SANFL,07,40,FL,US,CPX,0,0
3229,SASFL,07,40,FL,US,CPX,0,0
3229,SOLFL,07,40,FL,US,CPX,0,0
3229,SOUFL,07,40,FL,US,RRY,0,0
3229,SSIFL,07,40,FL,US,CPX,0,0
3229,TAPFL,07,40,FL,US,CPX,0,0
3229,TUCFL,07,40,FL,US,CPX,0,0
3229,VENFL,07,40,FL,US,CPX,0,0
3229,VISFL,07,40,FL,US,CPX,0,0
3229,WPPFL,07,40,FL,US,CPX,0,0
3229,XOMFL,07,40,FL,US,CPX,0,0
3229,YACFL,07,40,FL,US,CPX,0,0
322AM,JAX2 ,07,40,FL,US,CSL,0,0
3230,RPRFL,07,40,FL,US,CPX,0,0
3230,TEAFL,07,40,FL,US,PKG,0,0
323AM,JAX3 ,07,40,FL,US,CSL,0,0
3240,PANFL,07,44,FL,US,PKG,0,0
3241,CHIFL,07,44,FL,US,PKG,0,0
3241,DSPFL,07,44,FL,US,XPT,0,0
3250,ABBFL,07,44,FL,US,CPX,0,0
3250,PENFL,07,44,FL,US,PKG,0,0
3251,FTWFL,07,44,FL,US,PKG,0,0
3257,COAFL,07,40,FL,US,CSL,0,0
3259,PCAAS,07,44,FL,US,APT,0,0
3260,GWEFL,07,40,FL,US,PKG,0,0
3261,OCAFL,07,40,FL,US,PKG,0,0
3269,BOGFL,07,40,FL,US,HUB,0,0
3270,LONGW,07,40,FL,US,PKG,1,1
3271,LEESB,07,40,FL,US,PKG,1,1
3289,CHRFL,07,40,FL,US,CPX,0,0
3289,E70FL,07,40,FL,US,XPT,0,0
3289,LOVFL,07,40,FL,US,XPT,0,0
3289,MFSFL,07,40,FL,US,CPX,0,0
3289,ORLFL,07,40,FL,US,HUB,0,0
3289,TFCFL,07,40,FL,US,RRY,0,0
328AM,XUSF ,07,40,FL,US,CSL,0,0
3290,COCOA,07,40,FL,US,PKG,1,1
3291,MLBRN,07,40,FL,US,PKG,1,1
3291,PBAFL,07,40,FL,US,XPT,0,0
3296,VBEFL,07,40,FL,US,PKG,0,0
3299,MCOAS,07,40,FL,US,APT,0,0
3300,ISLFL,07,40,FL,US,PKG,1,1
3302,HOLFL,07,40,FL,US,PKG,1,1
3303,KWEFL,07,40,FL,US,PKG,1,1
3306,C36SS,07,40,FL,US,BTL,0,0
3306,MCEFL,07,40,FL,US,PKG,0,0
3306,MIZFL,07,40,FL,US,RRY,0,0
3306,OFDFL,07,40,FL,US,CPX,0,0
3309,BSTFL,07,40,FL,US,CPX,0,0
3309,CATFL,07,40,FL,US,CPX,0,0
3309,COTFL,07,40,FL,US,CPX,0,0
3309,EDWFL,07,40,FL,US,CPX,0,0
3309,FRAFL,07,40,FL,US,CPX,0,0
3309,FTLFL,07,40,FL,US,CPX,0,0
3309,GDMFL,07,40,FL,US,CPX,0,0
3309,GLAFL,07,40,FL,US,XPT,0,0
3309,HIAFL,07,40,FL,US,HUB,0,0
3309,IHOFL,07,40,FL,US,CPX,0,0
3309,SRCFL,07,40,FL,US,CPX,0,0
3309,TARFL,07,40,FL,US,CPX,0,0
3309,UNTFL,07,40,FL,US,CPX,0,0
3309,ZOOFL,07,40,FL,US,CPX,0,0
3311,HSDFL,07,40,FL,US,PKG,0,0
3326,DERFL,07,40,FL,US,PKG,0,0
3330,FDPFL,07,40,FL,US,XPT,0,0
3330,FLZFL,07,40,FL,US,RRY,0,0
3330,FTLAU,07,40,FL,US,PKG,0,0
3333,POCFL,07,40,FL,US,PKG,0,0
3340,JUPFL,07,40,FL,US,XPT,0,0
3340,WPBFL,07,40,FL,US,PKG,0,0
3343,STUFL,07,40,FL,US,PKG,0,0
3350,SARA,07,40,FL,US,PKG,1,1
3351,PHAFL,07,40,FL,US,PKG,0,0
3352,BRDEN,07,40,FL,US,PKG,1,1
3355,PTRCH,07,40,FL,US,PKG,0,0
3357,BROFL,07,40,FL,US,PKG,1,1
335AM,TPA1 ,07,40,FL,US,CSL,0,0
3363,BAYFL,07,40,FL,US,PKG,0,0
3367,TPAAP,07,40,FL,US,APT,0,0
3369,C39CB,07,40,FL,US,BTL,0,1
3369,TAMFL,07,40,FL,US,HUB,0,1
3369,TMPFL,07,40,FL,US,RRY,0,1
3379,PINFL,07,40,FL,US,HUB,0,0
3380,338FE,07,40,FL,US,CPX,0,0
3380,LAKFL,07,40,FL,US,PKG,0,0
3380,LTYFL,07,40,FL,US,XPT,0,0
3380,WALFL,07,40,FL,US,CPX,0,0
3385,BCIFL,07,40,FL,US,XPT,0,0
3385,LWAFL,07,40,FL,US,PKG,1,1
338AM,TPA2 ,07,40,FL,US,CSL,0,0
3390,3390,07,40,FL,US,PKG,0,0
3394,341MC,07,40,FL,US,XPT,0,0
3394,NAPFL,07,40,FL,US,PKG,0,0
3491,FPIFL,07,40,FL,US,PKG,1,1
3500,GOOAL,07,44,AL,US,PKG,0,0
3509,BIRAL,07,44,AL,US,HUB,0,0
3529,BASAL,07,44,AL,US,APT,0,0
3539,ROEAL,07,44,AL,US,HUB,0,0
3540,TATAL,07,44,AL,US,XPT,0,0
3540,TSCAL,07,44,AL,US,XPT,0,0
3540,TUSAL,07,44,AL,US,PKG,0,0
3550,CHIAL,07,44,AL,US,XPT,0,0
3550,WINAL,07,44,AL,US,PKG,0,0
3560,FLOAL,07,44,AL,US,PKG,0,0
3561,HARAL,07,44,AL,US,PKG,0,0
3562,DECAL,07,44,AL,US,PKG,0,0
3570,HUNAL,07,44,AL,US,PKG,0,0
3571,FTPAL,07,44,AL,US,PKG,0,0
3579,HSVAS,07,44,AL,US,APT,0,0
3588,3588 ,07,44,AL,US,CSL,0,0
3590,GADAL,07,44,AL,US,PKG,0,0
3609,BHOAL,07,44,AL,US,CPX,0,0
3609,C31WF,07,44,AL,US,BTL,0,0
3609,C35CC,07,44,TN,US,BTL,0,0
3609,CTLFL,07,44,FL,US,CPX,0,0
3609,MONAL,07,44,AL,US,HUB,0,0
3609,TPMAL,07,44,AL,US,CPX,0,0
3620,ANNAL,07,44,AL,US,PKG,0,0
3620,SFCAL,07,44,AL,US,XPT,0,0
3630,DOTAL,07,44,AL,US,PKG,0,0
3631,ENTAL,07,44,AL,US,PKG,0,0
3640,E54AL,07,44,AL,US,XPT,0,0
3640,EVEAL,07,44,AL,US,PKG,0,0
3640,OWAAL,07,44,AL,US,XPT,0,0
3650,LOXAL,07,44,AL,US,PKG,0,0
3660,MOBAL,07,44,AL,US,PKG,0,0
3680,OPEAL,07,44,AL,US,PKG,0,0
3690,TGSAL,07,44,AL,US,XPT,0,0
3690,THOAL,07,44,AL,US,PKG,0,0
3701,FRATN,07,44,TN,US,PKG,0,0
3702,CLARK,07,44,TN,US,PKG,0,0
3704,DICTN,07,44,TN,US,PKG,0,0
3704,PTRTN,07,44,TN,US,XPT,0,0
3710,TTSTN,07,44,TN,US,XPT,0,0
3710,TULTN,07,44,TN,US,PKG,1,1
3711,FWITN,07,44,TN,US,XPT,0,0
3711,MURTN,07,44,TN,US,PKG,1,1
3719,38ND ,07,44,TN,US,XPT,0,0
3719,38NM ,07,44,TN,US,XPT,0,0
3719,ACETN,07,44,TN,US,CPX,0,0
3719,AHPTN,07,44,TN,US,CPX,0,0
3719,AOHTN,07,44,TN,US,CPX,0,0
3719,APCTN,07,44,TN,US,CPX,0,0
3719,ASUTN,07,44,TN,US,CPX,0,0
3719,C32DD,07,44,TN,US,BTL,0,0
3719,CNITN,07,44,TN,US,CPX,0,0
3719,CVSTN,07,44,TN,US,CPX,0,0
3719,DNMTN,07,44,TN,US,CPX,0,0
3719,MDCTN,07,44,TN,US,CPX,0,0
3719,MMDTN,07,44,TN,US,CPX,0,0
3719,NDETN,07,44,TN,US,CPX,0,0
3719,PEYTN,07,44,TN,US,XPT,0,0
3719,ROATN,07,44,TN,US,CPX,0,0
3719,SWGTN,07,44,TN,US,CPX,0,0
3719,VPHTN,07,44,TN,US,CPX,0,0
3719,WHITN,07,44,TN,US,HUB,0,0
3719,WTSTN,07,44,TN,US,XPT,0,0
3729,3CCCY,07,44,TN,US,BTL,0,0
3729,3DCCY,07,44,TN,US,BTL,0,0
3729,C36AT,07,44,TN,US,BTL,0,0
3729,NASTN,07,44,TN,US,HUB,1,1
3730,ATHTN,07,44,TN,US,PKG,1,1
3731,CLETN,07,44,TN,US,PKG,0,0
3739,LAVTN,07,44,TN,US,HUB,0,0
3746,CHA1 ,07,44,TN,US,CSL,0,0
3749,C36UW,07,44,TN,US,BTL,0,0
3749,CHATN,07,44,TN,US,HUB,0,0
3749,FILTN,07,44,TN,US,CPX,0,0
3749,KCRTN,07,44,TN,US,CPX,0,0
3762,JHNTN,07,44,TN,US,PKG,1,1
3780,MORTN,07,44,TN,US,PKG,1,1
3782,OLITN,07,44,TN,US,PKG,1,1
3783,MARTN,07,44,TN,US,PKG,1,1
3789,TYSAS,07,44,TN,US,APT,0,0
3793,CHA2 ,07,44,TN,US,CSL,0,0
3799,AAPTN,07,44,TN,US,CPX,0,0
3799,ALTTN,07,44,TN,US,CPX,0,0
3799,BBGTN,07,44,TN,US,CPX,0,0
3799,BCTTN,07,44,TN,US,XPT,0,0
3799,DAPTN,07,44,TN,US,CPX,0,0
3799,DDKTN,07,44,TN,US,XPT,0,0
3799,ENGTN,07,44,TN,US,CPX,0,0
3799,GSKTN,07,44,TN,US,CPX,0,0
3799,HTSTN,07,44,TN,US,XPT,0,0
3799,KAATN,07,44,TN,US,CPX,0,0
3799,KNOTN,07,44,TN,US,HUB,0,0
3799,LTSTN,07,45,TN,US,XPT,0,0
3799,NEPTN,07,44,TN,US,XPT,0,0
3799,PTSTN,07,44,TN,US,XPT,0,0
3799,PTUTN,07,44,TN,US,XPT,0,0
3799,RECTN,07,44,TN,US,CPX,0,0
3799,RSTTN,07,44,TN,US,CPX,0,0
3799,RVATN,07,44,TN,US,XPT,0,0
3799,UNDGA,07,44,TN,US,XPT,0,0
3799,WHOTN,07,44,TN,US,XPT,0,0
3799,WPITN,07,44,TN,US,XPT,0,0
3800,DYERS,07,44,TN,US,PKG,1,1
3801,SELMR,07,44,TN,US,PKG,1,1
3809,BARTN,07,44,TN,US,HUB,0,0
3819,AFCTN,07,44,TN,US,CPX,0,0
3819,CABMO,07,44,TN,US,XPT,0,0
3819,CHAMO,07,44,TN,US,XPT,0,0
3819,ICGTN,07,44,TN,US,RRY,0,0
3819,KOMTN,07,44,TN,US,CPX,0,0
3819,MEMTN,07,44,TN,US,HUB,0,0
3819,MRITN,07,44,TN,US,RRY,0,0
3819,UPRTN,07,44,AR,US,RRY,0,0
3820,PARIS,07,44,TN,US,PKG,1,1
3830,DLTTN,07,44,TN,US,CPX,0,0
3830,JACTN,07,44,TN,US,PKG,0,0
3830,SBBTN,07,44,TN,US,XPT,0,0
3831,TRENT,07,44,TN,US,PKG,1,1
3840,LAWTN,07,44,TN,US,PKG,1,1
3841,COLMB,07,44,TN,US,PKG,1,1
3849,3852 ,07,44,TN,US,CSL,0,0
3849,CRSTN,07,44,TN,US,XPT,0,0
3849,DVMTN,07,44,TN,US,CPX,0,0
3849,FULMS,03,55,AR,US,XPT,0,0
3849,OAKTN,07,44,TN,US,HUB,0,0
3849,SSWTN,07,44,TN,US,CPX,0,0
3849,WWGMS,07,44,MS,US,CPX,0,0
3850,COOTN,07,44,TN,US,PKG,1,1
3854,SPATN,07,44,TN,US,PKG,1,1
3860,BATMS,07,44,MS,US,PKG,1,1
3861,HERMS,07,44,MS,US,PKG,1,1
3870,GREMS,07,44,MS,US,PKG,1,1
3880,TUPMS,07,44,MS,US,PKG,0,0
3881,BOOMS,07,44,MS,US,PKG,0,0
3890,GRNMS,07,44,MS,US,PKG,1,1
3895,BNA2 ,07,44,TN,US,CSL,0,0
3896,BNA3 ,07,44,TN,US,CSL,0,0
3900,KOSMS,07,44,MS,US,PKG,1,1
3909,JANAS,07,44,MS,US,APT,0,0
3910,NATMS,07,44,MS,US,PKG,1,1
3911,VICMS,07,44,MS,US,PKG,0,0
3929,C32CC,07,44,MS,US,BTL,0,0
3929,COLMS,07,44,MS,US,XPT,0,0
3929,CTPLA,07,44,LA,US,XPT,0,0
3929,GSOMS,07,44,MS,US,CPX,0,0
3929,ICEMS,07,44,MS,US,RRY,0,0
3929,JACMS,07,44,MS,US,HUB,0,0
3929,RTRLA,07,44,LA,US,XPT,0,0
3929,SMFMS,07,44,MS,US,CPX,0,0
3929,VTRLA,07,44,LA,US,XPT,0,0
3930,MERMS,07,44,MS,US,PKG,1,1
3930,TOOMS,07,44,MS,US,XPT,0,0
3940,HATMS,07,44,MS,US,PKG,1,1
3941,LAUMS,07,44,MS,US,PKG,1,1
3950,GULMS,07,44,MS,US,PKG,0,0
3951,PASMS,07,44,MS,US,PKG,1,1
3961,MCCMS,07,44,MS,US,PKG,1,1
3970,CLUMS,07,44,MS,US,PKG,1,1
3970,GENMS,07,44,MS,US,CPX,0,1
4004,SPDKY,07,49,KY,US,CSL,0,0
4009,BBUKY,07,49,KY,US,CPX,0,0
4009,DRAKY,07,49,KY,US,CPX,0,0
4009,KFLKY,07,49,KY,US,CPX,0,0
4009,KMIKY,07,49,KY,US,CPX,0,0
4009,MEDKY,07,49,KY,US,CPX,0,0
4009,ONPKY,07,49,KY,US,CPX,0,0
4009,SDFAS,22,65,KY,US,HUB,0,0
401AM,SDF9 ,07,49,KY,US,CSL,0,0
4022,BLUKY,07,49,KY,US,PKG,1,1
4022,MMKKY,07,49,KY,US,CPX,0,1
4025,AMNKY,07,49,KY,US,CPU,0,0
4029,4010 ,07,49,KY,US,CSL,0,0
4029,AD3KY,07,49,KY,US,CPX,0,0
4029,AM8KY,07,49,IN,US,CPX,0,0
4029,AMGKY,07,49,KY,US,CPX,0,0
4029,BRAKY,07,49,KY,US,CPX,0,0
4029,DCRKY,07,49,KY,US,CPX,0,0
4029,ICPKY,07,49,KY,US,CPX,0,0
4029,LCHKY,07,49,KY,US,HUB,0,0
4029,LOTKY,07,49,KY,US,CPX,0,0
4029,MAPKY,07,49,KY,US,CPX,0,0
4029,MSSKY,07,49,KY,US,CPX,0,0
4029,OAMKY,07,49,KY,US,CPX,0,0
4029,OL1KY,07,49,KY,US,CPX,0,0
4029,OL5KY,07,49,KY,US,CPX,0,0
4029,ORRKY,07,49,KY,US,CPX,0,0
4029,OTTKY,07,49,KY,US,CPX,0,0
4029,PCEKY,07,49,KY,US,XPT,0,0
4029,PKRKY,07,49,KY,US,CPX,0,0
4029,PSSKY,07,49,KY,US,CPX,0,0
4029,QIAKY,07,49,KY,US,CPX,0,0
4029,SLIKY,07,49,KY,US,XPT,0,0
4029,TENKY,07,49,KY,US,CPX,0,0
4029,WSEKY,07,49,KY,US,CPX,0,0
4029,ZAPKY,07,49,KY,US,CPX,0,0
4029,ZPDKY,07,49,KY,US,CPX,0,0
4030,STAKY,07,49,KY,US,PKG,0,0
4047,4088 ,07,49,KY,US,CSL,0,0
4047,DANKY,07,49,KY,US,PKG,1,1
4047,TIMKY,07,49,KY,US,CPX,0,0
4053,LEX1 ,07,49,KY,US,CSL,0,0
4059,AGRKY,07,49,KY,US,CPX,0,0
4059,BUTKY,07,49,KY,US,CPX,0,0
4059,LEXKY,07,49,KY,US,HUB,0,0
4059,PANKY,07,49,KY,US,CPX,0,0
4059,SCNKY,07,49,KY,US,CPX,0,0
4059,TTOKY,07,49,KY,US,CPX,0,0
4059,WILKY,07,49,KY,US,XPT,0,0
4069,FORKY,07,49,KY,US,HUB,0,0
4096,LONKY,07,49,KY,US,PKG,1,1
4101,KYVKY,07,49,KY,US,PKG,1,1
4103,4526,07,49,OH,US,PKG,0,0
4105,FMGKY,07,49,KY,US,CPX,0,0
4105,MAYKY,07,49,KY,US,PKG,1,1
4105,WALKY,07,49,KY,US,XPT,0,0
4108,WONKY,07,49,KY,US,HUB,0,0
4110,ASHKY,07,49,KY,US,PKG,1,1
4110,CINKY,07,49,KY,US,CPX,0,0
4114,CVG1 ,07,49,KY,US,CSL,0,0
4150,PIKKY,07,49,KY,US,PKG,1,1
4160,PREKY,07,49,KY,US,PKG,1,1
4170,HAZKY,07,49,KY,US,PKG,1,1
4200,OGRKY,03,55,KY,US,XPT,0,1
4200,PADKY,07,49,KY,US,PKG,1,1
4210,BOWKY,07,49,KY,US,PKG,1,1
4210,SNBKY,07,49,KY,US,CPX,0,1
4224,HOPKY,07,49,KY,US,PKG,1,1
4230,OWEKY,07,49,KY,US,PKG,1,1
4230,UNFKY,07,49,KY,US,CSL,0,1
4243,CARKY,07,49,KY,US,CPX,0,0
4243,MADKY,07,49,KY,US,PKG,1,1
4250,SOMKY,07,49,KY,US,PKG,1,1
4271,CAMKY,07,49,KY,US,PKG,0,1
4271,SONKY,07,49,KY,US,XPT,0,1
4296,SDF1 ,07,49,KY,US,CSL,0,0
4305,HSPOH,07,64,OH,US,CPX,0,0
4305,NEWOH,07,64,OH,US,PKG,0,0
430AM,CMH1 ,07,64,OH,US,CSL,0,0
4310,LANOH,07,64,OH,US,PKG,1,1
4319,43NE ,07,64,OH,US,XPT,0,0
4319,BENOH,07,64,OH,US,CPX,0,0
4319,CCUOH,07,64,OH,US,CPX,0,0
4319,ESLOH,07,64,OH,US,CPX,0,0
4319,ESPOH,07,64,OH,US,CPX,0,0
4319,GAPOH,07,64,OH,US,CPX,0,0
4319,JCPOH,07,64,OH,US,CPX,0,0
4319,LXTOH,07,64,OH,US,CPX,0,0
4319,NIKOH,07,64,OH,US,CPX,0,0
4319,OBEOH,07,64,OH,US,HUB,0,0
4319,PTIOH,07,64,OH,US,CPX,0,0
431AM,CMH2 ,07,64,OH,US,CSL,0,0
431GP,431GP,07,64,OH,US,CSL,0,0
431RH,431RH,07,64,OH,US,CSL,0,0
4329,ABBOH,07,64,OH,US,CPX,0,0
4329,BUTOH,07,64,OH,US,CPX,0,0
4329,COLOH,07,64,OH,US,HUB,0,0
4329,CUROH,07,64,OH,US,CPX,0,0
4329,EMAOH,07,64,OH,US,CPX,0,0
4329,FSGOH,07,64,OH,US,CPX,0,0
4329,KIMOH,07,64,OH,US,CPX,0,0
4329,MCGOH,07,64,OH,US,CPX,0,0
4329,MSCOH,07,64,OH,US,CPX,0,0
4329,MTOOH,07,64,OH,US,CPX,0,0
4329,OSTOH,07,64,OH,US,CPX,0,0
4329,RHWOH,07,64,OH,US,CPX,0,0
4329,SFSOH,07,64,OH,US,CPX,0,0
4329,SPROH,07,64,OH,US,CPX,0,0
4329,STCOH,07,64,OH,US,CPX,0,0
4329,STLOH,07,64,OH,US,CPX,0,0
4329,USTOH,07,64,OH,US,CPX,0,0
4329,USUOH,07,64,OH,US,CPX,0,0
4329,VZWOH,07,64,OH,US,CPX,0,0
4330,MRIOH,07,64,OH,US,PKG,0,0
4342,FREOH,07,64,OH,US,PKG,1,1
4351,DEFOH,07,64,OH,US,PKG,1,1
4369,AMWOH,07,64,OH,US,CPX,0,0
4369,CTEOH,07,64,OH,US,CPX,0,0
4369,HMDOH,07,64,OH,US,CPX,0,0
4369,KSOOH,07,64,OH,US,CPX,0,0
4369,MACMI,07,64,MI,US,CPX,0,0
4369,NFDOH,07,64,OH,US,CPX,0,0
4369,PBUOH,07,64,OH,US,CPX,0,0
4369,TOLOH,07,64,OH,US,HUB,0,0
4369,TOLRR,07,64,OH,US,RRY,0,0
4369,TTWOH,07,64,OH,US,CPX,0,0
4370,WIGOH,07,64,OH,US,XPT,0,0
4370,ZANOH,07,64,OH,US,PKG,0,0
4390,SCLOH,07,64,OH,US,PKG,1,1
4395,BRIOH,07,64,OH,US,PKG,1,1
4400,AUBOH,07,64,OH,US,PKG,1,1
4405,ELYOH,07,64,OH,US,PKG,1,1
4405,NASOH,07,64,OH,US,CPX,0,0
4409,HIHOH,07,64,OH,US,HUB,0,0
4409,PYAOH,07,64,OH,US,CPX,0,0
4419,CLEOH,07,64,OH,US,HUB,0,0
4419,WGROH,07,64,OH,US,CPX,0,0
4423,WADOH,07,64,OH,US,PKG,0,0
4429,ASAOH,07,64,OH,US,CPX,0,0
4429,CATOH,07,64,OH,US,CPX,0,0
4429,CDROH,07,64,OH,US,CPX,0,0
4429,E10OH,07,64,OH,US,XPT,0,0
4429,E16OH,07,64,OH,US,XPT,0,0
4429,EDSOH,07,64,OH,US,CPX,0,0
4429,INTOH,07,64,OH,US,CPX,0,0
4429,KENOH,07,64,OH,US,CPX,0,0
4429,KTMOH,07,64,OH,US,CPX,0,0
4429,LODOH,07,64,OH,US,XPT,0,0
4429,MIDOH,07,64,OH,US,HUB,0,0
4429,MSIOH,07,64,OH,US,CPX,0,0
4429,MTXOH,07,64,OH,US,CPX,0,0
4429,PASOH,07,64,OH,US,CPX,0,0
4429,ROMOH,07,64,OH,US,CPX,0,0
4429,THROH,07,64,OH,US,CPX,0,0
4429,UNSOH,07,64,OH,US,CPX,0,0
4439,AKROH,07,64,OH,US,HUB,0,1
4440,TRMOH,07,64,OH,US,PKG,0,0
4449,CLEAP,07,64,OH,US,APT,0,0
4451,MAHOH,07,64,OH,US,PKG,1,1
4460,WOOOH,07,64,OH,US,PKG,0,0
4466,NPHOH,07,64,OH,US,PKG,1,1
4479,CANOH,07,64,OH,US,HUB,0,0
4487,SANOH,07,64,OH,US,PKG,1,1
4499,MANOH,07,64,OH,US,HUB,0,0
4499,MCCOH,07,64,OH,US,CPX,0,0
4501,C47MC,07,49,OH,US,BTL,0,0
4501,HAMOH,07,49,OH,US,PKG,0,0
4517,PC3OH,07,49,OH,US,CPX,0,0
4517,WCHOH,07,49,OH,US,XPT,0,0
4517,WILOH,07,49,OH,US,PKG,1,1
4519,C44BU,07,49,OH,US,BTL,0,0
4519,CFAOH,07,49,OH,US,CPX,0,0
4519,DESOH,07,49,OH,US,CPX,0,0
4519,HFCOH,07,49,OH,US,CPX,0,0
4519,HUMOH,07,49,OH,US,CPX,0,0
4519,IAGOH,07,49,OH,US,CPX,0,0
4519,IDGOH,07,49,OH,US,CPX,0,0
4519,JNAOH,07,49,OH,US,CPX,0,0
4519,LSIOH,07,49,OH,US,CPX,0,0
4519,MDSOH,07,49,OH,US,CPX,0,0
4519,MWTOH,07,49,OH,US,CPX,0,0
4519,ODEOH,07,49,OH,US,CPX,0,0
4519,PCCOH,07,49,OH,US,CPX,0,0
4519,SAHOH,07,49,OH,US,CPX,0,0
4519,SAMOH,07,49,OH,US,CPX,0,0
4519,SENOH,07,49,OH,US,CPX,0,0
4519,SGTOH,07,49,OH,US,CPX,0,0
4519,SHAOH,07,49,OH,US,HUB,0,0
4519,TRDOH,07,49,OH,US,CPX,0,0
4529,AHEKY,07,49,KY,US,CPX,0,1
4529,C45OE,07,49,OH,US,BTL,0,1
4529,CCCOH,07,49,OH,US,CPX,0,1
4529,CINOH,07,49,OH,US,HUB,1,1
4529,CMTKY,07,49,KY,US,CPX,0,1
4529,DPRKY,07,49,KY,US,CPX,0,1
4529,SANKY,07,49,KY,US,CPX,0,1
4529,SBAKY,07,49,KY,US,CPX,0,1
4529,SFCKY,07,49,KY,US,CPX,0,1
4529,SRROH,07,49,OH,US,RRY,0,1
4535,CIEOH,07,49,OH,US,XPT,0,0
4535,PIQOH,07,49,OH,US,PKG,0,0
4539,DGUOH,07,49,OH,US,CPX,0,0
4539,KOLOH,07,49,OH,US,CPX,0,0
4539,MMAOH,07,49,OH,US,CPX,0,0
4539,PAROH,07,49,OH,US,CPX,0,0
4539,WCAOH,07,49,OH,US,HUB,0,0
4549,DAYOH,07,49,OH,US,HUB,0,1
4549,PGVOH,07,49,OH,US,CPX,0,1
4550,SPFOH,07,49,OH,US,PKG,0,0
4560,CHIOH,07,49,OH,US,PKG,0,0
4566,POROH,07,49,OH,US,PKG,0,0
4570,ATHOH,07,64,OH,US,PKG,1,1
4575,METOH,07,64,OH,US,PKG,1,1
4580,LIMOH,07,49,OH,US,PKG,1,1
4581,CELOH,07,49,OH,US,PKG,1,1
4584,FINOH,07,64,OH,US,PKG,1,1
4601,ANDIN,07,49,IN,US,PKG,1,1
4603,IND4 ,07,49,IN,US,CSL,0,0
460A,XUSE ,07,49,IN,US,CSL,0,0
4619,C46HF,07,49,IN,US,BTL,0,0
4619,I16IN,07,49,IN,US,HUB,0,0
4619,LININ,07,49,IN,US,CPX,0,0
4624,CASIN,07,49,IN,US,PKG,1,1
4628,FLDIN,07,49,IN,US,HUB,0,0
4629,AM6IN,07,49,IN,US,CPX,0,0
4629,AMHKY,07,49,KY,US,CPX,0,0
4629,ASCIN,07,49,IN,US,CPX,0,0
4629,AUTIN,07,49,IN,US,CPX,0,0
4629,BRTIN,07,49,IN,US,CPX,0,0
4629,C44QO,07,49,IN,US,BTL,0,0
4629,C48JO,07,49,IN,US,BTL,0,0
4629,C48PD,07,49,IN,US,BTL,0,0
4629,CFLIN,07,49,IN,US,XPT,0,0
4629,COVIN,07,49,IN,US,CPX,0,0
4629,CVSIN,07,49,IN,US,CPX,0,0
4629,DIXIN,07,49,IN,US,CPX,0,0
4629,DMIIN,07,49,IN,US,CPX,0,0
4629,DOLIN,07,49,IN,US,CPX,0,0
4629,DORIN,07,49,IN,US,CPX,0,0
4629,EXSIN,07,49,IN,US,CPX,0,0
4629,GREIN,07,49,IN,US,XPT,0,0
4629,H69IN,07,49,IN,US,XPT,0,0
4629,HDSIN,07,49,IN,US,CPX,0,0
4629,HPPIN,07,49,IN,US,CPX,0,0
4629,HSHIN,07,49,IN,US,CPX,0,0
4629,I81IN,07,49,IN,US,HUB,0,0
4629,ISTIN,07,49,IN,US,CPX,0,0
4629,LACIN,07,49,IN,US,CPX,0,0
4629,LBNON,07,49,IN,US,XPT,0,0
4629,MCFIN,07,49,IN,US,CPX,0,0
4629,MEYIN,07,49,IN,US,CPX,0,0
4629,MRKIN,07,49,IN,US,CPX,0,0
4629,MSIIN,07,49,IN,US,CPX,0,0
4629,MWIIN,07,49,IN,US,CPX,0,0
4629,MWMIN,07,49,IN,US,CPX,0,0
4629,NNCIN,07,49,IN,US,CPX,0,0
4629,NVOIN,07,49,IN,US,CPX,0,0
4629,PITIN,07,49,IN,US,CPX,0,0
4629,PONIN,07,49,IN,US,CPX,0,0
4629,SMEIN,07,49,IN,US,CPX,0,0
4629,SPRIN,07,49,IN,US,CPX,0,0
4629,STAIN,07,49,IN,US,CPX,0,0
4629,SUBIN,07,49,IN,US,CPX,0,0
4629,TARIN,07,49,IN,US,CPX,0,0
4629,TIMIN,07,49,IN,US,CPX,0,0
4629,TOLIN,07,49,IN,US,CPX,0,0
4629,WTDIN,07,49,IN,US,XPT,0,0
462HS,462HS,07,49,IN,US,CSL,0,0
4635,HAMIN,03,46,IN,US,PKG,0,1
4639,TCIAP,07,49,IN,US,HUB,0,0
4650,BOUIN,07,49,IN,US,PKG,0,1
4659,ELKIN,07,49,IN,US,HUB,0,0
4659,M96IN,07,49,IN,US,XPT,0,0
4659,MSCIN,07,49,IN,US,CPX,0,0
4660,SOUIN,07,49,IN,US,PKG,0,1
4660,TDAIN,07,49,IN,US,CPX,0,1
4660,TRAIN,07,49,IN,US,CPX,0,1
4675,WATIN,07,49,IN,US,PKG,1,1
4679,FWAAS,07,49,IN,US,APT,0,0
4689,FORIN,07,49,IN,US,HUB,0,0
4690,KOKIN,07,49,IN,US,PKG,1,1
4694,IND5 ,07,49,IN,US,CSL,0,0
4695,MARIN,07,49,IN,US,PKG,1,1
4696,IND2 ,07,49,IN,US,CSL,0,0
4697,IND1 ,07,49,IN,US,CSL,0,0
4715,CLAIN,07,49,IN,US,PKG,0,1
4720,COLIN,07,49,IN,US,PKG,1,1
4720,SEYIN,07,49,IN,US,XPT,0,1
4720,TVILE,07,49,IN,US,XPT,0,1
4724,MCPIN,07,49,IN,US,CPX,0,1
4724,NEWPO,07,49,IN,US,XPT,0,1
4724,VERIN,07,49,IN,US,PKG,1,1
4730,MUNIN,07,49,IN,US,PKG,1,1
4737,CAMBR,07,49,IN,US,XPT,0,1
4737,CENIN,07,49,IN,US,PKG,1,1
4740,BLOIN,07,49,IN,US,PKG,0,1
4750,WASIN,07,49,IN,US,PKG,1,1
4754,HUNIN,07,49,IN,US,PKG,1,1
4770,EVNIN,07,49,IN,US,PKG,1,1
4789,HUFAP,07,49,IN,US,HUB,0,0
4790,LAFAT,07,49,IN,US,PKG,0,1
4790,RENIN,07,49,IN,US,XPT,0,1
4793,CRAIN,07,49,IN,US,PKG,1,1
4805,PONMI,07,64,MI,US,PKG,0,1
4806,PORMI,07,64,MI,US,PKG,0,0
4809,BARMI,07,64,MI,US,CPX,0,0
4809,CGFMI,07,64,MI,US,CPX,0,0
4809,DAXMI,07,64,MI,US,CPX,0,0
4809,GLOMI,07,64,MI,US,CPX,0,0
4809,JORMI,07,64,MI,US,CPX,0,0
4809,MHEMI,07,64,MI,US,HUB,0,0
4809,PTOMI,07,64,MI,US,CPX,0,0
4809,TARMI,07,64,MI,US,CPX,0,0
4809,TIRMI,07,64,MI,US,CPX,0,0
4810,PSOMI,07,64,MI,US,CPX,0,1
4810,YPSMI,07,64,MI,US,PKG,0,1
4810,ZINMI,07,64,MI,US,CPX,0,1
4813,TAYMI,07,64,MI,US,PKG,0,1
481AM,DET1 ,07,64,MI,US,CSL,0,0
4820,FSGMI,07,64,MI,US,CPX,0,0
4820,MONMI,07,64,MI,US,PKG,0,0
4822,WOOMI,07,64,MI,US,PKG,0,1
4829,BUVMI,07,64,MI,US,CPX,0,0
4829,CENMI,07,64,MI,US,CPX,0,0
4829,CMNMI,07,64,MI,US,CPX,0,0
4829,CUSMI,07,64,MI,US,XPT,0,0
4829,HHBMI,07,64,MI,US,CPX,0,0
4829,JTHMI,07,64,MI,US,CPX,0,0
4829,LIVMI,07,64,MI,US,HUB,0,0
4829,MIDMI,07,64,MI,US,CPX,0,0
4829,STXMI,07,64,MI,US,CPX,0,0
4829,SUHMI,07,64,MI,US,CPX,0,0
4830,CICMI,07,64,MI,US,PKG,0,0
4835,WIXMI,07,64,MI,US,PKG,0,0
4849,DTWMI,07,64,MI,US,APT,0,0
4850,FLIMI,07,64,MI,US,PKG,0,0
4859,CANMI,07,64,MI,US,HUB,0,0
4860,SAGMI,07,64,MI,US,PKG,0,1
4866,WESMI,07,64,MI,US,PKG,0,0
4872,CASMI,07,64,MI,US,PKG,1,1
4884,4884,07,64,MI,US,PKG,0,0
4885,MTPMI,07,64,MI,US,PKG,0,1
4890,LANMI,07,64,MI,US,PKG,0,0
4899,LANAS,07,64,MI,US,APT,0,0
4901,BCRMI,07,64,MI,US,PKG,0,1
4902,MTRMI,07,64,MI,US,CPX,0,1
4902,STJMI,07,64,MI,US,PKG,0,1
4909,KALMI,07,64,MI,US,HUB,0,1
4920,JACMI,07,64,MI,US,PKG,0,1
4922,ADRMI,07,64,MI,US,PKG,0,1
4930,BIGMI,07,64,MI,US,PKG,1,1
4930,BMPMI,07,64,MI,US,XPT,0,0
4930,WHCMI,07,64,MI,US,CPX,0,0
4943,LUDMI,07,64,MI,US,PKG,0,0
4944,MSKMI,07,64,MI,US,PKG,0,1
4959,ATTMI,07,64,MI,US,CPX,0,0
4959,BAVMI,07,64,MI,US,CPX,0,0
4959,BELMI,07,64,MI,US,CPX,0,0
4959,C47NM,07,64,MI,US,BTL,0,0
4959,CHRMI,07,64,MI,US,CPX,0,0
4959,CRFMI,07,64,MI,US,CPX,0,0
4959,DDEMI,07,64,MI,US,CPX,0,0
4959,DDXMI,07,64,MI,US,CPX,0,0
4959,FCNMI,07,64,MI,US,CPX,0,0
4959,FSSMI,07,64,MI,US,CPX,0,0
4959,GRAMI,07,64,MI,US,HUB,0,0
4959,KVOMI,07,64,MI,US,CPX,0,0
4959,MALMI,07,64,MI,US,CPX,0,0
4959,PERMI,07,64,MI,US,CPX,0,0
4959,UNOMI,07,64,MI,US,XPT,0,0
4959,XRIMI,07,64,MI,US,CPX,0,0
4960,CADMI,07,64,MI,US,PKG,0,0
4961,TRAMI,07,64,MI,US,PKG,0,0
4970,ALPMI,07,64,MI,US,PKG,1,1
4971,RUDMI,07,64,MI,US,PKG,1,1
4972,GYLMI,07,64,MI,US,PKG,1,1
4977,PETMI,07,64,MI,US,PKG,0,0
4980,IROMI,07,64,MI,US,PKG,1,1
4985,MARMI,07,64,MI,US,PKG,1,1
4989,CSEMI,07,64,MI,US,XPT,0,1
4989,ESCMI,07,64,MI,US,HUB,0,1
4992,HOUMI,07,64,MI,US,PKG,1,1
4993,BESMI,07,64,MI,US,PKG,1,1
5000,AMEIA,03,55,IA,US,PKG,0,1
5000,PDNIA,03,55,IA,US,CPX,0,1
5000,WILIA,03,55,IA,US,XPT,0,1
5001,ROAIA,03,55,IA,US,PKG,0,0
5010,MARIA,03,55,IA,US,PKG,0,0
5011,GUTIA,03,55,IA,US,PKG,0,0
5029,DSMAS,03,55,IA,US,APT,0,0
5039,ATLIA,03,55,IA,US,XPT,0,0
5039,BHFIA,03,55,IA,US,CPX,0,0
5039,BRCIA,03,55,IA,US,CPX,0,0
5039,CYFIA,03,55,IA,US,CPX,0,0
5039,DAIIA,03,55,IA,US,CPX,0,0
5039,DESIA,03,55,IA,US,HUB,0,0
5039,EMAIA,03,55,IA,US,CPX,0,0
5039,FRGIA,03,55,IA,US,CPX,0,0
5039,GEDIA,03,55,IA,US,CPX,0,0
5039,HSCIA,03,55,IA,US,CPX,0,0
5039,ITSIA,03,55,IA,US,XPT,0,0
5039,JWAIA,03,55,IA,US,CPX,0,0
5039,LORIA,03,55,IA,US,CPX,0,0
5039,MCOIA,03,55,IA,US,CPX,0,0
5039,PDOIA,03,55,IA,US,CPX,0,0
5039,PTSIA,03,55,IA,US,XPT,0,0
5040,MCIIA,03,55,IA,US,PKG,0,1
5050,FDOIA,03,55,IA,US,PKG,0,0
5079,WATIA,03,55,IA,US,HUB,0,0
5080,CREIA,03,55,IA,US,PKG,0,0
5119,5119,03,55,IA,US,HUB,0,1
5119,KPRIA,03,55,IA,US,CPX,0,1
5130,SPEIA,03,55,IA,US,PKG,0,1
5140,DENIA,03,55,IA,US,PKG,0,0
5200,DUBIA,03,55,IA,US,PKG,0,1
5210,DECIA,03,55,IA,US,PKG,1,1
5220,CORIA,03,55,IA,US,PKG,0,1
5220,ORAIA,03,55,IA,US,CPX,0,1
5240,HIAIA,03,55,IA,US,PKG,0,0
5240,KTOIA,03,55,IA,US,CPX,0,0
5240,NORIA,03,55,IA,US,CPX,0,0
5240,TRHIA,03,55,IA,US,CPX,0,0
5249,CIDAS,03,55,IA,US,APT,0,0
5249,NCRIA,03,55,IA,US,CPX,0,0
5250,3MKIA,03,55,IA,US,CPX,0,1
5250,OTTIA,03,55,IA,US,PKG,0,1
5255,BEXIA,03,55,IA,US,XPT,0,0
5255,OSKIA,03,55,IA,US,PKG,0,0
5260,BURIA,03,55,IA,US,PKG,0,1
5289,AEXIA,03,55,IA,US,XPT,0,0
5289,C52WR,03,55,IA,US,BTL,0,0
5289,DAVIA,03,55,IA,US,HUB,0,0
5289,ETOIA,03,55,IA,US,CPX,0,0
5289,KCOIA,03,55,IA,US,CPX,0,0
5289,MRTIA,03,55,IA,US,CPX,0,0
5289,QDCIA,03,55,IA,US,CPX,0,0
5289,WMUIA,03,55,IA,US,CPX,0,0
5300,SHEWI,03,56,WI,US,PKG,0,0
5300,VOLWI,03,56,WI,US,CPX,0,0
5301,VINWI,03,56,WI,US,CPX,0,1
5301,WATWI,03,56,WI,US,PKG,1,1
5319,ABAWI,03,56,WI,US,CPX,0,0
5319,CPRWI,03,56,WI,US,CPX,0,0
5319,CPWWI,03,56,WI,US,CPX,0,0
5319,DTRWI,03,56,WI,US,CPX,0,0
5319,FSMWI,03,56,WI,US,CPX,0,0
5319,KFTWI,03,56,WI,US,CPX,0,0
5319,MKSWI,03,56,WI,US,CPX,0,0
5319,OAKWI,03,56,WI,US,HUB,0,0
5319,POWWI,03,56,WI,US,CPX,0,0
5319,PULWI,03,56,WI,US,CPX,0,0
5319,SBEWI,03,56,WI,US,CPX,0,0
531AM,MKE1 ,03,56,WI,US,CSL,0,0
5329,C54CC,03,56,WI,US,BTL,0,0
5329,ELMWI,03,56,WI,US,HUB,0,0
5329,GNAWI,03,56,WI,US,CPX,0,0
5339,MKEAS,03,56,WI,US,APT,1,1
5349,STUWI,03,56,WI,US,HUB,0,0
534UL,534UL,03,56,WI,US,CSL,0,0
5354,BRPWI,03,56,WI,US,CPX,0,1
5354,JANWI,03,56,WI,US,PKG,0,1
5371,CSPWI,03,56,WI,US,CPX,0,0
5371,MIDWI,03,56,WI,US,PKG,0,0
5371,SHPWI,03,56,WI,US,CPX,0,0
5379,MADWI,03,56,WI,US,HUB,0,0
5380,DODWI,03,56,WI,US,PKG,0,1
5384,LENWI,03,56,WI,US,CSL,0,0
5390,DOHWI,03,56,WI,US,CPX,0,0
5390,H78WI,03,56,WI,US,XPT,0,0
5390,LDEWI,03,56,WI,US,PKG,0,0
5394,LNRWI,03,56,WI,US,CSL,0,0
5414,ABSWI,03,56,WI,US,CPX,0,1
5414,GRMWI,03,56,WI,US,CPX,0,1
5414,MARWI,03,56,WI,US,PKG,1,1
5431,BAYWI,03,56,WI,US,PKG,0,1
5439,GREWI,03,56,WI,US,HUB,0,0
5449,STEWI,03,56,WI,US,HUB,0,1
5450,RHIWI,03,56,WI,US,PKG,1,1
5459,EBAWI,03,56,WI,US,CPX,0,0
5459,WAUWI,03,56,WI,US,HUB,0,0
5469,ASHWI,03,56,WI,US,CPX,0,0
5469,LACWI,03,56,WI,US,HUB,0,0
5469,TOMWI,03,56,WI,US,XPT,0,0
5470,ECLWI,03,56,WI,US,PKG,0,1
5470,H10WI,03,56,WI,US,XPT,0,1
5471,BALWI,03,56,WI,US,PKG,1,1
5471,H63WI,03,56,WI,US,XPT,0,1
5471,ULIWI,03,56,WI,US,CPX,0,1
5486,RLAWI,03,56,WI,US,PKG,1,1
5486,RLBWI,03,56,WI,US,CPX,0,1
5499,MMAWI,03,56,WI,US,CPX,0,0
5499,OSHWI,03,56,WI,US,HUB,0,0
5499,SSBWI,03,56,WI,US,CPX,0,0
5501,REWMN,03,56,MN,US,PKG,0,0
5502,FBTMN,03,56,MN,US,PKG,1,1
5504,OWAMN,03,56,MN,US,PKG,0,0
5519,3MLMN,03,56,MN,US,CPX,0,0
5519,AMSMN,03,56,MN,US,CPX,0,0
5519,ANTMN,03,56,MN,US,CPX,0,0
5519,ARFMN,03,56,MN,US,XPT,0,0
5519,BINMN,03,56,MN,US,CPX,0,0
5519,BLUMN,03,56,MN,US,CPX,0,0
5519,CAPMN,03,56,MN,US,CPX,0,0
5519,CASMN,03,56,MN,US,CPX,0,0
5519,CINMN,03,56,MN,US,CPX,0,0
5519,FUNMN,03,56,MN,US,CPX,0,0
5519,H54WI,03,56,MN,US,XPT,0,0
5519,HEAMN,03,56,MN,US,CPX,0,0
5519,IMGMN,03,56,MN,US,CPX,0,0
5519,KAMMN,03,56,MN,US,CPX,0,0
5519,MAFMN,03,56,MN,US,CPX,0,0
5519,MTOMN,03,56,MN,US,CPX,0,0
5519,NPEMN,03,56,MN,US,CPX,0,0
5519,POLMN,03,56,MN,US,CPX,0,0
5519,SANMN,03,56,MN,US,CPX,0,0
5519,SHUMN,03,56,MN,US,CPX,0,0
5519,STPMN,03,56,MN,US,HUB,0,0
5519,TDIMN,03,56,MN,US,CPX,0,0
5519,TDRMN,03,56,MN,US,CPX,0,0
5519,USTMN,03,56,MN,US,CPX,0,0
5519,WCOMN,03,56,MN,US,CPX,0,0
5519,WPUMN,03,56,MN,US,CPX,0,0
551AM,MSP1 ,03,56,MN,US,CSL,0,0
5529,MSPAS,03,56,MN,US,APT,0,0
5530,GLEMN,03,56,MN,US,PKG,0,0
5534,DKIMN,03,56,MN,US,CPX,0,0
5534,ISAMN,03,56,MN,US,PKG,0,0
5549,ARRMN,03,56,MN,US,CPX,0,0
5549,BNMN ,03,56,MN,US,RRY,0,0
5549,CCOMN,03,56,MN,US,CPX,0,0
5549,GRAMN,03,56,MN,US,CPX,0,0
5549,MINMN,03,56,MN,US,HUB,0,0
5549,NOBMN,03,56,MN,US,CPX,0,0
5549,NOWMN,03,56,MN,US,CPX,0,0
5549,PREMN,03,56,MN,US,CPX,0,0
5549,SRIMN,03,56,MN,US,CPX,0,0
5549,TACMN,03,56,MN,US,CPX,0,0
5549,TIRMN,03,56,MN,US,CPX,0,0
5570,VIRMN,03,56,MN,US,PKG,1,1
5571,GUNMN,03,56,MN,US,PKG,1,1
5580,DULMN,03,56,MN,US,PKG,0,0
5590,ROCMN,03,56,MN,US,PKG,0,0
5591,ALBMN,03,56,MN,US,PKG,1,1
5592,TINMN,03,56,MN,US,XPT,0,0
5592,WICMN,03,56,MN,US,CPX,0,0
5592,WINMN,03,56,MN,US,PKG,1,1
5599,MGRMN,03,56,MN,US,HUB,0,0
5599,MKRMN,03,56,MN,US,CPX,0,0
5599,MNMPL,03,56,MN,US,CPX,0,0
5599,STEMN,03,56,MN,US,CPX,0,0
5599,SYSMN,03,56,MN,US,CPX,0,0
5599,TLLMN,03,56,MN,US,CPX,0,0
5599,TSDMN,03,56,MN,US,CPX,0,0
5600,CCAMN,03,56,MN,US,CPX,0,0
5600,CCBMN,03,56,MN,US,CPX,0,0
5600,JONMN,03,56,MN,US,CPX,0,0
5600,MANMN,03,56,MN,US,PKG,0,0
5601,STJMN,03,56,MN,US,PKG,1,1
5610,SLAMN,03,56,MN,US,PKG,0,0
5620,WILMN,03,56,MN,US,PKG,0,0
5621,GFMN,03,56,MN,US,PKG,0,0
5622,ASBMN,03,56,MN,US,CPX,0,0
5622,MORMN,03,56,MN,US,PKG,0,0
5630,MALMN,03,56,MN,US,CPX,0,0
5630,MAYMN,03,56,MN,US,CPX,0,0
5630,SCLMN,03,56,MN,US,PKG,0,0
5640,BRAMN,03,56,MN,US,PKG,0,0
5641,WADMN,03,56,MN,US,PKG,1,1
5651,ALEMN,03,56,MN,US,PKG,1,1
5652,FERMN,03,56,MN,US,PKG,0,0
5653,DETMN,03,56,MN,US,PKG,1,1
5660,BEMMN,03,56,MN,US,PKG,1,1
5661,IFAMN,03,56,MN,US,PKG,1,1
5670,THIMN,03,56,MN,US,PKG,1,1
5676,5676 ,03,56,MN,US,CSL,0,0
5700,POLSD,03,56,SD,US,CPX,0,0
5700,VERSD,03,56,SD,US,PKG,0,0
5701,BROSD,03,56,SD,US,PKG,0,0
5709,FSDAS,03,56,SD,US,APT,0,0
5719,ANMSD,03,56,SD,US,CPX,0,1
5719,JDHSD,03,56,SD,US,CPX,0,1
5719,RAISD,03,56,SD,US,CPX,0,1
5719,SIOSD,03,56,SD,US,HUB,0,1
5720,LYLSD,03,56,SD,US,CPX,0,0
5720,WATSD,03,56,SD,US,PKG,0,0
5730,MITSD,03,56,SD,US,PKG,0,0
5733,HURSD,03,56,SD,US,PKG,0,0
5740,ABESD,03,56,SD,US,PKG,0,0
5750,PIESD,03,56,SD,US,PKG,0,0
5753,WINSD,03,56,SD,US,PKG,0,0
5760,MOBSD,03,56,SD,US,PKG,0,0
5760,OWDSD,03,56,SD,US,CPX,0,0
5770,MURSD,03,56,SD,US,XPT,0,1
5770,RAPSD,03,56,SD,US,PKG,0,1
5770,WALSD,03,56,SD,US,XPT,0,1
5771,STUSD,03,56,SD,US,PKG,0,0
5819,FARND,03,56,ND,US,HUB,0,0
5819,KEYND,03,56,ND,US,CPX,0,0
5819,SWAND,03,56,ND,US,CPX,0,0
5820,GRAND,03,56,ND,US,PKG,0,0
5820,HJLND,03,56,ND,US,CPX,0,0
5830,DEVND,03,56,ND,US,PKG,0,0
5839,PMBND,03,56,ND,US,HUB,0,0
5840,JAMND,03,56,ND,US,PKG,0,0
5859,BISND,03,56,ND,US,HUB,0,0
5860,DICND,03,56,ND,US,PKG,0,0
5870,MINND,03,56,ND,US,PKG,0,0
5880,WILND,03,56,ND,US,PKG,0,0
5919,BILMT,03,76,MT,US,HUB,0,0
5929,BILAS,03,76,MT,US,APT,0,0
5930,MCIMT,03,76,MT,US,PKG,0,0
5931,GLEMT,03,76,MT,US,PKG,0,0
5940,GFAMT,03,76,MT,US,PKG,0,0
5941,LEWMT,03,76,MT,US,PKG,0,0
5942,CBAMT,03,76,MT,US,PKG,0,0
5950,HAVMT,03,76,MT,US,PKG,0,0
5969,GARMT,03,76,MT,US,XPT,0,0
5969,HELMT,03,76,MT,US,HUB,0,0
5970,BUTMT,03,76,MT,US,PKG,0,0
5970,DILMT,03,76,MT,US,XPT,0,0
5970,ROCMT,03,76,MT,US,XPT,0,0
5971,BOZMT,03,76,MT,US,PKG,0,0
5980,MISMT,03,76,MT,US,PKG,0,0
5980,PLAMT,03,76,MT,US,XPT,0,0
5990,KALMT,03,76,MT,US,PKG,0,0
5991,LIBMT,03,76,MT,US,PKG,1,1
6009,LTDIL,03,46,IL,US,CPX,0,0
6009,NORIL,03,46,IL,US,HUB,0,0
6009,RCOIL,03,46,IL,US,CPX,0,0
6009,SHRIL,03,46,IL,US,CPX,0,0
6011,DEKIL,03,46,IL,US,PKG,0,1
6011,NESIL,03,46,IL,US,CPX,0,1
6019,C68CC,03,46,IL,US,BTL,0,0
6019,FRAIL,03,46,IL,US,HUB,0,0
601AM,XUSN ,03,46,IL,US,CSL,0,0
6029,BAGIL,03,46,IL,US,CPX,0,0
6029,BORIL,03,46,IL,US,CPX,0,0
6029,BUTIL,03,46,IL,US,CPX,0,0
6029,BXPIL,03,46,IL,US,CPX,0,0
6029,C60CO,03,46,IL,US,BTL,0,0
6029,CCVIL,03,46,IL,US,CPX,0,0
6029,CVCIL,03,46,IL,US,CPX,0,0
6029,CWAIL,03,46,IL,US,CPX,0,0
6029,INTIL,03,46,IL,US,CPX,0,0
6029,MPCIL,03,46,IL,US,CPX,0,0
6029,PALIL,03,46,IL,US,HUB,0,0
6029,SOTIL,03,46,IL,US,CPX,0,0
6029,TGSIL,03,46,IL,US,CPX,0,0
6029,TOPIL,03,46,IL,US,CPX,0,0
6029,TRGIL,03,46,IL,US,CPX,0,0
602AM,602AM,03,46,IL,US,CSL,0,0
602GM,602GM,03,46,IL,US,CSL,0,0
6039,3MAIL,03,46,IL,US,CPX,0,0
6039,3MNIL,03,46,IL,US,CPX,0,0
6039,ADCIL,03,46,IL,US,CPX,0,0
6039,ADDIL,03,46,IL,US,HUB,0,0
6039,ADIIL,03,46,IL,US,CPX,0,0
6039,AZJIL,03,46,IL,US,CPX,0,0
6039,C60MO,03,46,IL,US,BTL,0,0
6039,CONIL,03,46,IL,US,CPX,0,0
6039,CTGIL,03,46,IL,US,CPX,0,0
6039,EKYIL,03,46,IL,US,CPX,0,0
6039,FINIL,03,46,IL,US,XPT,0,0
6039,GHPIL,03,46,IL,US,CPX,0,0
6039,GL4IL,03,46,IL,US,RRY,0,0
6039,UPAIL,03,46,IL,US,CPX,0,0
6041,HARIL,03,46,IL,US,PKG,0,1
6042,LPTIL,03,46,IL,US,PKG,0,0
6043,C61WH,03,46,IL,US,BTL,0,1
6043,JOLIL,03,46,IL,US,PKG,0,1
6049,62HCY,03,46,IL,US,BTL,0,0
6049,BEDIL,03,46,IL,US,HUB,0,0
6049,BNEIL,03,46,IL,US,RRY,0,0
6049,BNOIL,03,46,IL,US,RRY,0,0
6049,BPCIL,03,46,IL,US,CPX,0,0
6049,C61AC,03,46,IL,US,BTL,0,0
6049,C65VE,10,17,IL,US,BTL,0,0
6049,C69DL,03,46,IL,US,BTL,0,0
6049,C69IS,03,46,IL,US,BTL,0,0
6049,CESIL,03,46,IL,US,CPX,0,0
6049,SEAIL,03,46,IL,US,RRY,0,0
6049,SFWRR,10,17,IL,US,RRY,0,0
604AM,MDW4 ,03,46,IL,US,CSL,0,0
6051,C66KD,03,46,IL,US,BTL,0,1
6051,WESIL,03,46,IL,US,PKG,1,1
6059,C6059,10,17,IL,US,BTL,0,0
6059,CCHIL,10,17,IL,US,HUB,0,0
6059,LVIIL,03,46,IL,US,XPT,0,0
6059,WAMIL,10,17,IL,US,CPX,0,0
6059,WGRIL,10,17,IL,US,CPX,0,0
605AM,MDW6 ,03,46,IL,US,CSL,0,0
6069,C60LB,03,46,IL,US,BTL,0,0
6069,EASIL,03,46,IL,US,CPX,0,0
6069,GL1IL,03,46,IL,US,RRY,0,0
6069,H73WI,03,56,WI,US,XPT,0,0
6069,HDIIL,03,46,IL,US,CPX,0,0
6069,JEFIL,03,46,IL,US,HUB,0,0
6069,NRRIL,03,46,IL,US,RRY,0,0
6069,NSR47,03,46,IL,US,RRY,0,0
6069,NSR63,03,46,IL,US,RRY,0,0
6069,TPLIL,03,46,IL,US,CPX,0,0
607AM,MDW7L,03,46,IL,US,CSL,0,0
6089,ORDAP,03,46,IL,US,APT,1,1
6089,ORGIL,03,46,IL,US,XPT,0,1
608AM,MDW8 ,03,46,IL,US,CSL,0,0
6090,BATIL,03,46,IL,US,CPX,0,0
6090,KANIL,03,46,IL,US,PKG,0,0
6090,KMBIL,03,46,IL,US,CPX,0,0
609AM,MDW9 ,03,46,IL,US,CSL,0,0
6100,EDEIL,03,46,IL,US,CPX,0,0
6100,RFAIL,03,46,IL,US,PKG,0,0
6103,FREIL,03,46,IL,US,PKG,1,1
6103,PHBIL,03,46,IL,US,CPX,0,1
6119,PKRIL,03,46,IL,US,CPX,0,0
6119,RAYIL,03,46,IL,US,CPX,0,0
6119,RFDIL,03,46,IL,US,HUB,0,0
6126,LYNIL,03,46,IL,US,CPX,0,0
6126,RISIL,03,46,IL,US,PKG,1,1
6135,PERIL,03,46,IL,US,PKG,0,0
6140,GALIL,03,46,IL,US,PKG,0,1
6140,WPEIL,03,46,IL,US,CPX,0,1
6160,KIPIL,03,46,IL,US,XPT,0,0
6160,PEOIL,03,46,IL,US,PKG,0,0
6169,PIAAS,03,46,IL,US,APT,0,0
6170,BLOIL,03,46,IL,US,PKG,0,0
6170,CHNIL,03,46,IL,US,XPT,0,0
6170,MCLIL,03,46,IL,US,XPT,0,0
6182,ANBIL,03,46,IL,US,CPX,0,1
6182,URBIL,03,46,IL,US,PKG,1,1
6183,DANIL,03,46,IL,US,PKG,1,1
6183,HYSIL,03,46,IL,US,CPX,0,0
6193,MTTIL,07,49,IL,US,PKG,1,1
6200,AADIL,03,55,IL,US,CPX,0,0
6200,ALTIL,03,55,IL,US,PKG,1,1
6200,BLNIL,03,55,IL,US,CPX,0,0
6200,GCIIL,03,55,IL,US,XPT,0,0
6200,LITIL,03,55,IL,US,XPT,0,0
620AM,STL4 ,03,55,IL,US,CSL,0,0
6220,BELIL,03,55,IL,US,PKG,1,1
6220,DMPMO,03,55,IL,US,RRY,0,0
6220,OFAIL,03,55,IL,US,XPT,0,0
6220,OKAIL,03,55,IL,US,XPT,0,0
6220,ZANIL,03,55,IL,US,CPX,0,0
6230,QCYIL,03,55,IL,US,PKG,0,1
6245,OLNIL,07,49,IL,US,PKG,1,1
6252,DCTIL,03,46,IL,US,PKG,1,1
6259,DECIL,03,46,IL,US,HUB,1,1
6259,SSRIL,10,17,IL,US,CPX,0,1
6265,JACIL,03,55,IL,US,PKG,1,1
6270,SPRIL,03,46,IL,US,PKG,0,0
6280,CENIL,07,49,IL,US,PKG,1,1
6280,DIXIL,07,49,IL,US,XPT,0,0
6280,SHLIL,07,49,IL,US,CPX,0,0
6280,UNSIL,07,49,IL,US,CPX,0,0
6290,MARIL,07,49,IL,US,PKG,1,1
6290,TFIIL,07,49,IL,US,CPX,0,0
6300,CFAMO,03,55,MO,US,CPX,0,0
6300,PCIMO,03,55,MO,US,CPX,0,0
6300,UNIMO,03,55,MO,US,PKG,0,0
6302,CRYMO,03,55,MO,US,PKG,0,0
6302,LPUMO,03,55,MO,US,CPX,0,0
6309,6DCCY,03,55,MO,US,BTL,0,0
6309,ALGMO,03,55,MO,US,CPX,0,0
6309,ANJMO,03,55,MO,US,CPX,0,0
6309,AWPMO,03,55,MO,US,CPX,0,0
6309,CTCMO,03,55,MO,US,CPX,0,0
6309,EARMO,03,55,MO,US,HUB,0,0
6309,FORMO,03,55,MO,US,XPT,0,0
6309,GGUMO,03,55,MO,US,CPX,0,0
6309,GNSMO,03,55,MO,US,CPX,0,0
6309,GTSMO,03,55,MO,US,CPX,0,0
6309,HEGMO,03,55,MO,US,CPX,0,0
6309,HHEMO,03,55,MO,US,CPX,0,0
6309,JDSMO,03,55,MO,US,CPX,0,0
6309,JLHMO,03,55,MO,US,CPX,0,0
6309,MLCMO,03,55,MO,US,CPX,0,0
6309,OWEMO,03,55,MO,US,CPX,0,0
6309,RSGMO,03,55,MO,US,CPX,0,0
6309,RTGMO,03,55,MO,US,CPX,0,0
6309,SIRMO,03,55,MO,US,CPX,0,0
6309,SSFMO,03,55,MO,US,CPX,0,0
6309,SVAMO,03,55,MO,US,CPX,0,0
6309,TOPMO,03,55,MO,US,CPX,0,0
6309,TRFMO,03,55,MO,US,CPX,0,0
6309,TROMO,03,55,MO,US,CPX,0,0
6309,WARMO,03,55,MO,US,CPX,0,0
6309,WIBMO,03,55,MO,US,CPX,0,0
6309,WYLMO,03,55,MO,US,XPT,0,0
6309,YDEMO,03,55,MO,US,CPX,0,0
6319,C68AB,03,55,MO,US,BTL,0,0
6319,COPMO,03,55,MO,US,CPX,0,0
6319,HORMO,03,55,MO,US,CPX,0,0
6319,JEFMO,03,55,MO,US,HUB,0,0
6319,KASMO,03,55,MO,US,CPX,0,0
6319,KELMO,03,55,MO,US,CPX,0,0
6319,MDCMO,03,55,MO,US,CPX,0,0
6319,MEPMO,03,55,MO,US,CPX,0,0
6319,MGWMO,03,55,MO,US,CPX,0,0
6319,MUSMO,03,55,MO,US,CPX,0,0
6319,SAFMO,03,55,MO,US,CPX,0,0
6319,SBSIL,03,55,IL,US,CPX,0,0
6329,STLAS,03,55,MO,US,APT,0,0
6330,BOLMO,03,55,MO,US,PKG,0,0
6340,PALMO,03,55,MO,US,PKG,1,1
6350,KIRMO,03,55,MO,US,PKG,1,1
6360,FARMO,03,55,MO,US,PKG,1,1
6370,AFJMO,03,55,MO,US,CPX,0,0
6370,GIRMO,03,55,MO,US,PKG,0,0
6370,HENMO,03,55,MO,US,CPX,0,0
6380,DBSMO,03,55,MO,US,CPX,0,0
6380,DEWMO,03,55,MO,US,CPX,0,0
6380,SIKMO,03,55,MO,US,PKG,1,1
6390,NEEMO,03,55,MO,US,XPT,0,0
6390,NORMO,03,55,MO,US,CPX,0,0
6390,TRIMO,03,55,MO,US,PKG,1,1
6390,VITMO,03,55,MO,US,CPX,0,0
6400,HIGMO,03,55,MO,US,PKG,0,0
6400,MBMMO,03,55,MO,US,CPX,0,0
6400,OGRMO,03,55,MO,US,XPT,0,0
6419,GNEMO,03,55,MO,US,CPX,0,0
6419,IFSMO,03,55,MO,US,CPX,0,0
6419,ISWMO,03,55,MO,US,CPX,0,0
6419,KANKS,03,55,KS,US,HUB,0,0
6419,LCDMO,03,55,KS,US,CPX,0,0
6419,LIPMO,03,55,MO,US,CPX,0,0
6419,MEDKS,03,55,KS,US,CPX,0,0
6419,OSAMO,03,55,MO,US,CPX,0,0
6419,RACMO,03,55,MO,US,CPX,0,0
6419,SRIMO,03,55,MO,US,CPX,0,0
6419,STLMO,03,55,MO,US,CPX,0,0
6419,WGRMO,03,55,MO,US,CPX,0,0
6429,MCIAP,03,55,MO,US,APT,0,0
6450,ALTMO,03,55,MO,US,CPX,0,0
6450,SJOMO,03,55,MO,US,PKG,0,0
6450,VTMMO,03,55,MO,US,CPX,0,0
6460,CHIMO,03,55,MO,US,PKG,0,0
6470,APPMO,03,55,MO,US,PKG,0,0
6489,JOPMO,03,55,MO,US,HUB,0,0
6489,MSDMO,03,55,MO,US,CPX,0,0
6489,PRMMO,03,55,MO,US,CPX,0,0
6489,RCRMO,03,55,MO,US,XPT,0,0
6489,SUBMO,03,55,MO,US,CPX,0,0
6500,CAMMO,03,55,MO,US,PKG,1,1
6510,JCIMO,03,55,MO,US,PKG,0,0
6510,MLTMO,03,55,MO,US,CPX,0,0
6529,CNCMO,03,55,MO,US,XPT,0,1
6529,COLMO,03,55,MO,US,HUB,0,1
6529,MBSMO,03,55,MO,US,CPX,0,1
6529,MIDMO,03,55,MO,US,CPX,0,1
6529,PRKMO,03,55,MO,US,CPX,0,1
6529,WDNMO,03,55,MO,US,CPX,0,1
6530,SEDMO,03,55,MO,US,PKG,0,0
6540,GRMMO,03,55,MO,US,CPX,0,0
6540,PARMO,03,55,MO,US,CPX,0,0
6540,PRCMO,03,55,MO,US,XPT,0,0
6540,ROLMO,03,55,MO,US,PKG,1,1
6559,SGFAS,03,55,MO,US,APT,0,0
6561,BRAMO,03,55,MO,US,PKG,0,0
6570,WPLMO,03,55,KS,US,XPT,0,0
6570,WSPMO,03,55,MO,US,PKG,1,1
6589,BASMO,03,55,MO,US,CPX,0,1
6589,DMRMO,03,55,MO,US,CPX,0,1
6589,HFIMO,03,55,MO,US,CPX,0,1
6589,ISLMO,03,55,MO,US,CPX,0,1
6589,PPCMO,03,55,MO,US,CPX,0,1
6589,SPRMO,03,55,MO,US,HUB,0,1
6600,OTTKS,03,55,KS,US,PKG,1,1
6600,WALKS,03,55,KS,US,CPX,0,0
6601,BMIKS,03,55,KS,US,CPX,0,0
6601,LAWKS,03,55,KS,US,PKG,1,1
6605,EDGKS,03,55,KS,US,HUB,0,0
6629,BBRKS,03,55,KS,US,CPX,0,0
6629,FCHKS,03,55,KS,US,CPX,0,0
6629,HHOKS,03,55,KS,US,CPX,0,0
6629,LENKS,03,55,KS,US,HUB,0,0
6629,OLAKS,03,55,KS,US,XPT,0,0
6629,PSLKS,03,55,KS,US,CPX,0,0
6629,SFRKS,03,55,KS,US,RRY,0,0
6629,SOKKS,03,55,KS,US,CPX,0,0
6629,TBOKS,03,55,KS,US,CPX,0,0
6650,MANKS,03,55,KS,US,PKG,0,0
6660,ECLKS,03,55,KS,US,CPX,0,0
6660,TPKKS,03,55,KS,US,PKG,0,0
6670,PARKS,03,55,KS,US,PKG,0,0
6671,MPIKS,03,55,KS,US,CPX,0,0
6671,PITKS,03,55,KS,US,PKG,1,1
6680,EMRKS,03,55,KS,US,PKG,1,1
6719,ICTKS,03,55,KS,US,APT,0,0
6729,CCOKS,03,55,KS,US,CPX,0,0
6729,ESPKS,03,55,KS,US,CPX,0,0
6729,HARKS,03,55,KS,US,CPX,0,0
6729,SHPKS,03,55,KS,US,CPX,0,0
6729,WICKS,03,55,KS,US,HUB,0,0
6749,MBIKS,03,55,KS,US,CPX,0,0
6749,SALKS,03,55,KS,US,HUB,0,0
6749,STSKS,03,55,KS,US,XPT,0,0
6750,GBEKS,03,55,KS,US,PKG,1,1
6751,HUTKS,03,55,KS,US,PKG,1,1
6760,HASKS,03,55,KS,US,PKG,1,1
6760,HAYKS,03,55,KS,US,XPT,0,0
6760,LTSKS,03,55,KS,US,XPT,0,0
6760,WAKKS,03,55,KS,US,XPT,0,0
6770,CBYKS,03,55,KS,US,PKG,1,1
6780,DODKS,03,55,KS,US,PKG,1,1
6781,GARKS,03,55,KS,US,PKG,1,1
6808,ORINE,03,56,NE,US,CSL,0,0
6819,FBTNE,03,56,NE,US,CPX,0,0
6819,HARNE,03,56,NE,US,CPX,0,0
6819,LOVNE,03,56,NE,US,CPX,0,0
6819,OMANE,03,56,NE,US,HUB,0,0
6819,OTCNE,03,56,NE,US,CPX,0,0
6819,OTGNE,03,56,NE,US,CPX,0,0
6819,PACNE,03,56,NE,US,CPX,0,0
6819,PEENE,03,56,NE,US,CPX,0,0
6819,PWMNE,03,56,NE,US,CPX,0,0
6819,TITNE,03,56,NE,US,CPX,0,0
6830,BEANE,03,56,NE,US,PKG,0,0
6842,AUBNE,03,56,NE,US,PKG,0,0
6850,ARINE,03,56,NE,US,CPX,0,0
6850,BUSNE,03,56,NE,US,CPX,0,0
6850,LENNE,03,56,NE,US,CPX,0,0
6850,LINNE,03,56,NE,US,PKG,0,0
6850,SHPNE,03,56,NE,US,CPX,0,0
6850,SPENE,03,56,NE,US,CPX,0,0
6860,BEHNE,03,56,NE,US,CPX,0,0
6860,COLNE,03,56,NE,US,PKG,0,0
6870,NORNE,03,56,NE,US,PKG,0,0
6871,BMFNE,03,56,NE,US,CPX,0,0
6871,ONENE,03,56,NE,US,PKG,0,0
6879,OMAAS,03,56,NE,US,APT,0,0
6880,BOSNE,03,56,NE,US,XPT,0,0
6880,GISNE,03,56,NE,US,PKG,0,0
6880,PETNE,03,56,NE,US,XPT,0,0
6880,TORNE,03,56,NE,US,CPX,0,0
6881,CBONE,03,56,NE,US,CPX,0,0
6881,ELMNE,03,56,NE,US,XPT,0,0
6881,JABNE,03,56,NE,US,CPX,0,0
6881,KEANE,03,56,NE,US,PKG,0,0
6882,BBONE,03,56,NE,US,PKG,0,0
6890,CRCNE,03,56,NE,US,CPX,0,0
6890,HASNE,03,56,NE,US,PKG,0,0
6890,PSCNE,03,56,NE,US,CPX,0,0
6900,MCONE,03,56,NE,US,PKG,0,0
6911,OGANE,03,56,NE,US,XPT,0,0
6911,SIDNE,03,56,NE,US,PKG,0,0
6919,NPLNE,03,56,NE,US,HUB,0,0
6919,RCPNE,03,56,NE,US,XPT,0,0
6930,ALLNE,03,56,NE,US,PKG,0,0
6931,SCONE,03,56,NE,US,PKG,0,0
7019,ICGLA,07,44,LA,US,RRY,0,0
7019,NORLA,07,44,LA,US,HUB,0,0
7019,NTSLA,07,44,LA,US,XPT,0,0
7020,HARLA,07,44,LA,US,PKG,0,0
7030,HOULA,07,44,LA,US,PKG,0,0
7031,GONLA,07,44,LA,US,PKG,1,1
7040,COVLA,07,44,LA,US,PKG,0,0
7045,HAMLA,07,44,LA,US,PKG,1,1
7045,HTSLA,07,44,LA,US,XPT,0,0
7049,EARLA,07,44,LA,US,HUB,0,0
7049,INTLA,07,44,LA,US,CPX,0,0
7049,PELLA,07,44,LA,US,CPX,0,0
7049,TAELA,07,44,LA,US,CPX,0,0
7050,LAFLA,07,44,LA,US,PKG,0,0
7050,STOLA,07,44,LA,US,CPX,0,0
7050,UTSLA,07,44,LA,US,XPT,0,0
7051,OPELA,07,44,LA,US,PKG,1,1
7052,NIBLA,07,44,LA,US,PKG,1,1
7069,LAKLA,07,44,LA,US,HUB,1,1
7070,BTGLA,07,44,LA,US,PKG,0,0
7080,BAKLA,07,44,LA,US,PKG,1,1
7080,C7ICC,07,44,LA,US,BTL,0,0
7089,EMDLA,07,44,LA,US,CPX,0,0
7089,GMCLA,07,44,LA,US,XPT,0,0
7089,NEILA,07,44,LA,US,CPX,0,0
7089,PORLA,07,44,LA,US,HUB,0,0
7109,SHVAS,07,44,LA,US,APT,0,0
7119,FRYLA,07,44,LA,US,CPX,0,0
7119,MINLA,07,44,LA,US,XPT,0,0
7119,SHRLA,07,44,LA,US,HUB,0,0
7119,SPSLA,07,44,LA,US,CPX,0,0
7119,TRALA,07,44,LA,US,CPX,0,0
7119,TVHLA,07,44,TX,US,CPX,0,0
7120,LVTLA,07,44,LA,US,XPT,0,0
7120,MONLA,07,44,LA,US,PKG,0,0
7122,DELLA,07,44,LA,US,PKG,1,1
7122,WCTLA,07,44,LA,US,XPT,0,0
7123,FRKLA,07,44,LA,US,CPX,0,0
7123,MTALA,07,44,LA,US,CPX,0,0
7123,RUSLA,07,44,LA,US,PKG,1,1
7130,ALELA,07,44,LA,US,PKG,1,1
7130,DITLA,07,44,LA,US,CPX,0,0
7140,NATLA,07,44,LA,US,PKG,1,1
7160,PBLAR,03,55,AR,US,PKG,1,1
7161,DERAR,03,55,AR,US,PKG,0,0
7161,EUDAR,03,55,AR,US,CPX,0,0
7170,EDOAR,03,55,AR,US,PKG,0,0
7171,CAMAR,03,55,AR,US,PKG,1,1
7180,TEXAR,03,55,AR,US,PKG,0,0
7190,HSPAR,03,55,AR,US,PKG,0,0
7190,LCAAR,03,55,AR,US,CPX,0,0
7190,MENAR,03,55,AR,US,PKG,0,0
7191,MALAR,03,55,AR,US,PKG,0,0
7200,CONAR,03,55,AR,US,PKG,0,0
7209,LITAP,03,55,AR,US,APT,0,0
7210,SERAR,03,55,AR,US,PKG,0,0
7229,ALMAR,03,55,AR,US,XPT,0,0
7229,C76RM,03,55,AR,US,BTL,0,0
7229,CBAAR,03,55,AR,US,CPX,0,0
7229,CLKAR,03,55,AR,US,XPT,0,0
7229,ESSAR,03,55,AR,US,CPX,0,0
7229,LITAR,03,55,AR,US,HUB,0,0
7229,LONAR,03,55,AR,US,XPT,0,0
7229,MAKAR,03,55,AR,US,XPT,0,0
7229,MCKAR,03,55,AR,US,CPX,0,0
7229,MYBAR,03,55,AR,US,CPX,0,0
7229,PREAR,03,55,AR,US,XPT,0,0
7229,RRTAR,03,55,AR,US,XPT,0,0
7229,SAJAR,03,55,AR,US,CPX,0,0
7229,SMOAR,03,55,AR,US,CPX,0,0
7229,STGAR,03,55,AR,US,CPX,0,0
7229,UCITN,03,55,TN,US,XPT,0,0
7229,VALAR,03,55,AR,US,XPT,0,0
7230,FCIAR,03,55,AR,US,PKG,0,0
7230,TELAR,03,55,AR,US,CPX,0,0
7231,BLYAR,03,55,AR,US,PKG,0,0
7231,BTPAR,03,55,AR,US,XPT,0,0
7231,OSSAR,03,55,AR,US,CPX,0,0
7240,JONAR,03,55,AR,US,PKG,0,0
7241,POCAR,03,55,AR,US,PKG,0,0
7250,BATAR,03,55,AR,US,PKG,0,0
7260,HARAR,03,55,AR,US,PKG,0,0
7263,MTNAR,03,55,AR,US,PKG,1,1
7270,SPRAR,03,55,AR,US,PKG,0,0
7270,WALAR,03,55,AR,US,CPX,0,0
7280,RUSAR,03,55,AR,US,PKG,0,0
7290,FSMAR,03,55,AR,US,PKG,0,0
7309,LTSOK,03,12,OK,US,XPT,0,0
7319,APMOK,03,12,OK,US,CPX,0,0
7319,BILOK,03,12,OK,US,XPT,0,0
7319,C75OK,03,12,OK,US,BTL,0,0
7319,CHIOK,03,12,OK,US,XPT,0,0
7319,COMOK,03,12,OK,US,CPX,0,0
7319,DUROK,03,12,OK,US,XPT,0,0
7319,FTCOK,03,12,OK,US,CPX,0,0
7319,HGROK,03,12,OK,US,CPX,0,0
7319,HPROK,03,12,OK,US,CPX,0,0
7319,LIGOK,03,12,OK,US,CPX,0,0
7319,MEDOK,03,12,OK,US,CPX,0,0
7319,OKLOK,03,12,OK,US,HUB,1,1
7319,ORIOK,03,12,OK,US,CPX,0,0
7319,PACOK,03,12,OK,US,CPX,0,0
7319,QGROK,03,12,OK,US,CPX,0,0
7319,STROK,03,12,OK,US,XPT,0,0
7319,TFIOK,03,12,OK,US,CPX,0,0
7319,VITOK,03,12,OK,US,CPX,0,0
7340,ARMOK,03,12,OK,US,PKG,1,1
7340,BEBOK,03,12,OK,US,CPX,0,0
7350,LAWOK,03,12,OK,US,PKG,1,1
7351,ALSOK,03,12,OK,US,PKG,0,0
7360,CLIOK,03,12,OK,US,PKG,0,0
7370,ENIOK,03,12,OK,US,PKG,1,1
7370,PTCOK,03,12,OK,US,CPX,0,0
7390,GUYOK,03,12,OK,US,PKG,0,0
7390,LUVOK,03,12,OK,US,XPT,0,0
7401,STIOK,03,12,OK,US,PKG,1,1
7419,MCYOK,03,12,OK,US,CPX,0,0
7419,TULOK,03,12,OK,US,HUB,1,1
7430,BCTOK,03,12,OK,US,XPT,0,0
7430,VINOK,03,12,OK,US,PKG,1,1
7440,CITOK,03,12,OK,US,XPT,0,0
7440,MUSOK,03,12,OK,US,PKG,1,1
7460,PONOK,03,12,OK,US,PKG,1,1
7470,HUGOK,03,12,OK,US,PKG,1,1
7480,SHAOK,03,12,OK,US,PKG,1,1
7492,ELKOK,03,12,OK,US,CPX,0,0
7492,SAIOK,03,12,OK,US,PKG,0,0
7492,SHLOK,03,12,OK,US,XPT,0,0
7502,SHRTX,03,12,TX,US,PKG,1,1
750AM,DFW9 ,03,12,TX,US,CSL,0,0
750HF,750HF,03,12,TX,US,CSL,0,0
7519,75CNG,03,12,TX,US,XPT,0,0
7519,BPRTX,03,12,TX,US,CPX,0,0
7519,BPSTX,03,12,TX,US,CPX,0,0
7519,BUFTX,03,12,TX,US,XPT,0,0
7519,C71LL,03,12,TX,US,BTL,0,0
7519,C7519,03,12,TX,US,BTL,0,0
7519,CAPTX,03,12,TX,US,CPX,0,0
7519,CFCTX,03,12,TX,US,CPX,0,0
7519,CRCTX,03,12,TX,US,XPT,0,0
7519,FOSTX,03,12,TX,US,CPX,0,0
7519,GJBTX,03,12,TX,US,CPX,0,0
7519,HUTTX,03,12,TX,US,XPT,0,0
7519,IEXTX,03,12,TX,US,XPT,0,0
7519,INOTX,03,12,TX,US,CPX,0,0
7519,JCPTX,03,12,TX,US,CPX,0,0
7519,KGSTX,03,12,TX,US,CPX,0,0
7519,LLPTX,03,12,TX,US,CPX,0,0
7519,MESTX,03,12,TX,US,HUB,0,0
7519,MOPTX,03,12,TX,US,RRY,0,0
7519,NUMTX,03,12,TX,US,CPX,0,0
7519,PRFTX,03,12,TX,US,CPX,0,0
7519,ROATX,03,12,TX,US,XPT,0,0
7519,RRDTX,03,12,TX,US,CPX,0,0
7519,SDITX,03,12,TX,US,CPX,0,0
7519,SPSTX,03,12,TX,US,CPX,0,0
7519,TRXTX,03,12,TX,US,CPX,0,0
7519,TWITX,03,12,TX,US,CPX,0,0
751AM,FTW2 ,03,12,TX,US,CSL,0,0
751WS,751WS,03,12,TX,US,CSL,0,0
7529,70ACY,03,12,TX,US,BTL,0,0
7529,ADITX,03,12,TX,US,CPX,0,0
7529,APLTX,03,12,TX,US,CPX,0,0
7529,AVITX,03,12,TX,US,CPX,0,0
7529,BBRTX,03,12,TX,US,CPX,0,0
7529,C70GP,03,12,TX,US,BTL,0,0
7529,C71NF,03,12,TX,US,BTL,0,0
7529,C74FT,03,12,TX,US,BTL,0,0
7529,C76OR,03,12,TX,US,BTL,0,0
7529,CSXTX,03,12,TX,US,CPX,0,0
7529,DALTX,03,12,TX,US,HUB,0,0
7529,DCITX,03,12,TX,US,CPX,0,0
7529,DDITX,03,12,TX,US,CPX,0,0
7529,DFMTX,03,12,TX,US,CPX,0,0
7529,EDOTX,03,12,TX,US,CPX,0,0
7529,FSSTX,03,12,TX,US,CPX,0,0
7529,GMLTX,03,12,TX,US,CPX,0,0
7529,GVATX,03,12,TX,US,CPX,0,0
7529,GVWTX,03,12,TX,US,CPX,0,0
7529,HLTTX,03,12,TX,US,CPX,0,0
7529,HTRTX,03,12,TX,US,CPX,0,0
7529,LACTX,03,12,TX,US,CPX,0,0
7529,LKQTX,03,12,TX,US,CPX,0,0
7529,LOLTX,03,12,TX,US,CPX,0,0
7529,MBFTX,03,12,TX,US,CPX,0,0
7529,MCDTX,03,12,TX,US,CPX,0,0
7529,MRKTX,03,12,TX,US,CPX,0,0
7529,NWXTX,03,12,TX,US,CPX,0,0
7529,OFDTX,03,12,TX,US,CPX,0,0
7529,OHKTX,03,12,TX,US,CPX,0,0
7529,OHLTX,03,12,TX,US,CPX,0,0
7529,OMGTX,03,12,TX,US,CPX,0,0
7529,PDCTX,03,12,TX,US,CPX,0,0
7529,SFATX,03,12,TX,US,RRY,0,0
7529,SRITX,03,12,TX,US,CPX,0,0
7529,ULTTX,03,12,TX,US,CPX,0,0
752AM,FTW1 ,03,12,TX,US,CSL,0,0
7535,MCITX,03,12,TX,US,PKG,0,0
7540,SSPTX,03,12,TX,US,PKG,1,1
7560,LONTX,03,12,TX,US,PKG,0,0
756AM,FTW6 ,03,12,TX,US,CSL,0,0
7570,TYLTX,03,12,TX,US,PKG,0,0
757AM,DFW5 ,03,12,TX,US,CSL,0,0
7580,PALTX,03,12,TX,US,PKG,1,1
7590,LUFTX,03,12,TX,US,PKG,0,0
7595,CKLTX,03,12,TX,US,HUB,0,0
7599,AELTX,03,12,TX,US,CPX,0,0
7599,ANDTX,03,12,TX,US,CPX,0,0
7599,APCTX,03,12,TX,US,XPT,0,0
7599,C72JC,03,12,TX,US,BTL,0,0
7599,C7BCC,03,12,TX,US,BTL,0,0
7599,CGFTX,03,12,TX,US,CPX,0,0
7599,ETUTX,03,12,TX,US,CPX,0,0
7599,INDTX,03,12,TX,US,HUB,0,0
7599,PADTX,03,12,TX,US,CPX,0,0
7599,PAGTX,03,12,TX,US,XPT,0,0
7599,RHOTX,03,12,TX,US,XPT,0,0
7599,ULNTX,03,12,TX,US,CPX,0,0
7599,WMBTX,03,12,TX,US,CPX,0,0
7599,WMWTX,03,12,TX,US,CPX,0,0
759GR,759GR,03,12,TX,US,CSL,0,0
7600,ALTTX,03,12,TX,US,PKG,1,1
7601,GNBRY,03,12,TX,US,PKG,1,1
7607,764HS,03,12,TX,US,CSL,0,0
7619,BHMTX,03,12,TX,US,CPX,0,0
7619,C77MO,03,12,TX,US,BTL,0,0
7619,CDXTX,03,12,TX,US,CPX,0,0
7619,FMCTX,03,12,TX,US,CPX,0,0
7619,FORTX,03,12,TX,US,HUB,0,0
7619,MOUTX,03,12,TX,US,CPX,0,0
7619,POITX,03,12,TX,US,CPX,0,0
7619,RPMTX,03,12,TX,US,CPX,0,0
761A,XUSB ,03,12,TX,US,CSL,0,0
761AM,FTW4 ,03,12,TX,US,CSL,0,0
7620,DENTX,03,12,TX,US,PKG,0,0
7631,VERTX,03,12,TX,US,PKG,1,1
7631,VRNTX,03,12,TX,US,XPT,0,0
7639,JSTTX,03,12,TX,US,XPT,0,0
7639,LATTX,03,12,TX,US,CPX,0,0
7639,MWDTX,03,12,TX,US,CPX,0,0
7639,WFATX,03,12,TX,US,HUB,0,0
7645,7645 ,03,12,TX,US,CSL,0,0
7649,DFWAS,03,12,TX,US,HUB,0,0
7649,FSMTX,03,12,TX,US,CPX,0,0
7649,GOPTX,03,12,TX,US,CPX,0,0
7649,HDSTX,03,12,TX,US,CPX,0,0
7649,JAFTX,03,12,TX,US,CPX,0,0
7649,MKSTX,03,12,TX,US,CPX,0,0
7649,MWITX,03,12,TX,US,CPX,0,0
7649,PNBTX,03,12,TX,US,CPX,0,0
764GA,764GA,03,12,TX,US,CSL,0,0
7652,BELTX,03,12,TX,US,PKG,0,1
7652,CPRTX,03,12,TX,US,CPX,0,1
7652,TEMTX,03,12,TX,US,XPT,0,1
7656,DFW6 ,03,12,TX,US,CSL,0,0
7657,DFW7 ,03,12,TX,US,CSL,0,0
7669,AUSAP,03,12,TX,US,APT,0,0
7670,WACTX,03,12,TX,US,PKG,1,1
7670,WTSTX,03,12,TX,US,XPT,0,1
7680,BROTX,03,12,TX,US,PKG,0,0
7690,SNGTX,03,12,TX,US,PKG,0,0
76STN,76STN,03,12,TX,US,CSL,0,0
76STR,76STR,03,12,TX,US,CSL,0,0
7709,ARSTX,03,12,TX,US,CPX,0,0
7709,ATLTX,03,12,TX,US,XPT,0,0
7709,BPTTX,03,12,TX,US,XPT,0,0
7709,BWMTX,03,12,TX,US,CPX,0,0
7709,C73LA,03,12,TX,US,BTL,0,0
7709,CARTX,03,12,TX,US,XPT,0,0
7709,CC2TX,03,12,TX,US,CPX,0,0
7709,CCBTX,03,12,TX,US,CPX,0,0
7709,CPLTX,03,12,TX,US,CPX,0,0
7709,HMYTX,03,12,TX,US,CPX,0,0
7709,HOUTX,03,12,TX,US,HUB,0,0
7709,LLYTX,03,12,TX,US,CPX,0,0
7709,LTWTX,03,12,TX,US,XPT,0,0
7709,MADTX,03,12,TX,US,XPT,0,0
7709,MDVTX,03,12,TX,US,CPX,0,0
7709,MKETX,03,12,TX,US,CPX,0,0
7709,MPRRH,03,12,TX,US,RRY,0,0
7709,NASTX,03,12,TX,US,CPX,0,0
7709,NOSTX,03,12,TX,US,CPX,0,0
7709,ODPTX,03,12,TX,US,CPX,0,0
7709,PHMTX,03,12,TX,US,CPX,0,0
7709,PRTTX,03,12,TX,US,CPX,0,0
7709,PSMTX,03,12,TX,US,CPX,0,0
7709,SHCTX,03,12,TX,US,CPX,0,0
7709,SPCTX,03,12,TX,US,CPX,0,0
7709,TADTX,03,12,TX,US,CPX,0,0
7709,TAFTX,03,12,TX,US,CPX,0,0
7709,TSATX,03,12,TX,US,CPX,0,0
7709,TTMTX,03,12,TX,US,XPT,0,0
7709,TWCTX,03,12,TX,US,CPX,0,0
7709,TYNTX,03,12,TX,US,CPX,0,0
7709,USNTX,03,12,TX,US,CPX,0,0
7709,WVETX,03,12,TX,US,CPX,0,0
7709,WYNTX,03,12,TX,US,CPX,0,0
7729,IAHAP,03,12,TX,US,APT,0,0
772AM,HOU2 ,03,12,TX,US,CSL,0,0
7730,CONTX,03,12,TX,US,PKG,0,0
773AM,HOU3 ,03,12,TX,US,CSL,0,0
7749,FRYTX,03,12,TX,US,CPX,0,0
7749,LNSTX,03,12,TX,US,CPX,0,0
7749,STATX,03,12,TX,US,HUB,0,0
7749,TRMTX,03,12,TX,US,CPX,0,0
7749,VWRTX,03,12,TX,US,CPX,0,0
7750,TEXTX,03,12,TX,US,PKG,1,1
7752,BAYTX,03,12,TX,US,PKG,1,1
7753,ANGTX,03,12,TX,US,PKG,1,1
7756,LCITX,03,12,TX,US,PKG,0,0
7759,C72CC,03,12,TX,US,BTL,0,0
7759,C72EL,03,12,TX,US,BTL,0,0
7759,MYKTX,03,12,TX,US,HUB,0,0
7760,PTATX,03,12,TX,US,PKG,1,1
7765,WLWTX,03,12,TX,US,HUB,0,0
7770,BEMTX,03,12,TX,US,PKG,1,1
7780,BRNTX,03,12,TX,US,PKG,0,0
7790,VICTX,03,12,TX,US,PKG,1,1
7800,C75HE,03,12,TX,US,BTL,0,1
7800,LARTX,03,12,TX,US,PKG,1,1
7801,CECTX,03,12,TX,US,CPX,0,0
7801,KERTX,03,12,TX,US,PKG,1,1
7805,PLETX,03,12,TX,US,PKG,1,1
7805,TBPTX,03,12,TX,US,XPT,0,0
7811,KNDTX,03,12,TX,US,PKG,1,1
7811,KRCTX,03,12,TX,US,XPT,0,0
7811,STDTX,03,12,TX,US,XPT,0,0
781A,SAT1 ,03,12,TX,US,CSL,0,0
7821,LVATX,03,12,TX,US,PKG,1,1
7829,77HCY,03,12,TX,US,BTL,0,0
7829,AIWTX,03,12,TX,US,CPX,0,0
7829,BSETX,03,12,TX,US,CPX,0,0
7829,C72SM,03,12,TX,US,BTL,0,0
7829,C75BV,03,12,TX,US,BTL,0,0
7829,C79CC,03,12,TX,US,BTL,0,0
7829,COLTX,03,12,TX,US,XPT,0,0
7829,FBDTX,03,12,TX,US,CPX,0,0
7829,FLATX,03,12,TX,US,XPT,0,0
7829,GEWTX,03,12,TX,US,XPT,0,0
7829,HEBTX,03,12,TX,US,CPX,0,0
7829,RWGTX,03,12,TX,US,CPX,0,0
7829,SANTX,03,12,TX,US,HUB,1,1
7829,SPRTX,03,12,TX,US,CPX,0,0
7829,STBTX,03,12,TX,US,CPX,0,0
7829,TNGTX,03,12,TX,US,CPX,0,0
7829,TWOTX,03,12,TX,US,CPX,0,0
7849,CORTX,03,12,TX,US,HUB,1,1
7849,REFTX,03,12,TX,US,XPT,0,0
7850,HARTX,03,12,TX,US,PKG,1,1
7850,IACTX,03,12,TX,US,CPX,0,0
7850,WCRTX,03,12,TX,US,CPX,0,0
7851,MCATX,03,12,TX,US,PKG,1,1
7852,BWNTX,03,12,TX,US,PKG,1,1
7852,DCHTX,03,12,TX,US,CPX,0,0
7852,EWATX,03,12,TX,US,CPX,0,0
7852,HMKTX,03,12,TX,US,CPX,0,0
7852,KECTX,03,12,TX,US,CPX,0,0
7852,TRITX,03,12,TX,US,CPX,0,0
7860,SMATX,03,12,TX,US,PKG,0,1
786AM,SAT2 ,03,12,TX,US,CSL,0,0
7871,OSETX,03,12,TX,US,PKG,0,0
7874,AUNTX,03,12,TX,US,PKG,0,0
7879,78HCY,03,12,TX,US,BTL,0,0
7879,AAC78,03,12,TX,US,CPX,0,0
7879,ATTTX,03,12,TX,US,CPX,0,0
7879,AUSTX,03,12,TX,US,HUB,0,0
7879,BCMTX,03,12,TX,US,CPX,0,0
7879,BESTX,03,12,TX,US,CPX,0,0
7879,CCLTX,03,12,TX,US,CPX,0,0
7879,CWGTX,03,12,TX,US,CPX,0,0
7879,ERATX,03,12,TX,US,CPX,0,0
7879,FLXTX,03,12,TX,US,CPX,0,0
7879,GTCTX,03,12,TX,US,CPX,0,0
7879,IMSTX,03,12,TX,US,CPX,0,0
7879,INLTX,03,12,TX,US,CPX,0,0
7879,KPTTX,03,12,TX,US,CPX,0,0
7879,KSTTX,03,12,TX,US,CPX,0,0
7879,LVDTX,03,12,TX,US,CPX,0,0
7879,PATTX,03,12,TX,US,CPX,0,0
7879,PEDTX,03,12,TX,US,CPX,0,0
7879,PRBTX,03,12,TX,US,CPX,0,0
7879,RKUTX,03,12,TX,US,CPX,0,0
7879,SFMTX,03,12,TX,US,CPX,0,0
7879,SHSTX,03,12,TX,US,CPX,0,0
7879,SHXTX,03,12,TX,US,CPX,0,0
7879,TABTX,03,12,TX,US,CPX,0,0
7879,TELTX,03,12,TX,US,CPX,0,0
7879,WDRTX,03,12,TX,US,CPX,0,0
7879,YETTX,03,12,TX,US,CPX,0,0
7880,DRITX,03,12,TX,US,PKG,1,1
7882,7882,03,12,TX,US,PKG,1,1
7884,UVATX,03,12,TX,US,PKG,1,1
7900,PAMTX,03,12,TX,US,PKG,1,1
7901,PLATX,03,12,TX,US,PKG,1,1
7901,WMTTX,03,12,TX,US,CPX,0,0
7919,SATAS,03,12,TX,US,APT,1,1
7939,ADRTX,03,12,TX,US,XPT,0,0
7939,AMATX,03,12,TX,US,HUB,0,0
7939,AMCTX,03,12,TX,US,CPX,0,0
7939,LIFTX,03,12,TX,US,CPX,0,0
7939,TAYTX,03,12,TX,US,XPT,0,0
7939,WILTX,03,12,TX,US,XPT,0,0
7940,LUBTX,03,12,TX,US,PKG,0,1
7940,OLNTX,03,12,TX,US,XPT,0,1
7960,ABITX,03,12,TX,US,PKG,0,0
7960,CXPTX,03,12,TX,US,XPT,0,0
7960,NWPTX,03,12,TX,US,CPX,0,0
7976,ODESA,03,12,TX,US,PKG,0,1
7979,MIDTX,03,12,TX,US,HUB,1,1
7980,APETX,03,12,TX,US,PKG,0,0
7999,ACBTX,03,12,TX,US,CPX,0,0
7999,ASYTX,03,12,TX,US,CPX,0,0
7999,BAKTX,03,12,TX,US,XPT,0,0
7999,BSRTX,03,12,TX,US,CPX,0,0
7999,C78IN,03,12,TX,US,BTL,0,0
7999,CFUTX,03,12,TX,US,CPX,0,0
7999,CVLTX,03,12,TX,US,CPX,0,0
7999,CVMTX,03,12,TX,US,CPX,0,0
7999,ELETX,03,12,TX,US,CPX,0,0
7999,EPATX,03,12,TX,US,HUB,0,0
7999,EPTTX,03,12,TX,US,CPX,0,0
7999,EXCTX,03,12,TX,US,CPX,0,0
7999,HPDTX,03,12,TX,US,CPX,0,0
7999,HWSTX,03,12,TX,US,CPX,0,0
7999,LUTTX,03,12,TX,US,CPX,0,0
7999,LXMTX,03,12,TX,US,CPX,0,0
7999,MXPTX,03,12,TX,US,XPT,0,0
7999,QUITX,03,12,TX,US,CPX,0,0
7999,SBATX,03,12,TX,US,CPX,0,0
7999,SUSTX,03,12,TX,US,CPX,0,0
7999,TORTX,03,12,TX,US,CPX,0,0
7999,WERTX,03,12,TX,US,CPX,0,0
7999,WRATX,03,12,TX,US,CPX,0,0
8010,EGLCO,03,95,CO,US,PKG,0,0
8010,OURCO,03,95,CO,US,CPX,0,0
8010,PEACO,03,95,CO,US,CPX,0,0
8029,BITCO,03,95,CO,US,CPX,0,0
8029,BRBCO,03,95,CO,US,CPX,0,0
8029,BURRD,03,95,CO,US,RRY,0,0
8029,C8029,03,95,CO,US,BTL,0,0
8029,CARCO,03,95,CO,US,CPX,0,0
8029,CEKCO,03,95,CO,US,CPX,0,0
8029,CENCO,03,95,CO,US,CPX,0,0
8029,COMCO,03,95,CO,US,CPX,0,0
8029,CTDCO,03,95,CO,US,CPX,0,0
8029,DCRCO,03,95,CO,US,XPT,0,0
8029,DENCO,03,95,CO,US,HUB,0,0
8029,DNECO,03,95,CO,US,CPX,0,0
8029,DOUWY,03,76,WY,US,XPT,0,0
8029,FTSCO,03,95,CO,US,XPT,0,0
8029,GMECO,03,95,CO,US,CPX,0,0
8029,HSCCO,03,95,CO,US,CPX,0,0
8029,JOHCO,03,95,CO,US,CPX,0,0
8029,KARCO,03,95,CO,US,CPX,0,0
8029,KETCO,03,95,CO,US,CPX,0,0
8029,KWWCO,03,95,CO,US,CPX,0,0
8029,LTRCO,03,95,CO,US,CPX,0,0
8029,MKSCO,03,95,CO,US,CPX,0,0
8029,MWICO,03,95,CO,US,CPX,0,0
8029,NMACO,03,95,CO,US,CPX,0,0
8029,PVSCO,03,95,CO,US,CPX,0,0
8029,QBOCO,03,95,CO,US,CPX,0,0
8029,QBPCO,03,95,CO,US,CPX,0,0
8029,RCACO,03,95,CO,US,CPX,0,0
8029,SOPCO,03,95,CO,US,CPX,0,0
8029,SUBCO,03,95,CO,US,CPX,0,0
8029,TAPCO,03,95,CO,US,CPX,0,0
8029,TGLCO,03,95,CO,US,CPX,0,0
8029,TIRCO,03,95,CO,US,CPX,0,0
8029,TUNCO,03,95,CO,US,CPX,0,0
8029,UPRRS,03,95,CO,US,RRY,0,0
8029,USTCO,03,95,CO,US,CPX,0,0
8029,VACCO,03,95,CO,US,CPX,0,0
8029,WMDCO,03,95,CO,US,CPX,0,0
8029,WWGCO,03,95,CO,US,CPX,0,0
8030,BOUCO,03,95,CO,US,PKG,0,0
8039,DIAAP,03,95,CO,US,APT,0,0
8040,SILCO,03,95,CO,US,PKG,0,0
8046,SSPCO,03,95,CO,US,PKG,0,0
8050,FCOCO,03,95,CO,US,PKG,0,0
8050,LVECO,03,95,CO,US,PKG,0,0
8057,JLACO,03,95,CO,US,CPX,0,0
8057,LONCO,03,95,CO,US,PKG,0,0
8063,GRECO,03,95,CO,US,PKG,0,0
8070,STECO,03,95,CO,US,PKG,0,0
8080,BRDCO,03,95,CO,US,CPX,0,0
8080,BURCO,03,95,CO,US,PKG,0,0
8095,COLCO,03,95,CO,US,PKG,0,0
8101,LAJCO,03,95,CO,US,PKG,1,1
8102,PUECO,03,95,CO,US,PKG,0,0
8105,LAMCO,03,95,CO,US,PKG,0,0
8109,TRICO,03,95,CO,US,HUB,0,0
8110,ALACO,03,95,CO,US,PKG,0,0
8120,SLDCO,03,95,CO,US,PKG,0,0
8121,GUNCO,03,95,CO,US,PKG,0,0
8130,BOICO,03,95,CO,US,XPT,0,0
8130,DURCO,03,95,CO,US,PKG,0,0
8137,GYPCO,03,95,CO,US,PKG,0,0
8140,MONCO,03,95,CO,US,PKG,0,0
8159,AFGCO,03,95,CO,US,XPT,0,0
8159,GRACO,03,95,CO,US,HUB,0,0
8161,EAGCO,03,95,CO,US,XPT,0,0
8161,GSPCO,03,95,CO,US,PKG,1,1
8161,RFLCO,03,95,CO,US,PKG,1,1
8162,CRACO,03,95,CO,US,PKG,0,0
8200,CHEWY,03,76,WY,US,PKG,0,1
8200,MAGWY,03,76,WY,US,CPX,0,1
8200,STCWY,03,76,WY,US,CPX,0,1
8201,LARWY,03,76,WY,US,PKG,0,0
8230,RAWWY,03,76,WY,US,PKG,1,1
8230,WEXWY,03,76,WY,US,XPT,0,0
8240,CODWY,03,76,WY,US,PKG,1,1
8240,THRWY,03,76,WY,US,PKG,0,0
8259,RIVWY,03,76,WY,US,HUB,1,1
8259,SHOWY,03,76,WY,US,XPT,0,0
8269,CASWY,03,76,WY,US,HUB,0,0
8269,OJUWY,03,76,WY,US,XPT,0,0
8270,GILWY,03,76,WY,US,PKG,0,0
8280,SHEWY,03,76,WY,US,PKG,0,0
8290,ROCWY,03,76,WY,US,PKG,0,0
8293,EVAWY,03,76,WY,US,PKG,0,0
8300,JACWY,03,76,WY,US,PKG,0,0
8320,PCTID,03,76,ID,US,PKG,0,1
8321,SODID,03,76,ID,US,PKG,0,0
8329,BCYAP,03,76,ID,US,APT,0,0
8329,FBEOR,03,76,OR,US,XPT,0,0
8329,HBEID,03,76,ID,US,XPT,0,0
8329,JVAID,03,76,ID,US,XPT,0,0
8329,WPOID,03,76,ID,US,CPX,0,0
8331,BURLY,03,76,ID,US,PKG,0,0
8332,HAILY,03,76,ID,US,PKG,1,1
8339,FLJID,03,76,ID,US,XPT,0,0
8339,HOMID,03,76,ID,US,CPX,0,0
8339,SBLID,03,76,ID,US,XPT,0,0
8339,TWIID,03,76,ID,US,HUB,0,0
8346,ARPID,03,76,ID,US,CPX,0,0
8346,DUBID,03,76,ID,US,XPT,0,0
8346,REXID,03,76,ID,US,PKG,1,1
8349,ANDID,03,76,ID,US,CPX,0,0
8349,IDAID,03,76,ID,US,HUB,0,0
8349,KYIID,03,76,ID,US,CPX,0,0
8349,STPID,03,76,ID,US,CPX,0,0
8350,FRMID,03,76,ID,US,CPX,0,0
8350,LEWID,03,76,ID,US,PKG,0,0
8351,GRAID,03,76,ID,US,PKG,1,1
8360,MTHOM,03,76,ID,US,PKG,0,0
8361,MCCAL,03,76,ID,US,PKG,0,0
8362,PAYET,03,76,ID,US,PKG,1,1
8363,KMEID,03,76,ID,US,CPX,0,0
8363,MWIID,03,76,ID,US,CPX,0,0
8363,NAPID,03,76,ID,US,PKG,0,0
8379,ALBID,03,76,ID,US,CPX,0,0
8379,BCRID,03,76,ID,US,XPT,0,0
8379,BOIID,03,76,ID,US,HUB,0,0
8379,EDNID,03,76,ID,US,XPT,0,0
8379,SCTID,03,76,ID,US,CPX,0,0
8379,TRGID,03,76,ID,US,CPX,0,0
8380,CDAID,03,76,ID,US,PKG,1,1
8380,STAWA,03,76,WA,US,XPT,0,1
8383,SNDID,03,76,ID,US,PKG,1,1
8400,ROOUT,03,95,UT,US,PKG,0,0
8419,ANCUT,03,95,UT,US,CPX,0,0
8419,BAIUT,03,95,UT,US,CPX,0,0
8419,BCUUT,03,95,UT,US,CPX,0,0
8419,BLUUT,03,95,UT,US,CPX,0,0
8419,CONUT,03,95,UT,US,CPX,0,0
8419,DASUT,03,95,UT,US,CPX,0,0
8419,HEAUT,03,95,UT,US,CPX,0,0
8419,ICCUT,03,95,UT,US,CPX,0,0
8419,ICGUT,03,95,UT,US,CPX,0,0
8419,INKUT,03,95,UT,US,CPX,0,0
8419,KNSUT,03,95,UT,US,CPX,0,0
8419,LELUT,03,95,UT,US,CPX,0,0
8419,LMMUT,03,95,UT,US,CPX,0,0
8419,MAGUT,03,95,UT,US,CPX,0,0
8419,OSTUT,03,95,UT,US,CPX,0,0
8419,PAGUT,03,95,UT,US,CPX,0,0
8419,PZLUT,03,95,UT,US,CPX,0,0
8419,RALUT,03,95,UT,US,CPX,0,0
8419,RBSUT,03,95,UT,US,CPX,0,0
8419,RWIUT,03,95,UT,US,CPX,0,0
8419,SALUT,03,95,UT,US,HUB,0,0
8419,SEPUT,03,95,UT,US,CPX,0,0
8419,SHAUT,03,95,UT,US,CPX,0,0
8419,SHOUT,03,95,UT,US,CPX,0,0
8419,SPRUT,03,95,UT,US,CPX,0,0
8419,STRUT,03,95,UT,US,CPX,0,0
8419,UABUT,03,95,UT,US,CPX,0,0
8419,UPRUT,03,95,UT,US,RRY,0,0
8419,WEDUT,03,95,UT,US,CPX,0,0
8419,YOLUT,03,95,UT,US,CPX,0,0
8419,ZIJUT,03,95,UT,US,CPX,0,0
8419,ZRIUT,03,95,UT,US,CPX,0,0
8421,8421,03,95,UT,US,PKG,0,0
8429,SLTAS,03,95,UT,US,APT,0,0
8430,CMPUT,03,95,UT,US,CPX,0,0
8430,CPSUT,03,95,UT,US,CPX,0,0
8430,LGNUT,03,95,UT,US,PKG,1,1
8440,LPRUT,03,95,UT,US,CPX,0,0
8440,OGDUT,03,95,UT,US,PKG,0,0
8443,BEVUT,03,95,UT,US,PKG,0,0
8450,GRIUT,03,95,UT,US,APT,0,0
8450,PREUT,03,95,UT,US,PKG,0,0
8451,MOBUT,03,95,UT,US,PKG,0,0
8459,LKEUT,03,95,UT,US,HUB,0,0
8460,NSUUT,03,95,UT,US,CPX,0,0
8460,PROUT,03,95,UT,US,PKG,0,0
8460,SHEUT,03,95,UT,US,CPX,0,0
8461,DTAUT,03,95,UT,US,PKG,0,0
8470,CEDUT,03,95,UT,US,PKG,0,0
8471,SAIUT,03,95,UT,US,PKG,0,0
8471,WILUT,03,95,UT,US,CPX,0,0
8472,CKAUT,03,95,UT,US,PKG,0,1
8472,HURUT,03,95,UT,US,XPT,0,1
8472,ORGUT,03,95,UT,US,CPX,0,1
8472,SGEUT,03,95,UT,US,PKG,0,1
8509,AABAZ,03,95,AZ,US,CPX,0,0
8509,AMEAZ,03,95,AZ,US,CPX,0,0
8509,ANTAZ,03,95,AZ,US,CPX,0,0
8509,AVMAZ,03,95,AZ,US,CPX,0,0
8509,AVPAZ,03,95,AZ,US,CPX,0,0
8509,CBCAZ,03,95,AZ,US,CPX,0,0
8509,CFUAZ,03,95,AZ,US,CPX,0,0
8509,CO2AZ,03,95,AZ,US,CPX,0,0
8509,CONAZ,03,95,AZ,US,CPX,0,0
8509,CSTAZ,03,95,AZ,US,CPX,0,0
8509,ESSAZ,03,95,AZ,US,CPX,0,0
8509,FLYAZ,03,95,AZ,US,XPT,0,0
8509,GDCAZ,03,95,AZ,US,CPX,0,0
8509,HBIAZ,03,95,AZ,US,CPX,0,0
8509,HDSAZ,03,95,AZ,US,CPX,0,0
8509,IVLAZ,03,95,AZ,US,CPX,0,0
8509,JACAZ,03,95,AZ,US,CPX,0,0
8509,LMIAZ,03,95,AZ,US,CPX,0,0
8509,MACAZ,03,95,AZ,US,CSL,0,0
8509,MCYAZ,03,95,AZ,US,CPX,0,0
8509,NPUAZ,03,95,AZ,US,CPX,0,0
8509,OFDAZ,03,95,AZ,US,CPX,0,0
8509,PHOAZ,03,95,AZ,US,HUB,0,0
8509,QUAAZ,03,95,AZ,US,XPT,0,0
8509,REIAZ,03,95,AZ,US,CPX,0,0
8509,S31AZ,03,95,AZ,US,CPX,0,0
8509,S34AZ,03,95,AZ,US,CPX,0,0
8509,SANAZ,03,95,AZ,US,CPX,0,0
8509,SFRRR,03,95,AZ,US,RRY,0,0
8509,SHUAZ,03,95,AZ,US,CPX,0,0
8509,SMIAZ,03,95,AZ,US,CPX,0,0
8509,SPRAZ,03,95,AZ,US,CPX,0,0
8509,SSIAZ,03,95,AZ,US,XPT,0,0
8509,VSDAZ,03,95,AZ,US,CPX,0,0
8509,WARAZ,03,95,AZ,US,CPX,0,0
8509,WFSAZ,03,95,AZ,US,CPX,0,0
8509,WIKAZ,03,95,AZ,US,XPT,0,0
8509,WILAZ,03,95,AZ,US,XPT,0,0
8509,WINAZ,03,95,AZ,US,XPT,0,0
8509,XUSAZ,03,95,AZ,US,CPX,0,0
850AM,XUSH ,03,95,AZ,US,CSL,0,0
850CB,CBIAZ,03,95,AZ,US,CSL,0,0
8519,PHXAS,03,95,AZ,US,APT,0,0
8521,MESAZ,03,95,AZ,US,PKG,0,0
8523,C84CF,03,95,AZ,US,BTL,0,0
8523,CGRAZ,03,95,AZ,US,PKG,0,0
8529,BSUAZ,03,95,AZ,US,CPX,0,0
8529,DTIAZ,03,95,AZ,US,CPX,0,0
8529,ESIAZ,03,95,AZ,US,CPX,0,0
8529,KANAZ,03,95,AZ,US,CPX,0,0
8529,MELAZ,03,95,AZ,US,CPX,0,0
8529,MMEAZ,03,95,AZ,US,CPX,0,0
8529,TEMAZ,03,95,AZ,US,HUB,0,0
8529,TRIAZ,03,95,AZ,US,CPX,0,0
8530,YUMAZ,03,95,AZ,US,PKG,0,0
8531,PNIAZ,03,95,AZ,US,PKG,0,1
8531,WICAZ,03,95,AZ,US,PKG,0,1
8550,GLOAZ,03,95,AZ,US,PKG,0,0
8551,SAFAZ,03,95,AZ,US,PKG,0,0
8552,PAYAZ,03,95,AZ,US,PKG,0,0
8556,PHX6 ,03,95,AZ,US,CSL,0,0
8557,PHX7 ,03,95,AZ,US,CSL,0,0
8560,SVIAZ,03,95,AZ,US,PKG,0,0
8565,NOGAZ,03,95,AZ,US,PKG,0,0
8579,CHMAZ,03,95,AZ,US,CPX,0,0
8579,GENAZ,03,95,AZ,US,CPX,0,0
8579,RRGAZ,03,95,AZ,US,CPX,0,0
8579,RRPAZ,03,95,AZ,US,CPX,0,0
8579,TRGAZ,03,95,AZ,US,CPX,0,0
8579,TUCAZ,03,95,AZ,US,HUB,0,0
8590,SLOAZ,03,95,AZ,US,PKG,0,0
8597,PHX3 ,03,95,AZ,US,CSL,0,0
8598,PHX5 ,03,95,AZ,US,CSL,0,0
8600,FLAAZ,03,95,AZ,US,PKG,0,0
8601,HOLAZ,03,95,AZ,US,PKG,0,0
8602,PAGAZ,03,95,AZ,US,PKG,0,0
8630,PRSAZ,03,95,AZ,US,PKG,0,0
8631,CVEAZ,03,95,AZ,US,PKG,0,0
8640,AWOAZ,03,95,AZ,US,CPX,0,0
8640,KINAZ,03,95,AZ,US,PKG,0,0
8641,LHAAZ,03,95,AZ,US,PKG,0,0
8644,RIVAZ,03,95,AZ,US,PKG,0,0
8700,GRNTS,03,95,NM,US,PKG,0,0
8701,CUBA,03,95,NM,US,PKG,0,0
8711,88MY ,03,95,NM,US,XPT,0,0
8711,ASPNM,03,95,NM,US,PKG,0,0
8711,VAUNM,03,95,NM,US,XPT,0,0
8719,81CCY,03,95,NM,US,BTL,0,0
8719,ADCNM,03,95,NM,US,CPX,0,0
8719,ALBNM,03,95,NM,US,HUB,0,0
8719,BELNM,03,95,NM,US,XPT,0,0
8719,CTSNM,03,95,NM,US,XPT,0,0
8719,HCONM,03,95,NM,US,XPT,0,0
8719,LCPNM,03,95,NM,US,XPT,0,0
8719,MELNM,03,95,NM,US,XPT,0,0
8719,RGJNM,03,95,NM,US,CPX,0,0
8719,RTTNM,03,95,NM,US,XPT,0,0
8719,SFRRQ,03,95,NM,US,RRY,0,0
8729,ABQAS,03,95,NM,US,APT,0,0
8730,GALLP,03,95,NM,US,PKG,0,0
8730,NTCAZ,03,95,AZ,US,XPT,0,0
8740,FARNM,03,95,NM,US,PKG,0,0
8750,SFENM,03,95,NM,US,PKG,0,0
8751,EXPNM,03,95,NM,US,XPT,0,0
8751,TAONM,03,95,NM,US,PKG,0,0
8770,SPRNM,03,95,NM,US,PKG,0,0
8771,LASVG,03,95,NM,US,PKG,0,0
8780,SOCRO,03,95,NM,US,PKG,0,0
8780,TOCNM,03,95,NM,US,XPT,0,0
8800,HATNM,03,95,NM,US,XPT,0,0
8800,LCRNM,03,95,NM,US,PKG,0,0
8801,SILCY,03,95,NM,US,PKG,0,0
8802,DEMNG,03,95,NM,US,PKG,0,0
8810,CLOVS,03,95,NM,US,PKG,0,0
8820,MEXNM,03,95,NM,US,XPT,0,0
8820,RFUNM,03,95,NM,US,XPT,0,0
8820,ROSWL,03,95,NM,US,PKG,0,0
8821,CARNM,03,95,NM,US,PKG,0,0
8822,HOBBS,03,95,NM,US,PKG,0,0
8830,ALMNM,03,95,NM,US,PKG,0,0
8840,FSUMN,03,95,NM,US,XPT,0,0
8840,TUCNM,03,95,NM,US,PKG,0,0
8900,TONNV,03,92,NV,US,PKG,1,1
8909,ALPNV,03,92,NV,US,CPX,0,1
8909,AM6NV,03,92,NV,US,CPX,0,1
8909,AMONV,03,92,NV,US,CPX,0,1
8909,AMSNV,03,92,NV,US,CPX,0,1
8909,AWENV,03,92,NV,US,CPX,0,1
8909,BPSNV,03,92,NV,US,CPX,0,1
8909,BRINV,03,92,NV,US,CPX,0,1
8909,BRMNV,03,92,NV,US,CPX,0,1
8909,DIMNV,03,92,NV,US,CPX,0,1
8909,FMPNV,03,92,NV,US,CPX,0,1
8909,HDSNV,03,92,NV,US,CPX,0,1
8909,HRCNV,03,95,NV,US,XPT,0,1
8909,IMTNV,03,92,NV,US,CPX,0,1
8909,IRNNV,03,92,NV,US,CPX,0,1
8909,KLRNV,03,92,NV,US,CPX,0,1
8909,KRMNV,03,92,NV,US,CPX,0,1
8909,LIQNV,03,92,NV,US,CPX,0,1
8909,LVENV,03,92,NV,US,HUB,0,1
8909,NRMNV,03,92,NV,US,CPX,0,1
8909,ORGNV,03,92,NV,US,CPX,0,1
8909,PBMNV,03,92,NV,US,CPX,0,1
8909,RUBNV,03,92,NV,US,CPX,0,1
8909,RVZNV,03,92,NV,US,CPX,0,1
8909,RYMNV,03,92,NV,US,CPX,0,1
8909,SNTNV,03,92,NV,US,CPX,0,1
8909,STBNV,03,92,NV,US,CPX,0,1
8909,TARNV,03,92,NV,US,CPX,0,1
8909,TBMNV,03,92,NV,US,CPX,0,1
8909,TDNNV,03,92,NV,US,CPX,0,1
8909,VENNV,03,92,NV,US,CPX,0,1
8909,WEBNV,03,92,NV,US,CPX,0,1
8909,WLDNV,03,92,NV,US,CPX,0,1
8909,XTDNV,03,92,NV,US,CPX,0,1
8919,BOXNV,03,92,NV,US,CPX,0,1
8919,C81PW,03,92,NV,US,BTL,0,1
8919,CDXNV,03,92,NV,US,CPX,0,1
8919,EUSNV,03,92,NV,US,CPX,0,1
8919,LASNV,03,92,NV,US,HUB,0,1
8919,MSQNV,03,92,NV,US,XPT,0,1
8919,PCANV,03,92,NV,US,CPX,0,1
8919,STANV,03,92,NV,US,XPT,0,1
8930,ELYNV,03,86,NV,US,PKG,1,1
8939,LGNOR,03,76,OR,US,HUB,0,0
8940,CLNNV,03,86,NV,US,XPT,0,0
8940,WINNV,03,86,NV,US,PKG,1,1
8941,FALNV,03,86,NV,US,PKG,1,1
8959,81NCY,03,86,NV,US,BTL,0,0
8959,ADINV,03,86,NV,US,CPX,0,0
8959,AMANV,03,86,NV,US,CPX,0,0
8959,AMBNV,03,86,NV,US,CPX,0,0
8959,AMUNV,03,86,NV,US,CPX,0,0
8959,ANXNV,03,86,NV,US,CPX,0,0
8959,APLNV,03,86,NV,US,CPX,0,0
8959,ARRNV,03,86,NV,US,CPX,0,0
8959,BENNV,03,86,NV,US,CPX,0,0
8959,BKTNV,03,86,NV,US,CPX,0,0
8959,BLZNV,03,86,NV,US,CPX,0,0
8959,BNONV,03,86,NV,US,CPX,0,0
8959,BRKNV,03,86,NV,US,CPX,0,0
8959,BWHNV,03,86,NV,US,CPX,0,0
8959,CCPNV,03,86,NV,US,CPX,0,0
8959,CDLNV,03,86,NV,US,CPX,0,0
8959,CIRNV,03,86,NV,US,CPX,0,0
8959,CLINV,03,86,NV,US,CPX,0,0
8959,DARNV,03,86,NV,US,CPX,0,0
8959,DULNV,03,86,NV,US,CPX,0,0
8959,ECHNV,03,86,NV,US,CPX,0,0
8959,FOSNV,03,86,NV,US,CPX,0,0
8959,GCONV,03,86,NV,US,CPX,0,0
8959,HOBNV,03,86,NV,US,CPX,0,0
8959,HOPNV,03,86,NV,US,CPX,0,0
8959,HS1NV,03,86,NV,US,CPX,0,0
8959,HSCNV,03,86,NV,US,CPX,0,0
8959,ITSNV,03,86,NV,US,CPX,0,0
8959,JETNV,03,86,NV,US,CPX,0,0
8959,KIMNV,03,86,NV,US,CPX,0,0
8959,LAWNV,03,86,NV,US,CPX,0,0
8959,LEGNV,03,86,NV,US,CPX,0,0
8959,LIFNV,03,86,NV,US,CPX,0,0
8959,LOVNV,03,86,NV,US,XPT,0,0
8959,MCDNV,03,86,NV,US,XPT,0,0
8959,MSCNV,03,86,NV,US,CPX,0,0
8959,MTRNV,03,86,NV,US,CPX,0,0
8959,MXINV,03,86,NV,US,CPX,0,0
8959,NDSNV,03,86,NV,US,CPX,0,0
8959,NEWCA,03,86,CA,US,XPT,0,0
8959,NYACA,03,86,CA,US,XPT,0,0
8959,ORXNV,03,86,NV,US,XPT,0,0
8959,PETNV,03,86,NV,US,CPX,0,0
8959,PFINV,03,86,NV,US,CPX,0,0
8959,PRINV,03,86,NV,US,CPX,0,0
8959,PTGNV,03,86,NV,US,CPX,0,0
8959,QESNV,03,86,NV,US,CPX,0,0
8959,RADNV,03,86,NV,US,CPX,0,0
8959,RENNV,03,86,NV,US,HUB,0,0
8959,RSPNV,03,86,NV,US,RRY,0,0
8959,SANNV,03,86,NV,US,CPX,0,0
8959,SCHNV,03,86,NV,US,CPX,0,0
8959,SCRNV,03,86,NV,US,CPX,0,0
8959,SULNV,03,86,NV,US,CPX,0,0
8959,SUMNV,03,86,NV,US,CPX,0,0
8959,TESNV,03,86,NV,US,CPX,0,0
8959,TRINV,03,86,NV,US,CPX,0,0
8959,UOUNV,03,86,NV,US,CPX,0,0
8959,WNZNV,03,86,NV,US,CPX,0,0
8959,WORNV,03,86,NV,US,CPX,0,0
8959,WWLNV,03,86,NV,US,CPX,0,0
8979,RNOAS,03,86,NV,US,APT,0,0
8980,ELKNV,03,86,NV,US,PKG,1,1
9003,BAYCA,03,92,CA,US,PKG,1,1
9009,OLYCA,03,92,CA,US,HUB,0,0
9019,90WCY,03,92,CA,US,BTL,0,0
9019,AACCA,03,92,CA,US,CPX,0,0
9019,ADRCA,03,92,CA,US,CPX,0,0
9019,ATHCA,03,92,CA,US,CPX,0,0
9019,BICCA,03,92,CA,US,CPX,0,0
9019,C90MB,03,92,CA,US,BTL,0,0
9019,DFSCA,03,92,CA,US,CPX,0,0
9019,DPDCA,03,92,CA,US,CPX,0,0
9019,ELRCA,03,92,CA,US,CPX,0,0
9019,HOTCA,03,92,CA,US,CPX,0,0
9019,MDBCA,03,92,CA,US,CPX,0,0
9019,MGLCA,03,92,CA,US,CPX,0,0
9019,MOSCA,03,92,CA,US,CPX,0,0
9019,MSTCA,03,92,CA,US,HUB,0,0
9019,NACCA,03,92,CA,US,CPX,0,0
9019,NTRCA,03,92,CA,US,CPX,0,0
9019,QLMCA,03,92,CA,US,CPX,0,0
9019,SFNCA,03,92,CA,US,CPX,0,0
9019,TWXCA,03,92,CA,US,CPX,0,0
9019,WCTCA,03,92,CA,US,CPX,0,0
9020,CPTCA,03,92,CA,US,HUB,0,0
9029,ATSFR,03,92,CA,US,RRY,0,0
9029,GVICA,03,92,CA,US,HUB,0,0
9029,SPACR,03,92,CA,US,RRY,0,0
9029,UPACR,03,92,CA,US,RRY,0,0
9039,BLLCA,03,92,CA,US,HUB,0,0
9056,PREG ,03,92,CA,US,275,0,0
9069,C90NA,03,92,CA,US,BTL,0,0
9069,CABCA,03,92,CA,US,CPX,0,0
9069,CERCA,03,92,CA,US,HUB,0,0
9069,CNNCA,03,92,CA,US,CPX,0,0
9069,KMTCA,03,92,CA,US,CPX,0,0
9069,MCRCA,03,92,CA,US,CPX,0,0
9069,MYFCA,03,92,CA,US,CPX,0,0
9069,NOBCA,03,92,CA,US,CPX,0,0
9069,OEICA,03,92,CA,US,CPX,0,0
9069,PROCA,03,92,CA,US,CPX,0,0
9069,R1CCA,03,92,CA,US,CPX,0,0
9069,SGWCA,03,92,CA,US,CPX,0,0
9069,SRECA,03,92,CA,US,CPX,0,0
9069,TMECA,03,92,CA,US,CPX,0,0
9079,LGBAP,03,92,CA,US,APT,0,0
9089,EGLCA,03,92,CA,US,CPX,0,0
9089,GARCA,03,92,CA,US,HUB,0,0
9089,PUMCA,03,92,CA,US,CPX,0,0
9089,SEVCA,03,92,CA,US,CPX,0,0
9089,TOACA,03,92,CA,US,CPX,0,0
9132,EOXCA,03,92,CA,US,CPX,0,0
9132,KNRCA,03,92,CA,US,CPX,0,0
9132,NPACA,03,92,CA,US,PKG,0,0
9132,PNTCA,03,92,CA,US,CPX,0,0
9132,PPSCA,03,92,CA,US,CPX,0,0
9132,RYCCA,03,92,CA,US,CPX,0,0
9132,SDCCA,03,92,CA,US,CPX,0,0
9132,SGPCA,03,92,CA,US,CPX,0,0
9139,BCMCA,03,92,CA,US,CPX,0,0
9139,DMECA,03,92,CA,US,CPX,0,0
9139,GTPCA,03,92,CA,US,CPX,0,0
9139,LPGCA,03,92,CA,US,CPX,0,0
9139,RLICA,03,92,CA,US,CPX,0,0
9139,SFECA,03,92,CA,US,HUB,0,0
9149,AMACA,03,92,CA,US,CPX,0,0
9149,VANCA,03,92,CA,US,HUB,0,0
9159,WAHCA,03,92,CA,US,HUB,0,0
9169,92BCY,03,92,CA,US,BTL,0,0
9169,C98NA,03,92,CA,US,BTL,0,0
9169,CSMCA,03,92,CA,US,XPT,0,0
9169,ESDCA,03,92,CA,US,CPX,0,0
9169,HRJCA,03,92,CA,US,CPX,0,0
9169,INDCA,03,92,CA,US,XPT,0,0
9169,LGB8 ,03,92,CA,US,CPX,0,0
9169,LNGCA,03,92,CA,US,XPT,0,0
9169,MTACA,03,92,CA,US,CPX,0,0
9169,ONTCA,03,92,CA,US,HUB,0,0
9169,SKRCA,03,92,CA,US,CPX,0,0
9169,ULNCA,03,92,CA,US,CPX,0,0
9169,UTMCA,03,92,CA,US,CPX,0,0
9179,AARCA,03,92,CA,US,CPX,0,0
9179,DVNCA,03,92,CA,US,CPX,0,0
9179,EMNCA,03,92,CA,US,CPX,0,0
9179,HTOCA,03,92,CA,US,CPX,0,0
9179,SFCRR,03,92,CA,US,RRY,0,0
9179,SGACA,03,92,CA,US,HUB,0,0
9179,SHACA,03,92,CA,US,CPX,0,0
9179,TIRCA,03,92,CA,US,CPX,0,0
9187,C90SO,03,92,CA,US,BTL,0,0
9187,MRNCA,03,92,CA,US,HUB,0,0
9209,BLGCA,03,92,CA,US,CPX,0,1
9209,CSTCA,03,92,CA,US,CPX,0,1
9209,DIGCA,03,92,CA,US,CPX,0,1
9209,EHCCA,03,92,CA,US,CPX,0,1
9209,MPOCA,03,92,CA,US,CPX,0,1
9209,OVHCA,03,92,CA,US,CPX,0,1
9209,SDHCA,03,92,CA,US,CPX,0,1
9209,SMRCA,03,92,CA,US,HUB,0,1
9209,TEACA,03,92,CA,US,CPX,0,1
9209,VOXCA,03,92,CA,US,CPX,0,1
9209,WAKCA,03,92,CA,US,CPX,0,1
9219,BYECA,03,92,CA,US,CPX,0,0
9219,CHFCA,03,92,CA,US,CPX,0,0
9219,CLSCA,03,92,CA,US,CPX,0,0
9219,LFICA,03,92,CA,US,CPX,0,0
9219,MOUNT,03,92,CA,US,CPX,0,0
9219,MSNCA,03,92,CA,US,CPX,0,0
9219,PLGCA,03,92,CA,US,CPX,0,0
9219,SDICA,03,92,CA,US,HUB,0,0
9219,SOSCA,03,92,CA,US,CPX,0,0
9219,TCGCA,03,92,CA,US,CPX,0,0
9219,TLRCA,03,92,CA,US,CPX,0,0
9219,VANDU,03,92,CA,US,CPX,0,0
9220,PSPCA,03,92,CA,US,PKG,1,1
9221,ECNTC,03,92,CA,US,PKG,0,0
9221,HPCCA,03,92,CA,US,CPX,0,0
9221,MJOCA,03,92,CA,US,CPX,0,0
9222,BLYCA,03,92,CA,US,PKG,1,1
9222,BLYTE,03,92,CA,US,XPT,0,0
9231,ONT8C,03,92,CA,US,CPX,0,1
9231,TEMCA,03,92,CA,US,PKG,0,1
9232,BARCA,03,92,CA,US,PKG,0,0
9234,VICCA,03,92,CA,US,PKG,0,0
9234,VIXCA,03,92,CA,US,XPT,0,0
9240,97SCY,03,92,CA,US,BTL,0,0
9240,SBECA,03,92,CA,US,PKG,0,0
9259,94ICY,03,92,CA,US,BTL,0,0
9259,CVICA,03,92,CA,US,HUB,1,1
9259,HONCA,03,92,CA,US,CPX,0,0
9259,MCXCA,03,92,CA,US,CPX,0,0
925AM,ONT6 ,03,92,CA,US,CSL,0,0
9269,ABNCA,03,92,CA,US,CPX,0,0
9269,AMDCA,03,92,CA,US,CPX,0,0
9269,APMCA,03,92,CA,US,CPX,0,0
9269,BILCA,03,92,CA,US,CPX,0,0
9269,HMTCA,03,92,CA,US,CPX,0,0
9269,HPOCA,03,92,CA,US,CPX,0,0
9269,LAGCA,03,92,CA,US,HUB,0,0
9269,RIPCA,03,92,CA,US,CPX,0,0
9269,WTPCA,03,92,CA,US,CPX,0,0
9279,AGNCA,03,92,CA,US,CPX,0,0
9279,ANACA,03,92,CA,US,HUB,1,1
9279,ANXCA,03,92,CA,US,CPX,0,0
9279,DPSCA,03,92,CA,US,CPX,0,0
9279,EVACA,03,92,CA,US,CPX,0,0
9279,EXDCA,03,92,CA,US,CPX,0,0
9279,IMVAN,03,92,CA,US,CPX,0,0
9279,KONCA,03,92,CA,US,CPX,0,0
9279,MBUCA,03,92,CA,US,CPX,0,0
9279,PLSCA,03,92,CA,US,CPX,0,0
9279,PWECA,03,92,CA,US,CPX,0,0
9300,ACCCA,03,92,CA,US,CPX,0,1
9300,CDTCA,03,92,CA,US,CPX,0,1
9300,NPRCA,03,92,CA,US,CPX,0,1
9300,SCYCA,03,92,CA,US,CPX,0,1
9300,VENCA,03,92,CA,US,PKG,0,1
9310,A51CA,03,92,CA,US,XPT,0,1
9310,SBARC,03,92,CA,US,PKG,0,1
931AM,FAT1 ,03,86,CA,US,CSL,0,0
9320,ALCCA,03,86,CA,US,CPX,0,1
9320,ANHCA,03,86,CA,US,CPX,0,1
9320,BUECA,03,86,CA,US,CPX,0,1
9320,CCRCA,03,86,CA,US,CPX,0,1
9320,FLECA,03,86,CA,US,CPX,0,1
9320,FLPCA,03,86,CA,US,CPX,0,1
9320,HLTCA,03,86,CA,US,CPX,0,1
9320,JDSCA,03,86,CA,US,CPX,0,1
9320,MMDCA,03,86,CA,US,CPX,0,1
9320,NORCA,03,86,CA,US,CPX,0,1
9320,ORSCA,03,86,CA,US,CPX,0,1
9320,STHCA,03,86,CA,US,CPX,0,1
9320,TKRCA,03,86,CA,US,CPX,0,1
9320,VISCA,03,86,CA,US,PKG,0,1
9330,AVACA,03,92,CA,US,XPT,0,1
9330,BKRCA,03,92,CA,US,PKG,0,1
9330,CPWCA,03,92,CA,US,CPX,0,1
9330,HLFCA,03,92,CA,US,CPX,0,1
9330,KCICA,03,92,CA,US,XPT,0,1
9330,MDMCA,03,92,CA,US,CPX,0,1
9330,NXCCA,03,92,CA,US,CPX,0,1
9330,TGTCA,03,92,CA,US,CPX,0,1
9330,WLMCA,03,92,CA,US,CPX,0,1
9340,SLOCA,03,92,CA,US,PKG,1,1
9340,TNWCA,03,92,CA,US,CPX,0,1
9341,SMACA,03,92,CA,US,PKG,0,1
9350,LANCC,03,92,CA,US,PKG,0,1
9351,RIDGE,03,92,CA,US,PKG,0,0
9352,BISHC,03,92,CA,US,PKG,0,0
9353,MOJCA,03,92,CA,US,PKG,0,0
9379,BRDCA,03,86,CA,US,CPX,0,0
9379,BSGCA,03,86,CA,US,CPX,0,0
9379,FRECA,03,86,CA,US,HUB,0,0
9379,GRMCA,03,86,CA,US,CPX,0,0
9379,GRYCA,03,86,CA,US,CPX,0,0
9379,KPSCA,03,86,CA,US,CPX,0,0
9379,MCTCA,03,86,CA,US,CPX,0,0
9379,MMRCA,03,86,CA,US,CPX,0,0
9379,MRECA,03,86,CA,US,CPX,0,0
9379,NTFCA,03,86,CA,US,CPX,0,0
9379,PDECA,03,86,CA,US,CPX,0,0
9379,SPFCA,03,86,CA,US,CPX,0,0
9379,SULCA,03,86,CA,US,CPX,0,0
9379,TURCA,03,86,CA,US,CPX,0,0
9379,VRZCA,03,86,CA,US,CPX,0,0
9379,WPSCA,03,86,CA,US,CPX,0,0
9379,WYTCA,03,86,CA,US,CPX,0,0
9390,SALCA,03,86,CA,US,PKG,0,0
9391,MONCA,03,86,CA,US,PKG,0,0
9409,AQRCA,03,86,CA,US,CPX,0,0
9409,DPYCA,03,86,CA,US,CPX,0,0
9409,DSPCA,03,86,CA,US,CPX,0,0
9409,FSCCA,03,86,CA,US,CPX,0,0
9409,GLFCA,03,86,CA,US,CPX,0,0
9409,HRACA,03,86,CA,US,XPT,0,0
9409,IDCCA,03,86,CA,US,CPX,0,0
9409,OFDCA,03,86,CA,US,CPX,0,0
9409,SUNCA,03,86,CA,US,HUB,1,1
9419,SFRCA,03,86,CA,US,HUB,1,1
9430,ANWCA,03,86,CA,US,CPX,0,0
9430,MENCA,03,86,CA,US,PKG,0,0
9430,ULSCA,03,86,CA,US,CPX,0,0
9444,NAPCA,03,86,CA,US,PKG,0,0
9449,SBRCA,03,86,CA,US,HUB,0,0
9449,SENCA,03,86,CA,US,CPX,0,0
9449,SHTCA,03,86,CA,US,CPX,0,0
9452,BEBCA,03,86,CA,US,CPX,0,0
9452,CONCA,03,86,CA,US,PKG,0,0
9452,LCECA,03,86,CA,US,CPX,0,0
9452,LCPCA,03,86,CA,US,CPX,0,0
9453,CRDCA,03,86,CA,US,PKG,0,0
9453,MYRCA,03,86,CA,US,CPX,0,0
9453,NBDCA,03,86,CA,US,CPX,0,0
9453,PFCCA,03,86,CA,US,CPX,0,0
9453,PGECA,03,86,CA,US,CPX,0,0
9453,TPACA,03,86,CA,US,CPX,0,0
9454,HADCA,03,86,CA,US,PKG,0,0
9459,APDCA,03,86,CA,US,CPX,0,0
9459,ENECA,03,86,CA,US,CPX,0,0
9459,SNSCA,03,86,CA,US,HUB,0,0
9469,AAXCA,03,86,CA,US,CPX,0,0
9469,AETCA,03,86,CA,US,CPX,0,0
9469,ALYCA,03,86,CA,US,CPX,0,0
9469,ARICA,03,86,CA,US,CPX,0,0
9469,C90SB,03,86,CA,US,BTL,0,0
9469,C97IT,03,86,CA,US,BTL,0,0
9469,CRRCA,03,86,CA,US,CPX,0,0
9469,CSECA,03,86,CA,US,CPX,0,0
9469,EPHCA,03,86,CA,US,CPX,0,0
9469,GATCA,03,86,CA,US,CPX,0,0
9469,GIGCA,03,86,CA,US,CPX,0,0
9469,HLPCA,03,86,CA,US,CPX,0,0
9469,HOMCA,03,86,CA,US,CPX,0,0
9469,ITOCA,03,86,CA,US,CPX,0,0
9469,KLPCA,03,86,CA,US,CPX,0,0
9469,OAKCA,03,86,CA,US,HUB,0,0
9469,ORICA,03,86,CA,US,CPX,0,0
9469,PEECA,03,86,CA,US,CPX,0,0
9469,PRLCA,03,86,CA,US,CPX,0,0
9469,RANCA,03,86,CA,US,CPX,0,0
9469,SIOCA,03,86,CA,US,CPX,0,0
9469,SPCCA,03,86,CA,US,CPX,0,0
9469,SWMCA,03,86,CA,US,CPX,0,0
9469,TGBCA,03,86,CA,US,CPX,0,0
9469,TGXCA,03,86,CA,US,CPX,0,0
9469,TMYCA,03,86,CA,US,CPX,0,0
9469,ZNUCA,03,86,CA,US,CPX,0,0
9472,BRWCA,03,86,CA,US,PKG,0,0
9479,OAKAP,03,86,CA,US,APT,0,0
9489,C91BA,03,86,CA,US,BTL,0,0
9489,DYNCA,03,86,CA,US,CPX,0,0
9489,JBECA,03,86,CA,US,CPX,0,0
9489,NBACA,03,86,CA,US,HUB,0,0
9489,NBYCA,03,86,CA,US,RRY,0,0
9489,POLCA,03,86,CA,US,XPT,0,0
9489,VINCA,03,86,CA,US,CPX,0,0
9489,WDRCA,03,86,CA,US,CPX,0,0
9490,SRFCA,03,86,CA,US,PKG,1,1
9491,PEACA,03,86,CA,US,HUB,0,0
9500,NNSCA,03,86,CA,US,CPX,0,1
9500,SCMCA,03,86,CA,US,CPX,0,1
9500,SCRCA,03,86,CA,US,PKG,0,1
9500,THRCA,03,86,CA,US,CPX,0,1
9516,OAK3 ,03,86,CA,US,CSL,0,0
9517,OAK4 ,03,86,CA,US,CSL,0,0
9519,ICUCA,03,86,CA,US,CPX,0,0
9519,LABCA,03,86,CA,US,CPX,0,0
9519,SJOCA,03,86,CA,US,HUB,0,0
951AM,SMF1 ,03,86,CA,US,CSL,0,0
9520,AZSCA,03,86,CA,US,CPX,0,0
9520,C91DT,03,86,CA,US,BTL,0,0
9520,C96SD,03,86,CA,US,BTL,0,0
9520,DWHCA,03,86,CA,US,CPX,0,0
9520,FRGCA,03,86,CA,US,CPX,0,0
9520,FVTCA,03,86,CA,US,CPX,0,0
9520,LFSCA,03,86,CA,US,CPX,0,0
9520,MLECA,03,86,CA,US,CPX,0,0
9520,SMPCA,03,86,CA,US,CPX,0,0
9520,SRGCA,03,86,CA,US,CPX,0,0
9520,STCCA,03,86,CA,US,CPX,0,0
9520,STKCA,03,86,CA,US,PKG,0,0
9520,STOCA,03,86,CA,US,RRY,0,0
9520,TDDCA,03,86,CA,US,CPX,0,0
9530,CVHCA,03,86,CA,US,CPX,0,0
9530,GRECA,03,86,CA,US,CPX,0,0
9530,MODCA,03,86,CA,US,PKG,0,0
9530,RHPCA,03,86,CA,US,CPX,0,0
9531,MERCA,03,86,CA,US,PKG,1,1
9532,ANGCA,03,86,CA,US,PKG,0,0
9539,HDXCA,03,86,CA,US,CPX,0,0
9539,JDECA,03,86,CA,US,CPX,0,0
9539,LAHCA,03,86,CA,US,HUB,0,0
9539,MQSCA,03,86,CA,US,CPX,0,0
9539,NPPCA,03,86,CA,US,CPX,0,0
953AM,SJC7 ,03,86,CA,US,CSL,0,0
953CO,953CO,03,86,CA,US,CSL,0,0
9540,NEMCA,03,86,CA,US,CPX,0,1
9540,SNRCA,03,86,CA,US,PKG,1,1
9541,UKACA,03,86,CA,US,HUB,1,1
9545,LAKCA,03,86,CA,US,PKG,1,1
9546,FTBCA,03,86,CA,US,PKG,1,1
9550,ACVCA,03,86,CA,US,XPT,0,0
9550,CRCCA,03,86,CA,US,PKG,0,0
9550,ERKCA,03,86,CA,US,HUB,1,1
9556,CDOCA,03,86,CA,US,PKG,0,0
9556,CSUCA,03,86,CA,US,CPX,0,0
9556,JCECA,03,86,CA,US,CPX,0,0
9556,KBRCA,03,86,CA,US,CPX,0,0
9556,LIACA,03,86,CA,US,CPX,0,0
9556,RLPCA,03,86,CA,US,CPX,0,0
9560,JBRCA,03,86,CA,US,CPX,0,0
9560,PIWCA,03,86,CA,US,CPX,0,0
9560,RKLCA,03,86,CA,US,HUB,0,0
9560,SHRCA,03,86,CA,US,CPX,0,0
9560,TTCCA,03,86,CA,US,CPX,0,0
9560,VEFCA,03,86,CA,US,CPX,0,0
9569,MATAS,03,86,CA,US,APT,0,0
9571,TAHCA,03,86,CA,US,PKG,0,0
9589,99HCY,03,86,CA,US,BTL,0,0
9589,ADMCA,03,86,CA,US,CPX,0,0
9589,C91BW,03,86,CA,US,BTL,0,0
9589,DPACA,03,86,CA,US,CPX,0,0
9589,EAECA,03,86,CA,US,CPX,0,0
9589,FLOCA,03,86,CA,US,CPX,0,0
9589,FOXCA,03,86,CA,US,CPX,0,0
9589,GYDCA,03,86,CA,US,CPX,0,0
9589,LOTCA,03,86,CA,US,CPX,0,0
9589,MADCA,03,86,CA,US,CPX,0,0
9589,MAICA,03,86,CA,US,CPX,0,0
9589,MYDCA,03,86,CA,US,CPX,0,0
9589,PINCA,03,86,CA,US,CPX,0,0
9589,QUACA,03,86,CA,US,CPX,0,0
9589,SACCA,03,86,CA,US,HUB,0,0
9589,SXICA,03,86,CA,US,CPX,0,0
9589,UNFCA,03,86,CA,US,CPX,0,0
9590,YCYCA,03,86,CA,US,PKG,0,0
9591,CHICA,03,86,CA,US,PKG,0,0
9591,KLECA,03,86,CA,US,CPX,0,0
9591,LIFCA,03,86,CA,US,CPX,0,0
9591,LLUCA,03,86,CA,US,CPX,0,0
9592,QUICA,03,86,CA,US,PKG,1,1
9593,GVACA,03,86,CA,US,PKG,0,0
9601,MGACA,03,86,CA,US,XPT,0,0
9601,YRECA,03,86,CA,US,PKG,1,1
9609,REDCA,03,86,CA,US,HUB,1,1
9610,SUSCA,03,86,CA,US,PKG,1,1
9701,ARLOR,03,76,OR,US,XPT,0,0
9701,FCOOR,03,76,OR,US,CPX,0,0
9701,TDAOR,03,76,OR,US,PKG,0,0
9709,9FCCY,03,76,OR,US,BTL,0,0
9709,ANTOR,03,76,OR,US,CPX,0,0
9709,BAHOR,03,76,OR,US,CPX,0,0
9709,COPOR,03,76,OR,US,CPX,0,0
9709,JCTOR,03,76,OR,US,CPX,0,0
9709,NWTOR,03,76,OR,US,CPX,0,0
9709,STEOR,03,76,OR,US,CPX,0,0
9709,TUAOR,03,76,OR,US,HUB,0,0
9710,ASTOR,03,76,OR,US,PKG,1,1
9711,TILOR,03,76,OR,US,PKG,1,1
9719,PDXAP,03,76,OR,US,APT,0,0
9724,BEVOR,03,76,OR,US,PKG,1,1
9729,AIROR,03,76,OR,US,CPX,0,0
9729,AUMOR,03,76,OR,US,CPX,0,0
9729,AWAOR,03,76,OR,US,CPX,0,0
9729,BBFOR,03,76,OR,US,CPX,0,0
9729,BOBOR,03,76,OR,US,CPX,0,0
9729,C97CD,03,76,OR,US,BTL,0,0
9729,C98GD,03,76,OR,US,BTL,0,0
9729,CAROR,03,76,OR,US,CPX,0,0
9729,CBEOR,03,76,OR,US,CPX,0,0
9729,CNTOR,03,76,OR,US,CPX,0,0
9729,CSTOR,03,76,OR,US,CPX,0,0
9729,EESOR,03,76,OR,US,CPX,0,0
9729,EEXOR,03,76,OR,US,CPX,0,0
9729,FCMOR,03,76,OR,US,CPX,0,0
9729,FULOR,03,76,OR,US,CPX,0,0
9729,GBEOR,03,76,OR,US,CPX,0,0
9729,GGROR,03,76,OR,US,CPX,0,0
9729,IENOR,03,76,OR,US,CPX,0,0
9729,JDEOR,03,76,OR,US,CPX,0,0
9729,MRHOR,03,76,OR,US,CPX,0,0
9729,ORFLX,03,76,OR,US,CPX,0,0
9729,POROR,03,76,OR,US,HUB,0,0
9729,PSPOR,03,76,OR,US,CPX,0,0
9729,RICOR,03,76,OR,US,CPX,0,0
9729,SANOR,03,76,OR,US,CPX,0,0
9729,SCHOR,03,76,OR,US,CPX,0,0
9729,SPAOR,03,76,OR,US,RRY,0,0
9729,SRUOR,03,76,OR,US,CPX,0,0
9729,STPOR,03,76,OR,US,CPX,0,0
9729,STXOR,03,76,OR,US,CPX,0,0
9729,SUBOR,03,76,OR,US,CPX,0,0
9729,SYSOR,03,76,OR,US,CPX,0,0
9729,USTOR,03,76,OR,US,CPX,0,0
9729,VTEOR,03,76,OR,US,CPX,0,0
9729,WCBOR,03,76,OR,US,CPX,0,0
9729,WSIOR,03,76,OR,US,CPX,0,0
9730,HOMOR,03,76,ID,US,CPX,0,1
9730,SALOR,03,76,OR,US,PKG,0,1
9731,COROR,03,76,OR,US,PKG,0,1
9731,RMAOR,03,76,OR,US,CPX,0,1
9731,TAROR,03,76,OR,US,CPX,0,1
9732,NEWOR,03,76,OR,US,PKG,1,1
9742,CBAOR,03,76,OR,US,PKG,1,1
9744,BROOR,03,76,OR,US,PKG,1,1
9749,AMAOR,03,76,OR,US,CPX,0,1
9749,INGOR,03,76,OR,US,CPX,0,1
9749,ROSOR,03,76,OR,US,HUB,0,1
9751,GPAOR,03,76,OR,US,PKG,0,0
9759,MDROR,03,76,OR,US,HUB,0,1
9760,KFAOR,03,76,OR,US,PKG,1,1
9769,C92KD,03,76,OR,US,BTL,0,1
9769,EGNOR,03,76,OR,US,HUB,1,1
9770,BENOR,03,76,OR,US,PKG,0,1
9780,PENOR,03,76,OR,US,PKG,1,1
9781,BAKOR,03,76,OR,US,PKG,0,0
9784,ENTOR,03,76,OR,US,PKG,1,1
9789,HEROR,03,76,OR,US,HUB,0,0
9789,KSTOR,03,76,OR,US,CPX,0,0
9799,SPGOR,03,76,OR,US,HUB,0,1
9809,C95RO,03,76,WA,US,BTL,0,0
9809,CLAWA,03,76,WA,US,CPX,0,0
9809,FABWA,03,76,WA,US,CPX,0,0
9809,HDSWA,03,76,WA,US,CPX,0,0
9809,KIMWA,03,76,WA,US,CPX,0,0
9809,OFDWA,03,76,WA,US,CPX,0,0
9809,PATWA,03,76,WA,US,CPX,0,0
9809,PCAWA,03,76,WA,US,CPX,0,0
9809,PROWA,03,76,WA,US,CPX,0,0
9809,TPSWA,03,76,WA,US,CPX,0,0
9809,TUKWA,03,76,WA,US,HUB,0,0
9809,USAWA,03,76,WA,US,CPX,0,0
9809,WG2WA,03,76,WA,US,CPX,0,0
9809,WWGWA,03,76,WA,US,CPX,0,0
9815,RSEWA,03,76,WA,US,PKG,0,0
9819,BNOWA,03,76,WA,US,RRY,0,0
9819,C9819,03,76,WA,US,BTL,0,0
9819,C98GR,03,76,WA,US,BTL,0,0
9819,SBOWA,03,76,WA,US,CPX,0,0
9819,SEAWA,03,76,WA,US,HUB,0,0
981AM,BFI4 ,03,76,WA,US,CSL,0,0
9821,9835,03,76,WA,US,PKG,0,1
9821,BURWA,03,76,WA,US,PKG,0,1
9822,BELWA,03,76,WA,US,PKG,0,0
9822,FCAWA,03,76,WA,US,CPX,0,0
9822,GRIWA,03,76,WA,US,CPX,0,0
9823,ARLWA,03,76,WA,US,PKG,1,1
9829,CBCWA,03,76,WA,US,CPX,0,0
9829,GINWA,03,76,WA,US,CPX,0,0
9829,KTRWA,03,76,WA,US,XPT,0,0
9829,NAFWA,03,76,WA,US,CPX,0,0
9829,NINWA,03,76,WA,US,CPU,0,0
9829,REDWA,03,76,WA,US,HUB,0,0
9829,SNAWA,03,76,WA,US,CPX,0,0
9830,PANWA,03,76,WA,US,PKG,1,1
9831,BREWA,03,76,WA,US,PKG,1,1
9832,PTOWA,03,76,WA,US,PKG,0,0
9839,BFIAP,03,76,WA,US,APT,1,1
9849,FIFWA,03,76,WA,US,HUB,0,0
9850,TUMWA,03,76,WA,US,PKG,0,0
9851,ELMWA,03,76,WA,US,PKG,0,0
9852,CHEWA,03,76,WA,US,PKG,0,0
9859,EVTWA,03,76,WA,US,HUB,0,0
9859,FUNWA,03,76,WA,US,CPX,0,0
9859,GLVWA,03,76,WA,US,CPX,0,0
9860,KELWA,03,76,WA,US,PKG,1,1
9869,IMPWA,03,76,WA,US,HUB,0,0
9879,VNCWA,03,76,WA,US,HUB,0,0
987AM,BFI7 ,03,76,WA,US,CSL,0,0
9880,WENWA,03,76,WA,US,PKG,1,1
9882,OMAWA,03,76,WA,US,PKG,1,1
9886,BFI3 ,03,76,WA,US,CSL,0,0
9889,MLKWA,03,76,WA,US,HUB,0,0
9890,C91DE,03,76,WA,US,BTL,0,1
9890,YAKWA,03,76,WA,US,PKG,1,1
9891,ELLWA,03,76,WA,US,PKG,1,1
9899,AHRWA,03,76,WA,US,CPX,0,0
9899,BRSWA,03,76,WA,US,CPX,0,0
9899,C90HW,03,76,WA,US,BTL,0,0
9899,EVOWA,03,76,WA,US,CPX,0,0
9899,IROWA,03,76,WA,US,CPX,0,0
9899,MCKWA,03,76,WA,US,CPX,0,0
9899,PACWA,03,76,WA,US,HUB,0,0
9899,PDIWA,03,76,WA,US,CPX,0,0
9899,REIWA,03,76,WA,US,CPX,0,0
9899,SCSWA,03,76,WA,US,CPX,0,0
9899,SMAWA,03,76,WA,US,CPX,0,0
9899,ULIWA,03,76,WA,US,CPX,0,0
9907,SPYWA,03,76,WA,US,CPX,0,0
9907,TRGWA,03,76,WA,US,CPX,0,0
9907,VLYWA,03,76,WA,US,PKG,1,1
9910,NWRWA,03,76,WA,US,CPX,0,0
9910,PULWA,03,76,WA,US,PKG,0,0
9911,COLWA,03,76,WA,US,PKG,0,0
9913,GCOWA,03,76,WA,US,PKG,0,0
9915,BFI1 ,03,76,WA,US,CSL,0,0
9929,JENWA,03,76,WA,US,CPX,0,0
9929,KSTWA,03,76,WA,US,CPX,0,0
9929,SBNWA,03,76,WA,US,RRY,0,0
9929,SPOWA,03,76,WA,US,HUB,0,0
9930,KWKWA,03,76,WA,US,PKG,1,1
9931,WALWA,03,76,WA,US,PKG,1,1
9949,GEGAP,03,76,WA,US,APT,0,0
9989,AIRWA,03,76,WA,US,CPX,0,0
9989,COHWA,03,76,WA,US,HUB,1,1
9989,DYSWA,03,76,WA,US,CPX,0,0
9989,LKQWA,03,76,WA,US,CPX,0,0
9989,SIGWA,03,76,WA,US,CPX,0,0
TD1CH,TD1CH,23,29,NY,US,CSL,0,0
